{
"type": "FeatureCollection",
"name": "komunikacja2_1942_b",
"crs": { "type": "name", "properties": { "name": "urn:ogc:def:crs:EPSG::3857" } },
"features": [
{ "type": "Feature", "properties": { "TERYT": "3028", "LOKALNYID": "F50D9BBC-9401-79F2-E043-CA2BA8C0F739", "WERSJAID": "2013-01-01T00:00:00", "PNAZW": "PL.PZGIK.308.BDOT10k", "GMLID": "OT_SKTR_L.17", "X_KOD": "SKTR01", "X_SKRKARTO": null, "X_SKRK_NIL": "inapplicable", "X_KATDOKG": "dokladny", "X_DOKLGEOM": null, "X_ZRODLOG": "ortofotomapa", "X_ZRODLOA": "pomiarTerenowy", "X_KATIST": "eksploatowany", "X_KATI_NIL": null, "X_RODZREPG": "osGeometryczna", "X_UWAGI": null, "X_UZYTKOWN": "Uzytkownik30.xml", "X_AKTG": "2004-05-14", "X_AKTA": "2009-05-19", "POCZWERS": "2013-02-28", "KONIECWERS": null, "X_DATAUTW": "2009-06-08", "X_INFDOD": null, "KOD10K": "0010_208", "KOD10K_NIL": null, "KOD25K": "0025_208", "KOD25K_NIL": null, "KOD50K": "0050_208", "KOD50K_NIL": null, "KOD100K": "0100_208", "KOD100_NIL": null, "KOD250K": null, "KOD250_NIL": "inapplicable", "KOD500K": null, "KOD500_NIL": "inapplicable", "KOD1000K": null, "KOD1000_NI": "inapplicable", "FUNKCTORU": "torSzlakowyStacyjny", "FTORU_NIL": null, "LICZBATOR": 1, "LTOROW_NIL": null, "POLOZENIE": "naPowierzchniGruntu", "POLOZ_NIL": null, "RODZPOJSZ": "kolej", "RODPSZ_NIL": null, "RODZAJTOR": "torNormalny", "RODZTOR_NI": null, "RODZAJTRAK": "niezelektryfikowana", "RODTRA_NIL": null, "LINKOL_NIL": null, "LIN_LOKID": "F50D9BBB-71FC-79F2-E043-CA2BA8C0F739", "LIN_PNAZW": null, "LIN_WERID": "1900-01-01T00:00:00", "LIN_NRLINI": "356", "W1_NAZWA": "Poznań Wschód", "W1_NRWEZ": "4", "WEZEL1_OZN": "ST", "W1_LOKID": "F50D9BBC-BC18-79F2-E043-CA2BA8C0F739", "W1_PNAZW": null, "W1_WERID": "1900-01-01T00:00:00", "W2_NAZWA": "Bydgoszcz Główna", "W2_NRWEZ": "3", "WEZEL2_OZN": "ST", "W2_LOKID": "F50D9BBC-BC17-79F2-E043-CA2BA8C0F739", "W2_PNAZW": null, "W2_WERID": "1900-01-01T00:00:00", "BD500_ID": null, "BD500_PNA": null, "BD500_WEID": null, "length": 24.61 }, "geometry": { "type": "MultiLineString", "coordinates": [ [ [ 1926054.460091581568122, 6973135.019098522141576 ], [ 1926018.621350166155025, 6973123.319732166826725 ], [ 1925972.880720079177991, 6973107.015661771409214 ], [ 1925961.362548111472279, 6973102.771492671221495 ], [ 1925945.137464645784348, 6973097.119683128781617 ], [ 1925901.517117243958637, 6973081.579990103840828 ], [ 1925807.578055171296, 6973046.419900975190103 ], [ 1925580.412210616515949, 6972964.629403833299875 ], [ 1925434.673259652685374, 6972910.290364521555603 ], [ 1925367.941720862174407, 6972885.359449313953519 ], [ 1925199.247929842211306, 6972823.475720897316933 ], [ 1925132.671303653623909, 6972799.061812222935259 ], [ 1925102.853338939137757, 6972787.984068240970373 ], [ 1925078.601413007592782, 6972779.115649114362895 ], [ 1925068.02007644274272, 6972775.241575771942735 ], [ 1924987.870386655442417, 6972743.159695647656918 ], [ 1924950.232212392380461, 6972724.319048305973411 ], [ 1924896.753207025118172, 6972694.185078153386712 ], [ 1924858.809039801126346, 6972670.801268463954329 ], [ 1924823.710107348160818, 6972647.651394898071885 ], [ 1924726.264432917814702, 6972581.229644460603595 ], [ 1924634.891205863561481, 6972517.377878100611269 ], [ 1924556.24806486046873, 6972461.156296417117119 ], [ 1924488.690687884343788, 6972415.482948467135429 ], [ 1924407.050445415079594, 6972359.936508762650192 ], [ 1924319.938017339678481, 6972299.008955576457083 ], [ 1924266.026651330990717, 6972261.502443566918373 ], [ 1924211.595567052485421, 6972224.963445834815502 ], [ 1924134.004211768275127, 6972172.137238368391991 ], [ 1924061.080167826963589, 6972119.605200062505901 ], [ 1924003.750148731982335, 6972079.623599739745259 ], [ 1923876.350573415867984, 6971990.533022206276655 ], [ 1923789.205186671344563, 6971929.933834112249315 ], [ 1923703.336600369773805, 6971870.743591582402587 ], [ 1923631.65948071796447, 6971821.046892046928406 ], [ 1923567.041559541132301, 6971777.632619178853929 ], [ 1923480.652365330606699, 6971717.481685481034219 ], [ 1923396.280885779066011, 6971658.242576502263546 ], [ 1923333.069576122798026, 6971613.631828153505921 ], [ 1923264.799822187516838, 6971567.154894811101258 ], [ 1923201.962130777537823, 6971522.918036751449108 ], [ 1923119.213450239039958, 6971467.354308218695223 ], [ 1923100.622266273479909, 6971453.983046992681921 ] ], [ [ 1923225.088991177035496, 6973326.49484352581203 ], [ 1923257.595074862008914, 6973312.96771081071347 ], [ 1923361.480724100256339, 6973268.097882803529501 ], [ 1923426.28172565298155, 6973240.596833869814873 ], [ 1923490.836479149525985, 6973213.670956720598042 ], [ 1923613.63573301048018, 6973160.962282152846456 ], [ 1923699.881444590631872, 6973123.075292860157788 ], [ 1923840.270422180648893, 6973063.110164703801274 ], [ 1923987.379735059570521, 6972999.250242340378463 ], [ 1924084.276711903512478, 6972957.976713107898831 ], [ 1924262.199860802851617, 6972883.370531206950545 ], [ 1924352.676125049125403, 6972844.349683734588325 ], [ 1924366.25665916246362, 6972838.494210598990321 ], [ 1924469.506962058367208, 6972794.029469473287463 ], [ 1924481.812630726024508, 6972789.505693797953427 ], [ 1924495.221779135987163, 6972784.576324746012688 ], [ 1924505.938831746578217, 6972780.645861241035163 ], [ 1924551.96625235164538, 6972766.577721045352519 ], [ 1924588.124044793890789, 6972757.041652424260974 ], [ 1924621.3716229358688, 6972747.917694680392742 ], [ 1924652.377002047142014, 6972742.478155393153429 ], [ 1924674.370368551462889, 6972738.966407416388392 ], [ 1924703.106777912937105, 6972736.246984647586942 ], [ 1924765.832228275481611, 6972734.33908324316144 ], [ 1924817.866457411553711, 6972735.282278164289892 ], [ 1924865.344459798652679, 6972738.259587166830897 ], [ 1924879.639496548799798, 6972739.979664595797658 ], [ 1924910.295346384402364, 6972743.668396612629294 ], [ 1924969.248798568965867, 6972754.046214107424021 ] ], [ [ 1924969.248798568965867, 6972754.046214107424021 ], [ 1925057.909880504244938, 6972780.150864444673061 ], [ 1925069.431013274006546, 6972783.532325671054423 ], [ 1925094.051288864808157, 6972792.243418054655194 ], [ 1925196.192544508958235, 6972830.015308258123696 ], [ 1925366.981015360914171, 6972891.63333897292614 ], [ 1925578.208936266833916, 6972970.890451314859092 ], [ 1925805.210072899004444, 6973052.643933121114969 ], [ 1925899.248584972694516, 6973087.806437198072672 ], [ 1925914.106197046115994, 6973093.110203348100185 ], [ 1925943.591535619460046, 6973103.629134517163038 ], [ 1925960.316317804623395, 6973109.176506258547306 ], [ 1925971.943002515472472, 6973113.738931835629046 ], [ 1926016.385241864714772, 6973129.580242440104485 ], [ 1926060.053847947623581, 6973148.011487929150462 ] ], [ [ 1926045.797664191341028, 6973122.834521296434104 ], [ 1926124.610518292756751, 6973149.39266053494066 ] ], [ [ 1926054.460091581568122, 6973135.019098522141576 ], [ 1926124.610518292756751, 6973149.39266053494066 ] ], [ [ 1926054.460091581568122, 6973135.019098522141576 ], [ 1926159.015596442157403, 6973171.292251899838448 ], [ 1926282.237619276857004, 6973212.35943947173655 ], [ 1926289.28998028463684, 6973214.819327809847891 ], [ 1926306.650319241918623, 6973220.846312769688666 ], [ 1926430.302004664670676, 6973264.845843599177897 ], [ 1926460.002849504817277, 6973275.418020306155086 ], [ 1926477.425802988465875, 6973281.612306882627308 ], [ 1926535.197010162752122, 6973303.03336715977639 ], [ 1926563.342964382609352, 6973313.485348867252469 ], [ 1926615.03511800384149, 6973332.652016965672374 ], [ 1926696.100992085412145, 6973362.946977065876126 ], [ 1926901.526467094663531, 6973438.397503012791276 ], [ 1926998.008457051590085, 6973472.243864066898823 ] ], [ [ 1927039.804023117059842, 6973500.03057044185698 ], [ 1927008.766799990320578, 6973484.892756417393684 ], [ 1926992.760600450681522, 6973479.03199309296906 ], [ 1926976.24518209695816, 6973472.97641543392092 ], [ 1926812.047895552124828, 6973413.372046024538577 ], [ 1926612.29205883666873, 6973340.047303546220064 ], [ 1926560.858803868060932, 6973321.850394086912274 ], [ 1926287.027565674856305, 6973222.906988364644349 ], [ 1926134.323293212102726, 6973173.265603695996106 ], [ 1926078.54821705003269, 6973154.431339271366596 ], [ 1926060.053847947623581, 6973148.011487929150462 ] ], [ [ 1926060.053847947623581, 6973148.011487929150462 ], [ 1926087.902317697647959, 6973165.402841565199196 ] ], [ [ 1926300.739395985146984, 6973238.168486692942679 ], [ 1926087.902317697647959, 6973165.402841565199196 ] ], [ [ 1926087.902317697647959, 6973165.402841565199196 ], [ 1926111.773213246138766, 6973179.277200010605156 ] ], [ [ 1926111.773213246138766, 6973179.277200010605156 ], [ 1926149.454362532822415, 6973194.392690219916403 ], [ 1926190.126748212845996, 6973209.180163924582303 ], [ 1926260.784052745206282, 6973234.430752511136234 ], [ 1926298.608332194155082, 6973246.309129556640983 ], [ 1926324.831441594753414, 6973254.639483205974102 ], [ 1926472.652434758609161, 6973305.541179003193974 ], [ 1926585.385180498473346, 6973345.957343748770654 ], [ 1926608.003706243354827, 6973354.650221740826964 ], [ 1926685.839758585672826, 6973384.154541373252869 ], [ 1926840.724232569104061, 6973439.370944635942578 ], [ 1926946.396139201475307, 6973474.298971791751683 ], [ 1927010.013201766880229, 6973496.752289923839271 ], [ 1927031.967872290872037, 6973503.401378625072539 ], [ 1927068.162211760180071, 6973514.20786421559751 ] ], [ [ 1926111.773213246138766, 6973179.277200010605156 ], [ 1926145.699731220956892, 6973199.686869633384049 ], [ 1926172.001457475591451, 6973213.103667412884533 ], [ 1926193.764658416621387, 6973222.89050585962832 ], [ 1926216.116966616595164, 6973231.594677155837417 ], [ 1926268.178590372437611, 6973246.9839818328619 ], [ 1926295.114093174925074, 6973256.029134785756469 ], [ 1926550.886844270862639, 6973343.430052423849702 ], [ 1926604.769450585125014, 6973363.196966867893934 ], [ 1926705.89968198328279, 6973400.163830387406051 ], [ 1926834.777175351977348, 6973446.98980747256428 ], [ 1926939.48520490899682, 6973483.440418641082942 ], [ 1927011.223798284772784, 6973503.078076922334731 ], [ 1927068.162211760180071, 6973514.20786421559751 ] ], [ [ 1926998.008457051590085, 6973472.243864066898823 ], [ 1926963.064565891865641, 6973451.962691364809871 ], [ 1926919.470313377911225, 6973433.736875013448298 ], [ 1926910.46304348250851, 6973430.516874277032912 ], [ 1926821.099158567842096, 6973398.499267427250743 ], [ 1926639.673508834792301, 6973332.98534566257149 ], [ 1926626.990627074614167, 6973328.199424272403121 ], [ 1926617.314191084587947, 6973324.547934884205461 ], [ 1926565.7174167255871, 6973304.851877362467349 ], [ 1926543.295124236959964, 6973296.279877708293498 ], [ 1926475.206148907309398, 6973270.294875157997012 ], [ 1926463.116291882935911, 6973265.672294982708991 ], [ 1926395.489076876547188, 6973242.621843657456338 ], [ 1926358.773606822593138, 6973230.105594739317894 ], [ 1926328.010168952401727, 6973219.624236924573779 ], [ 1926309.151012682588771, 6973213.196276626549661 ], [ 1926291.655428730882704, 6973207.282402663491666 ], [ 1926222.06738989171572, 6973183.785438779741526 ], [ 1926159.679720065789297, 6973161.405638808384538 ], [ 1926124.610518292756751, 6973149.39266053494066 ] ], [ [ 1926610.491735860938206, 6973346.11906909942627 ], [ 1926753.29809488914907, 6973398.25996414758265 ], [ 1926881.976456000935286, 6973445.811529946513474 ], [ 1927039.804023117059842, 6973500.03057044185698 ] ], [ [ 1926998.008457051590085, 6973472.243864066898823 ], [ 1927022.881078424630687, 6973485.209176569245756 ], [ 1927069.438165813218802, 6973509.984424503520131 ] ], [ [ 1927039.804023117059842, 6973500.03057044185698 ], [ 1927069.438165813218802, 6973509.984424503520131 ] ], [ [ 1927068.162211760180071, 6973514.20786421559751 ], [ 1927107.940681219566613, 6973523.437187550589442 ] ], [ [ 1927069.438165813218802, 6973509.984424503520131 ], [ 1927107.940681219566613, 6973523.437187550589442 ] ], [ [ 1927107.940681219566613, 6973523.437187550589442 ], [ 1927142.102521668653935, 6973536.106201583519578 ], [ 1927179.02492026402615, 6973549.8038659254089 ], [ 1927218.71335894218646, 6973564.297659539617598 ], [ 1927251.352069936692715, 6973576.199282549321651 ], [ 1927371.126115402439609, 6973620.609747570008039 ], [ 1927483.2798411634285, 6973662.064466061070561 ], [ 1927559.856490830192342, 6973690.40179761685431 ], [ 1927694.899397390661761, 6973739.786420779302716 ], [ 1927807.694839095696807, 6973781.584558445028961 ], [ 1927830.65013418532908, 6973789.451525991782546 ], [ 1927850.004240981768817, 6973796.08733746688813 ], [ 1927961.702342555159703, 6973836.678054213523865 ], [ 1928085.74598858691752, 6973882.425582509487867 ], [ 1928109.610971340211108, 6973891.110757160000503 ], [ 1928285.789389175828546, 6973955.226301942020655 ], [ 1928464.106340896571055, 6974022.296377661637962 ], [ 1928599.520162947941571, 6974070.463271593675017 ], [ 1928801.031972276978195, 6974146.095232943072915 ], [ 1929071.809490079758689, 6974244.293471584096551 ], [ 1929191.3562191426754, 6974286.497931685298681 ], [ 1929277.709868948673829, 6974318.339027071371675 ], [ 1929282.505275430390611, 6974320.107422753237188 ] ] ] } }
]
}
