{
"type": "FeatureCollection",
"name": "komunikacja2_2023",
"crs": { "type": "name", "properties": { "name": "urn:ogc:def:crs:EPSG::3857" } },
"features": [
{ "type": "Feature", "properties": { "TERYT": "3028", "LOKALNYID": "2EBDC9DC-A1FC-7DB6-E053-CC2BA8C07DDB", "WERSJAID": "2020-01-20T00:00:00", "PNAZW": "PL.PZGiK.308.BDOT10k", "GMLID": "OT_SKTR_L.26", "X_KOD": "SKTR01", "X_SKRKARTO": null, "X_SKRK_NIL": "inapplicable", "X_KATDOKG": "dokladny", "X_DOKLGEOM": null, "X_ZRODLOG": "ortofotomapa", "X_ZRODLOA": "pomiarTerenowy", "X_KATIST": "eksploatowany", "X_KATI_NIL": null, "X_RODZREPG": "osGeometryczna", "X_UWAGI": null, "X_UZYTKOWN": "Uzytkownik30.xml", "X_AKTG": "2011-01-01", "X_AKTA": "2020-01-20", "POCZWERS": "2020-01-20", "KONIECWERS": null, "X_DATAUTW": "2012-11-13", "X_INFDOD": null, "KOD10K": "0010_208", "KOD10K_NIL": null, "KOD25K": "0025_208", "KOD25K_NIL": null, "KOD50K": "0050_208", "KOD50K_NIL": null, "KOD100K": "0100_208", "KOD100_NIL": null, "KOD250K": null, "KOD250_NIL": "inapplicable", "KOD500K": null, "KOD500_NIL": "inapplicable", "KOD1000K": null, "KOD1000_NI": "inapplicable", "FUNKCTORU": "torSzlakowyStacyjny", "FTORU_NIL": null, "LICZBATOR": 1, "LTOROW_NIL": null, "POLOZENIE": "naPowierzchniGruntu", "POLOZ_NIL": null, "RODZPOJSZ": "kolej", "RODPSZ_NIL": null, "RODZAJTOR": "torNormalny", "RODZTOR_NI": null, "RODZAJTRAK": "niezelektryfikowana", "RODTRA_NIL": null, "LINKOL_NIL": null, "LIN_LOKID": "EAE5496C5F02944CE0536547A8C02F55", "LIN_PNAZW": null, "LIN_WERID": "0", "LIN_NRLINI": "356", "W1_NAZWA": "Poznań Wschód", "W1_NRWEZ": "4", "WEZEL1_OZN": "ST", "W1_LOKID": "EAE5496C6192944CE0536547A8C02F55", "W1_PNAZW": null, "W1_WERID": "0", "W2_NAZWA": "Bydgoszcz Główna", "W2_NRWEZ": "3", "WEZEL2_OZN": "ST", "W2_LOKID": "EAE5496C6191944CE0536547A8C02F55", "W2_PNAZW": null, "W2_WERID": "0", "BD500_ID": null, "BD500_PNA": null, "BD500_WEID": null, "length": 604.59 }, "geometry": { "type": "MultiLineString", "coordinates": [ [ [ 1926002.037638511043042, 6973117.410299280658364 ], [ 1925972.880720079177991, 6973107.015661771409214 ], [ 1925961.362548111472279, 6973102.771492671221495 ], [ 1925945.137464645784348, 6973097.119683128781617 ], [ 1925901.517117243958637, 6973081.579990103840828 ], [ 1925807.578055171296, 6973046.419900975190103 ], [ 1925580.412210616515949, 6972964.629403833299875 ], [ 1925434.673259652685374, 6972910.290364521555603 ], [ 1925367.941720862174407, 6972885.359449313953519 ], [ 1925199.247929842211306, 6972823.475720897316933 ], [ 1925132.671303653623909, 6972799.061812222935259 ], [ 1925102.853338939137757, 6972787.984068240970373 ], [ 1925078.601413007592782, 6972779.115649114362895 ], [ 1925068.02007644274272, 6972775.241575771942735 ], [ 1925000.832510217092931, 6972747.273389014415443 ], [ 1924949.341291598975658, 6972722.752713105641305 ], [ 1924896.753207025118172, 6972694.185078153386712 ], [ 1924870.945170313119888, 6972678.284621371887624 ], [ 1924822.709978813771158, 6972645.80002146679908 ], [ 1924727.520519564859569, 6972579.980401422828436 ], [ 1924635.811290856916457, 6972516.319991873577237 ], [ 1924556.24806486046873, 6972461.156296417117119 ], [ 1924479.767782914452255, 6972408.109312306158245 ], [ 1924408.515542034758255, 6972358.958158941008151 ], [ 1924384.587158252485096, 6972342.15478886757046 ], [ 1924321.240207191789523, 6972298.608183255419135 ], [ 1924267.098935303278267, 6972261.013114025816321 ], [ 1924212.842234880430624, 6972223.415083362720907 ], [ 1924141.39657908026129, 6972173.477208365686238 ], [ 1924131.108608459820971, 6972166.386338863521814 ], [ 1924061.080167826963589, 6972119.605200062505901 ], [ 1924003.750148731982335, 6972079.623599739745259 ], [ 1923876.350573415867984, 6971990.533022206276655 ], [ 1923789.205186671344563, 6971929.933834112249315 ], [ 1923765.304590368410572, 6971913.462383594363928 ], [ 1923703.336600369773805, 6971870.743591582402587 ], [ 1923631.65948071796447, 6971821.046892046928406 ], [ 1923567.041559541132301, 6971777.632619178853929 ], [ 1923515.077536774566397, 6971741.449278918094933 ], [ 1923480.652365330606699, 6971717.481685481034219 ], [ 1923396.280885779066011, 6971658.242576502263546 ], [ 1923333.069576122798026, 6971613.631828153505921 ], [ 1923264.799822187516838, 6971567.154894811101258 ], [ 1923201.962130777537823, 6971522.918036751449108 ], [ 1923197.689100040122867, 6971520.057693939656019 ], [ 1923120.852899804245681, 6971466.015055048279464 ], [ 1923101.285936896689236, 6971452.191363591700792 ] ], [ [ 1924021.08093604655005, 6972164.530598163604736 ], [ 1923942.03766115475446, 6972110.123129744082689 ], [ 1923869.277661885134876, 6972059.819724122062325 ], [ 1923841.450386628508568, 6972040.512998058460653 ], [ 1923822.181698309956118, 6972027.142851239070296 ], [ 1923778.226729193003848, 6971996.883549351245165 ] ], [ [ 1924021.08093604655005, 6972164.530598163604736 ], [ 1924098.441788652678952, 6972206.138727005571127 ] ], [ [ 1924021.08093604655005, 6972164.530598163604736 ], [ 1924071.514031385304406, 6972200.493063388392329 ] ], [ [ 1924071.514031385304406, 6972200.493063388392329 ], [ 1924145.330160584533587, 6972252.482058312743902 ], [ 1924174.985576478997245, 6972271.632646613754332 ], [ 1924212.347150494344532, 6972297.048032852821052 ], [ 1924296.190846735378727, 6972355.323495400138199 ] ], [ [ 1924071.514031385304406, 6972200.493063388392329 ], [ 1924115.917955933604389, 6972240.513965762220323 ], [ 1924165.518881581490859, 6972283.616389735601842 ], [ 1924184.191935320850462, 6972299.081698367372155 ], [ 1924206.021805965108797, 6972315.602752706035972 ], [ 1924226.275328588671982, 6972329.427955735474825 ], [ 1924255.739487560000271, 6972349.670303011313081 ], [ 1924283.668966765049845, 6972369.643272424116731 ], [ 1924309.12102274922654, 6972386.483471425250173 ], [ 1924355.865766552044079, 6972419.466129868291318 ], [ 1924371.1238124424126, 6972430.13138804025948 ], [ 1924413.052894094726071, 6972459.360357857309282 ], [ 1924428.792614176869392, 6972469.987239017151296 ], [ 1924477.067278329282999, 6972503.487899607978761 ], [ 1924520.695635619806126, 6972533.770614128559828 ], [ 1924535.424116377718747, 6972543.725279784761369 ], [ 1924553.841847567120567, 6972556.741925291717052 ], [ 1924582.084742262260988, 6972576.838133783079684 ], [ 1924655.721569300862029, 6972627.591069856658578 ], [ 1924701.310897625749931, 6972659.797441940754652 ], [ 1924731.934965884080157, 6972680.847383422777057 ] ], [ [ 1924098.441788652678952, 6972206.138727005571127 ], [ 1924168.20174529380165, 6972244.756697320379317 ] ], [ [ 1924098.441788652678952, 6972206.138727005571127 ], [ 1924162.146017202176154, 6972249.91114782076329 ], [ 1924231.994235779391602, 6972298.764440136961639 ] ], [ [ 1924168.20174529380165, 6972244.756697320379317 ], [ 1924198.513362597674131, 6972259.321133250370622 ], [ 1924238.777522682677954, 6972283.244251775555313 ], [ 1924296.874498458113521, 6972322.446079581044614 ], [ 1924399.626325782155618, 6972394.729479651898146 ], [ 1924484.961021291557699, 6972455.913399827666581 ], [ 1924577.23581971693784, 6972520.103619396686554 ], [ 1924617.821334630949423, 6972549.432621843181551 ], [ 1924631.325022135628387, 6972560.720165851525962 ], [ 1924661.359208040405065, 6972587.736897859722376 ] ], [ [ 1924168.20174529380165, 6972244.756697320379317 ], [ 1924228.082428140100092, 6972285.579793609678745 ], [ 1924296.924673926783726, 6972332.863629369065166 ], [ 1924404.2810810348019, 6972407.350529388524592 ], [ 1924487.816867569694296, 6972468.225667353719473 ], [ 1924558.563002126291394, 6972517.813228226266801 ], [ 1924607.940341850044206, 6972552.369677251204848 ], [ 1924661.359208040405065, 6972587.736897859722376 ] ], [ [ 1924231.994235779391602, 6972298.764440136961639 ], [ 1924305.295797894708812, 6972349.477656364440918 ], [ 1924371.045778781641275, 6972395.125570950098336 ], [ 1924444.535191929666325, 6972447.071969616226852 ], [ 1924464.794173246016726, 6972461.395313205197453 ], [ 1924538.156251054257154, 6972513.172084849327803 ], [ 1924601.507250310154632, 6972557.366119432263076 ], [ 1924628.883474076865241, 6972576.278505990281701 ], [ 1924646.011499889427796, 6972587.087800663895905 ], [ 1924666.542971297167242, 6972599.04164557531476 ], [ 1924696.619042094564065, 6972613.84838143363595 ] ], [ [ 1924231.994235779391602, 6972298.764440136961639 ], [ 1924296.190846735378727, 6972355.323495400138199 ] ], [ [ 1924296.190846735378727, 6972355.323495400138199 ], [ 1924361.305846625007689, 6972401.886661361902952 ], [ 1924365.056467186193913, 6972404.451761384494603 ], [ 1924435.977211215067655, 6972452.914507855661213 ], [ 1924438.568485467229038, 6972454.754103176295757 ], [ 1924485.324409197317436, 6972488.002352979034185 ], [ 1924543.102247750619426, 6972528.192528496496379 ], [ 1924585.024206989444792, 6972557.071884830482304 ], [ 1924689.792539267335087, 6972631.212669879198074 ], [ 1924748.116698908852413, 6972670.119234268553555 ] ], [ [ 1924661.359208040405065, 6972587.736897859722376 ], [ 1924696.619042094564065, 6972613.84838143363595 ] ], [ [ 1924696.619042094564065, 6972613.84838143363595 ], [ 1924746.657369147287682, 6972647.838681281544268 ], [ 1924783.755535365780815, 6972674.027093748562038 ], [ 1924812.142594124656171, 6972691.584309209138155 ], [ 1924828.560057234019041, 6972701.628780313767493 ], [ 1924845.511546633439139, 6972710.124280265532434 ], [ 1924860.682455925969407, 6972717.530590742826462 ], [ 1924882.800365759758279, 6972726.913557211868465 ], [ 1924900.348250937648118, 6972733.329855566844344 ], [ 1924956.462577970931306, 6972750.20248331874609 ], [ 1925023.746424796525389, 6972769.218458293937147 ], [ 1925056.877754131797701, 6972778.946670359000564 ], [ 1925069.431013274006546, 6972783.532325671054423 ], [ 1925094.051288864808157, 6972792.243418054655194 ], [ 1925196.192544508958235, 6972830.015308258123696 ], [ 1925366.981015360914171, 6972891.63333897292614 ], [ 1925578.208936266833916, 6972970.890451314859092 ], [ 1925805.210072899004444, 6973052.643933121114969 ], [ 1925899.248584972694516, 6973087.806437198072672 ], [ 1925914.106197046115994, 6973093.110203348100185 ], [ 1925943.591535619460046, 6973103.629134517163038 ], [ 1925960.316317804623395, 6973109.176506258547306 ], [ 1925971.943002515472472, 6973113.738931835629046 ], [ 1926018.605537440627813, 6973133.819793031550944 ], [ 1926087.902317697647959, 6973165.402841565199196 ] ], [ [ 1926054.460091581568122, 6973135.019098522141576 ], [ 1926018.621350166155025, 6973123.319732166826725 ], [ 1926002.037638511043042, 6973117.410299280658364 ] ], [ [ 1926002.037638511043042, 6973117.410299280658364 ], [ 1926030.342116394313052, 6973131.622600237838924 ], [ 1926044.320815816987306, 6973139.763020909391344 ] ], [ [ 1926044.320815816987306, 6973139.763020909391344 ], [ 1926078.54821705003269, 6973154.431339271366596 ], [ 1926134.323293212102726, 6973173.265603695996106 ], [ 1926287.027565674856305, 6973222.906988364644349 ], [ 1926477.954466010443866, 6973290.131660216487944 ], [ 1926563.680363909574226, 6973321.684520484879613 ], [ 1926612.29205883666873, 6973340.047303546220064 ], [ 1926812.048114686040208, 6973412.6575982645154 ], [ 1926976.24518209695816, 6973472.97641543392092 ], [ 1926992.760600450681522, 6973479.03199309296906 ], [ 1927017.386333355912939, 6973489.100438131019473 ], [ 1927040.765426147961989, 6973497.909871350973845 ], [ 1927070.40794190322049, 6973508.212839676067233 ] ], [ [ 1926044.320815816987306, 6973139.763020909391344 ], [ 1926087.902317697647959, 6973165.402841565199196 ] ], [ [ 1926045.797664191341028, 6973122.834521296434104 ], [ 1926124.610518292756751, 6973149.39266053494066 ] ], [ [ 1926054.460091581568122, 6973135.019098522141576 ], [ 1926124.610518292756751, 6973149.39266053494066 ] ], [ [ 1926054.460091581568122, 6973135.019098522141576 ], [ 1926159.015596442157403, 6973171.292251899838448 ], [ 1926282.237619276857004, 6973212.35943947173655 ], [ 1926289.28998028463684, 6973214.819327809847891 ], [ 1926306.650319241918623, 6973220.846312769688666 ], [ 1926430.302004664670676, 6973264.845843599177897 ], [ 1926460.002849504817277, 6973275.418020306155086 ], [ 1926477.425802988465875, 6973281.612306882627308 ], [ 1926535.197010162752122, 6973303.03336715977639 ], [ 1926563.342964382609352, 6973313.485348867252469 ], [ 1926615.03511800384149, 6973332.652016965672374 ], [ 1926696.100992085412145, 6973362.946977065876126 ], [ 1926901.526467094663531, 6973438.397503012791276 ], [ 1926998.008457051590085, 6973472.243864066898823 ] ], [ [ 1926300.739395985146984, 6973238.168486692942679 ], [ 1926087.902317697647959, 6973165.402841565199196 ] ], [ [ 1926087.902317697647959, 6973165.402841565199196 ], [ 1926111.773213246138766, 6973179.277200010605156 ] ], [ [ 1926111.773213246138766, 6973179.277200010605156 ], [ 1926149.454362532822415, 6973194.392690219916403 ], [ 1926190.126748212845996, 6973209.180163924582303 ], [ 1926260.241053614299744, 6973234.96617815643549 ], [ 1926298.760019308654591, 6973247.60868079867214 ], [ 1926329.794826801866293, 6973257.830775727517903 ], [ 1926464.832886061863974, 6973305.389366939663887 ], [ 1926580.229231828590855, 6973346.716004460118711 ], [ 1926610.703292151447386, 6973357.555234568193555 ], [ 1926685.839758585672826, 6973384.154541373252869 ], [ 1926814.599354320438579, 6973431.04442962538451 ], [ 1926842.96070492034778, 6973441.533899871632457 ], [ 1926940.633610871154815, 6973476.887860012240708 ], [ 1926989.694816604489461, 6973493.830366955138743 ], [ 1927034.51214390899986, 6973505.870635384693742 ], [ 1927062.754206692334265, 6973513.698138380423188 ] ], [ [ 1926111.773213246138766, 6973179.277200010605156 ], [ 1926145.699731220956892, 6973199.686869633384049 ], [ 1926172.001457475591451, 6973213.103667412884533 ], [ 1926193.764658416621387, 6973222.89050585962832 ], [ 1926216.116966616595164, 6973231.594677155837417 ], [ 1926268.178590372437611, 6973246.9839818328619 ], [ 1926295.114093174925074, 6973256.029134785756469 ], [ 1926349.139064199058339, 6973271.813370103947818 ], [ 1926462.148106794105843, 6973311.00815405882895 ], [ 1926550.886844270862639, 6973343.430052423849702 ], [ 1926604.769450585125014, 6973363.196966867893934 ], [ 1926705.89968198328279, 6973400.163830387406051 ], [ 1926834.777175351977348, 6973446.98980747256428 ], [ 1926874.924217303283513, 6973460.964282300323248 ], [ 1926913.99343931931071, 6973476.375279566273093 ], [ 1926952.815913279540837, 6973490.301523616537452 ], [ 1926983.855255954898894, 6973500.405160583555698 ], [ 1927010.511638128198683, 6973506.583731013350189 ], [ 1927030.570462393574417, 6973510.67917309794575 ], [ 1927062.754206692334265, 6973513.698138380423188 ] ], [ [ 1926998.008457051590085, 6973472.243864066898823 ], [ 1926963.064565891865641, 6973451.962691364809871 ], [ 1926919.470313377911225, 6973433.736875013448298 ], [ 1926910.46304348250851, 6973430.516874277032912 ], [ 1926821.099158567842096, 6973398.499267427250743 ], [ 1926639.673508834792301, 6973332.98534566257149 ], [ 1926626.990627074614167, 6973328.199424272403121 ], [ 1926617.314191084587947, 6973324.547934884205461 ], [ 1926565.7174167255871, 6973304.851877362467349 ], [ 1926543.295124236959964, 6973296.279877708293498 ], [ 1926475.206148907309398, 6973270.294875157997012 ], [ 1926463.116291882935911, 6973265.672294982708991 ], [ 1926395.489076876547188, 6973242.621843657456338 ], [ 1926358.773606822593138, 6973230.105594739317894 ], [ 1926328.010168952401727, 6973219.624236924573779 ], [ 1926309.151012682588771, 6973213.196276626549661 ], [ 1926291.655428730882704, 6973207.282402663491666 ], [ 1926222.06738989171572, 6973183.785438779741526 ], [ 1926159.679720065789297, 6973161.405638808384538 ], [ 1926124.610518292756751, 6973149.39266053494066 ] ], [ [ 1926610.491735860938206, 6973346.11906909942627 ], [ 1926753.29809488914907, 6973398.25996414758265 ], [ 1926881.976456000935286, 6973445.811529946513474 ], [ 1926973.828441792400554, 6973481.310111882165074 ], [ 1927062.754206692334265, 6973513.698138380423188 ] ], [ [ 1926998.008457051590085, 6973472.243864066898823 ], [ 1927022.881078424630687, 6973485.209176569245756 ], [ 1927070.40794190322049, 6973508.212839676067233 ] ], [ [ 1927062.754206692334265, 6973513.698138380423188 ], [ 1927107.940681219566613, 6973523.437187550589442 ] ], [ [ 1927070.40794190322049, 6973508.212839676067233 ], [ 1927107.940681219566613, 6973523.437187550589442 ] ], [ [ 1927107.940681219566613, 6973523.437187550589442 ], [ 1927142.102521668653935, 6973536.106201583519578 ], [ 1927165.041241799248382, 6973544.622472223825753 ], [ 1927179.02492026402615, 6973549.8038659254089 ], [ 1927218.71335894218646, 6973564.297659539617598 ], [ 1927251.352069936692715, 6973576.199282549321651 ], [ 1927371.126115402439609, 6973620.609747570008039 ], [ 1927460.536893338430673, 6973653.653296699747443 ], [ 1927483.2798411634285, 6973662.064466061070561 ], [ 1927559.856490830192342, 6973690.40179761685431 ], [ 1927694.899397390661761, 6973739.786420779302716 ], [ 1927807.694839095696807, 6973781.584558445028961 ], [ 1927830.65013418532908, 6973789.451525991782546 ], [ 1927850.004240981768817, 6973796.08733746688813 ], [ 1927961.702342555159703, 6973836.678054213523865 ], [ 1928085.74598858691752, 6973882.425582509487867 ], [ 1928109.610971340211108, 6973891.110757160000503 ], [ 1928285.789389175828546, 6973955.226301942020655 ], [ 1928464.106340896571055, 6974022.296377661637962 ], [ 1928599.520162947941571, 6974070.463271593675017 ], [ 1928635.934406261425465, 6974084.12653736397624 ], [ 1928801.031972276978195, 6974146.095232943072915 ], [ 1929071.809490079758689, 6974244.293471584096551 ], [ 1929191.3562191426754, 6974286.497931685298681 ], [ 1929277.709868948673829, 6974318.339027071371675 ], [ 1929282.505268907407299, 6974320.107439445331693 ] ] ] } }
]
}
