{
"type": "FeatureCollection",
"name": "komunikacja2_2022",
"crs": { "type": "name", "properties": { "name": "urn:ogc:def:crs:OGC:1.3:CRS84" } },
"features": [
{ "type": "Feature", "properties": { "TERYT": "3028", "LOKALNYID": "2EBDC9DC-A1F0-7DB6-E053-CC2BA8C07DDB", "WERSJAID": "2020-01-20T00:00:00", "PNAZW": "PL.PZGiK.308.BDOT10k", "GMLID": "OT_SKTR_L.126", "X_KOD": "SKTR01", "X_SKRKARTO": null, "X_SKRK_NIL": "inapplicable", "X_KATDOKG": "dokladny", "X_DOKLGEOM": null, "X_ZRODLOG": "ortofotomapa", "X_ZRODLOA": "pomiarTerenowy", "X_KATIST": "eksploatowany", "X_KATI_NIL": null, "X_RODZREPG": "osGeometryczna", "X_UWAGI": null, "X_UZYTKOWN": "Uzytkownik30.xml", "X_AKTG": "2015-01-10", "X_AKTA": "2020-01-20", "POCZWERS": "2020-01-20", "KONIECWERS": null, "X_DATAUTW": "2012-11-13", "X_INFDOD": null, "KOD10K": "0010_208", "KOD10K_NIL": null, "KOD25K": "0025_208", "KOD25K_NIL": null, "KOD50K": "0050_208", "KOD50K_NIL": null, "KOD100K": "0100_208", "KOD100_NIL": null, "KOD250K": null, "KOD250_NIL": "inapplicable", "KOD500K": null, "KOD500_NIL": "inapplicable", "KOD1000K": null, "KOD1000_NI": "inapplicable", "FUNKCTORU": "torSzlakowyZwykly", "FTORU_NIL": null, "LICZBATOR": 1, "LTOROW_NIL": null, "POLOZENIE": "naPowierzchniGruntu", "POLOZ_NIL": null, "RODZPOJSZ": "kolej", "RODPSZ_NIL": null, "RODZAJTOR": "torNormalny", "RODZTOR_NI": null, "RODZAJTRAK": "niezelektryfikowana", "RODTRA_NIL": null, "LINKOL_NIL": null, "LIN_LOKID": "EAE5496C5F00944CE0536547A8C02F55", "LIN_PNAZW": null, "LIN_WERID": "0", "LIN_NRLINI": "236", "W1_NAZWA": "Bzowo Goraj", "W1_NRWEZ": "8", "WEZEL1_OZN": "L", "W1_LOKID": "EAE5496C6196944CE0536547A8C02F55", "W1_PNAZW": null, "W1_WERID": "0", "W2_NAZWA": "Wągrowiec", "W2_NRWEZ": "7", "WEZEL2_OZN": "ST", "W2_LOKID": "EAE5496C6195944CE0536547A8C02F55", "W2_PNAZW": null, "W2_WERID": "0", "BD500_ID": null, "BD500_PNA": null, "BD500_WEID": null, "length": 345.13 }, "geometry": { "type": "MultiLineString", "coordinates": [ [ [ 17.301570676560164, 52.946550973994228 ], [ 17.301308755505509, 52.94649470896379 ], [ 17.301205286006272, 52.946471735721857 ], [ 17.301059533601642, 52.946441143050997 ], [ 17.300667685353943, 52.946357028159866 ], [ 17.299823816401588, 52.946166709313466 ], [ 17.297783150899651, 52.945723980431275 ], [ 17.29647395562823, 52.945429842751913 ], [ 17.295874496015944, 52.945294890827775 ], [ 17.29435909390785, 52.944959910201845 ], [ 17.293761025899148, 52.944827755421066 ], [ 17.293493166564705, 52.944767790419242 ], [ 17.29327530780737, 52.944719784667029 ], [ 17.293180254043744, 52.944698813854686 ], [ 17.292576697867311, 52.944547418485428 ], [ 17.292114144380484, 52.944414684497126 ], [ 17.29164173757913, 52.944260043216765 ], [ 17.291409900040815, 52.944173971204165 ], [ 17.290976595943253, 52.943998125730403 ], [ 17.290121494481948, 52.943641829101075 ], [ 17.289297656463518, 52.943297217979627 ], [ 17.288582927843851, 52.942998599664023 ], [ 17.287895893781794, 52.942711437824165 ], [ 17.287255824011694, 52.942445363774738 ], [ 17.287040871682937, 52.942354400310791 ], [ 17.286471816339535, 52.942118663965779 ], [ 17.285985457019141, 52.941915144791935 ], [ 17.285498060786583, 52.941711608629056 ], [ 17.284856253540692, 52.941441269493183 ], [ 17.284763835128182, 52.941402882870342 ], [ 17.284134758942749, 52.941149630997273 ], [ 17.283619754618826, 52.940933187567538 ], [ 17.28247530476186, 52.940450885065751 ], [ 17.281692464433331, 52.940122821037804 ], [ 17.281477761723746, 52.940033649604544 ], [ 17.280921093798323, 52.939802382175401 ], [ 17.280277207277276, 52.939533336777721 ], [ 17.279696734615065, 52.939298301484563 ], [ 17.27922993385631, 52.939102411889486 ], [ 17.278920687279644, 52.938972655493146 ], [ 17.278162765383396, 52.938651943556231 ], [ 17.27759492852746, 52.938410425871318 ], [ 17.276981650893429, 52.93815880343233 ], [ 17.276417170307305, 52.937919307224583 ], [ 17.276378785019094, 52.937903821421465 ], [ 17.275688553688642, 52.937611235287527 ], [ 17.275512780793008, 52.937536393402411 ] ], [ [ 17.283775439730132, 52.941392836759896 ], [ 17.283065381910713, 52.941098299187438 ], [ 17.282411767716546, 52.940825977381913 ], [ 17.282161791049763, 52.940721458307486 ], [ 17.281988697477548, 52.940649077406526 ], [ 17.281593843271843, 52.940485264582293 ] ], [ [ 17.283775439730132, 52.941392836759896 ], [ 17.284470384093019, 52.941618083109475 ] ], [ [ 17.283775439730132, 52.941392836759896 ], [ 17.284228487933813, 52.941587520277288 ] ], [ [ 17.284228487933813, 52.941587520277288 ], [ 17.284891589504557, 52.941868962181914 ], [ 17.285157988638105, 52.941972633238969 ], [ 17.285493613367873, 52.942110218182556 ], [ 17.286246794105978, 52.942425687881617 ] ], [ [ 17.284228487933813, 52.941587520277288 ], [ 17.284627375174782, 52.941804173194669 ], [ 17.285072947870944, 52.942037506697559 ], [ 17.285240690766695, 52.942121227311901 ], [ 17.285436791831195, 52.942210662969742 ], [ 17.285618732320497, 52.942285504669002 ], [ 17.285883413363873, 52.942395084863591 ], [ 17.286134308144348, 52.942503206532429 ], [ 17.286362947853377, 52.942594369052564 ], [ 17.28678286303148, 52.942772916401807 ], [ 17.286919928389768, 52.942830651237813 ], [ 17.287296583738744, 52.942988877652937 ], [ 17.287437976049915, 52.943046404453504 ], [ 17.287871634736359, 52.94322775403964 ], [ 17.288263554938109, 52.94339168322 ], [ 17.288395863131875, 52.94344557059766 ], [ 17.288561312426136, 52.943516033223773 ], [ 17.288815022665862, 52.943624819215607 ], [ 17.289476513537892, 52.943899556811992 ], [ 17.28988604944216, 52.944073896584555 ], [ 17.290161150127943, 52.944187843904473 ] ], [ [ 17.284470384093019, 52.941618083109475 ], [ 17.285097048445721, 52.94182714113316 ] ], [ [ 17.284470384093019, 52.941618083109475 ], [ 17.285042648914711, 52.941855044626671 ], [ 17.285670106137875, 52.942119509853214 ] ], [ [ 17.285097048445721, 52.94182714113316 ], [ 17.285369342336828, 52.941905985309504 ], [ 17.285731041440894, 52.942035492146793 ], [ 17.286252935453895, 52.942247708822485 ], [ 17.287175970823458, 52.942639007819082 ], [ 17.287942545435879, 52.942970218119747 ], [ 17.288771464053521, 52.943317699861808 ], [ 17.289136049937131, 52.943476465999495 ], [ 17.289257355625907, 52.943537568494051 ], [ 17.289527157308353, 52.943683816939554 ] ], [ [ 17.285097048445721, 52.94182714113316 ], [ 17.285634965771965, 52.942048135487539 ], [ 17.286253386187798, 52.942304103410343 ], [ 17.287217785201328, 52.942707330253569 ], [ 17.287968199939485, 52.943036868492385 ], [ 17.288603723279131, 52.943305301305813 ], [ 17.289047287468758, 52.943492365074228 ], [ 17.289527157308353, 52.943683816939554 ] ], [ [ 17.285670106137875, 52.942119509853214 ], [ 17.286328585273854, 52.942394041988955 ], [ 17.286919227401469, 52.942641152010175 ], [ 17.287579394031987, 52.942922356473076 ], [ 17.287761383557559, 52.942999893541 ], [ 17.288420406315257, 52.943280177431006 ], [ 17.288989498024215, 52.94351941215276 ], [ 17.289235422826525, 52.943621789808837 ], [ 17.289389286500267, 52.94368030321705 ], [ 17.289573723845976, 52.943745012269019 ], [ 17.289843901786814, 52.943825164575102 ] ], [ [ 17.285670106137875, 52.942119509853214 ], [ 17.286246794105978, 52.942425687881617 ] ], [ [ 17.286246794105978, 52.942425687881617 ], [ 17.286831732102243, 52.942677752317813 ], [ 17.286865424499993, 52.942691638154201 ], [ 17.287502516383217, 52.942953984110986 ], [ 17.287525794195876, 52.942963942458597 ], [ 17.287945809804974, 52.943143926011849 ], [ 17.288464836959534, 52.94336148745959 ], [ 17.288841428326776, 52.943517819382599 ], [ 17.289782578268547, 52.943919161319187 ], [ 17.290306513108938, 52.944129770438778 ] ], [ [ 17.289527157308353, 52.943683816939554 ], [ 17.289843901786814, 52.943825164575102 ] ], [ [ 17.289843901786814, 52.943825164575102 ], [ 17.290293403726647, 52.944009161414535 ], [ 17.290626662223914, 52.944150924417634 ], [ 17.29088166751146, 52.944245964801659 ], [ 17.291029148091837, 52.94430033724727 ], [ 17.291181425911997, 52.944346324792896 ], [ 17.29131770850891, 52.944386416335959 ], [ 17.291516397073476, 52.944437207780688 ], [ 17.291674032408068, 52.944471940158991 ], [ 17.292178115984388, 52.944563274072081 ], [ 17.292782537064166, 52.9446662099948 ], [ 17.293080160859418, 52.944718869965463 ], [ 17.293192928704944, 52.944743692641651 ], [ 17.29341409640357, 52.944790846740879 ], [ 17.294331646914411, 52.944995309533923 ], [ 17.295865865851589, 52.94532885165362 ], [ 17.297763358549417, 52.945757871405746 ], [ 17.299802544454909, 52.946200399579666 ], [ 17.300647306781826, 52.946390731349744 ], [ 17.300780774981934, 52.946419440131166 ], [ 17.301045646284916, 52.946476378048146 ], [ 17.301195887559519, 52.946506405383538 ], [ 17.301300331845312, 52.946531101294099 ], [ 17.301719508528503, 52.946639796631494 ], [ 17.302342012096954, 52.946810751402168 ] ], [ [ 17.302041595468406, 52.946646288322277 ], [ 17.301719650576636, 52.946582961072345 ], [ 17.301570676560164, 52.946550973994228 ] ], [ [ 17.301570676560164, 52.946550973994228 ], [ 17.301824940011077, 52.946627903498907 ], [ 17.301950512804513, 52.946671966571898 ] ], [ [ 17.301950512804513, 52.946671966571898 ], [ 17.302257982781146, 52.946751364220532 ], [ 17.302759018815042, 52.946853311365246 ], [ 17.304130784634076, 52.947122011837514 ], [ 17.305845910161288, 52.947485885027696 ], [ 17.30661599900456, 52.947656673053224 ], [ 17.307052685289964, 52.947756066060435 ], [ 17.30884712447061, 52.948149084615757 ], [ 17.310322131823241, 52.948475570237633 ], [ 17.310470492350547, 52.948508346921926 ], [ 17.310691709073062, 52.948562843772613 ], [ 17.310901727036903, 52.948610525991455 ], [ 17.311168010286529, 52.948666292099304 ] ], [ [ 17.301950512804513, 52.946671966571898 ], [ 17.302342012096954, 52.946810751402168 ] ], [ [ 17.301963779559181, 52.9465803346828 ], [ 17.302671767473427, 52.946724090541778 ] ], [ [ 17.302041595468406, 52.946646288322277 ], [ 17.302671767473427, 52.946724090541778 ] ], [ [ 17.302041595468406, 52.946646288322277 ], [ 17.302980833548954, 52.946842629909128 ], [ 17.30408775581348, 52.947064919867664 ], [ 17.304151108250306, 52.947078234803989 ], [ 17.304307058828535, 52.947110857780054 ], [ 17.305417840817757, 52.947349018511815 ], [ 17.305684648046469, 52.947406243411656 ], [ 17.30584116110056, 52.947439771706435 ], [ 17.306360128684425, 52.947555718938382 ], [ 17.306612968093045, 52.947612292978846 ], [ 17.307077326609711, 52.947716037309583 ], [ 17.307805553746793, 52.947880015765229 ], [ 17.309650922186275, 52.948288406429143 ], [ 17.310517634648484, 52.948471605196389 ] ], [ [ 17.304253960101484, 52.947204619427623 ], [ 17.302342012096954, 52.946810751402168 ] ], [ [ 17.302342012096954, 52.946810751402168 ], [ 17.302556448000125, 52.946885851214581 ] ], [ [ 17.302556448000125, 52.946885851214581 ], [ 17.302894943523398, 52.946967668937909 ], [ 17.303260309780377, 52.947047711010761 ], [ 17.303890157302153, 52.94718728595317 ], [ 17.304236179058268, 52.947255717325305 ], [ 17.304514969477381, 52.94731104742894 ], [ 17.305728037003089, 52.94756847139989 ], [ 17.30676466001443, 52.947792161961473 ], [ 17.307038413156, 52.947850831761436 ], [ 17.307713375517928, 52.947994806226276 ], [ 17.308870042646181, 52.94824860665716 ], [ 17.309124816993403, 52.948305382704405 ], [ 17.310002227636005, 52.948496741496342 ], [ 17.310442951945682, 52.948588445142562 ], [ 17.310845552846789, 52.948653614631233 ], [ 17.311099255613321, 52.948695981936964 ] ], [ [ 17.302556448000125, 52.946885851214581 ], [ 17.302861215096463, 52.946996325445063 ], [ 17.303097487523395, 52.947068948241046 ], [ 17.303292989683762, 52.947121922620767 ], [ 17.303493783884676, 52.947169036665244 ], [ 17.303961461408036, 52.947252335955611 ], [ 17.304203427146561, 52.947301295521122 ], [ 17.304688741718515, 52.947386732230314 ], [ 17.305703919220583, 52.947598884531217 ], [ 17.306501072862272, 52.947774375982469 ], [ 17.306985108550275, 52.94788136889008 ], [ 17.307893576875792, 52.948081459712817 ], [ 17.30905130309651, 52.948334913705644 ], [ 17.30941195011048, 52.948410552767328 ], [ 17.309762914903239, 52.948493967081241 ], [ 17.310111663120495, 52.948569344809258 ], [ 17.31039049427984, 52.94862403206389 ], [ 17.310629952635097, 52.948657474349197 ], [ 17.310810144119287, 52.94867964142751 ], [ 17.311099255613321, 52.948695981936964 ] ], [ [ 17.310517634648484, 52.948471605196389 ], [ 17.310203728333331, 52.948361830243684 ], [ 17.309812114499998, 52.948263179984274 ], [ 17.309731200817847, 52.948245751171868 ], [ 17.308928431381176, 52.948072449940142 ], [ 17.307298657040306, 52.947717841531386 ], [ 17.307184724774991, 52.94769193657276 ], [ 17.307097799871535, 52.947672171991655 ], [ 17.306634298161352, 52.947565562098113 ], [ 17.306432875280876, 52.947519163899585 ], [ 17.305821221608692, 52.947378512947417 ], [ 17.305712616575214, 52.947353491916658 ], [ 17.30510511096659, 52.947228724572803 ], [ 17.304775290287456, 52.947160976545426 ], [ 17.304498937623148, 52.947104242907223 ], [ 17.30432952293992, 52.947069449518217 ], [ 17.304172357435235, 52.947037438761043 ], [ 17.303547237446427, 52.946910253603924 ], [ 17.302986799472976, 52.946789115121533 ], [ 17.302671767473427, 52.946724090541778 ] ], [ [ 17.307036512713509, 52.947788930910654 ], [ 17.308319364063351, 52.94807115466417 ], [ 17.309475301448572, 52.948328536085583 ], [ 17.310300421875709, 52.948520677560822 ], [ 17.311099255613321, 52.948695981936964 ] ], [ [ 17.310517634648484, 52.948471605196389 ], [ 17.31074106920784, 52.948541781789601 ], [ 17.311168010286529, 52.948666292099304 ] ], [ [ 17.311099255613321, 52.948695981936964 ], [ 17.311505172620354, 52.948748695659397 ] ], [ [ 17.311168010286529, 52.948666292099304 ], [ 17.311505172620354, 52.948748695659397 ] ], [ [ 17.311505172620354, 52.948748695659397 ], [ 17.311812053654446, 52.948817268057113 ], [ 17.312018115683362, 52.948863363224561 ], [ 17.312143733204291, 52.948891408012678 ], [ 17.312500260514966, 52.948969856957874 ], [ 17.312793459044372, 52.949034275443054 ], [ 17.313869407601196, 52.949274649785416 ], [ 17.314672598285046, 52.94945349913764 ], [ 17.314876901661417, 52.949499024764563 ], [ 17.31556480140944, 52.949652400800993 ], [ 17.316777912479189, 52.949919694173836 ], [ 17.317791171171816, 52.950145924541559 ], [ 17.317997382096124, 52.950188503984805 ], [ 17.318171242995582, 52.950224419844389 ], [ 17.319174644114085, 52.950444113574498 ], [ 17.320288947145368, 52.95069171676186 ], [ 17.320503329932993, 52.950738724101548 ], [ 17.322085967587732, 52.951085739283869 ], [ 17.323687816019216, 52.951448742415174 ], [ 17.32490425907951, 52.951709434043593 ], [ 17.325231373792793, 52.951783382868875 ], [ 17.326714470462022, 52.952118770515895 ], [ 17.329146906290404, 52.952650234763254 ], [ 17.330220812829239, 52.952878649904818 ], [ 17.330996540863843, 52.953050976587761 ], [ 17.331039618733204, 52.953060547273616 ] ] ] } }
]
}
