{
"type": "FeatureCollection",
"name": "komunikacja2_2026",
"crs": { "type": "name", "properties": { "name": "urn:ogc:def:crs:EPSG::3857" } },
"features": [
{ "type": "Feature", "properties": { "TERYT": "3028", "LOKALNYID": "2EBDC9DC-A1B0-7DB6-E053-CC2BA8C07DDB", "PRZES_NAZW": "PL.PZGiK.308.BDOT10k", "WERSJA": "20260611000000", "POCZ_WERSJ": "20260611000000", "OZNA_ZMIAN": "BGW-I-K.7520.3.2026", "ZRO_DANYCH": "ortofotomapa", "KAT_ISTNIE": "eksploatowany", "UWAGI": null, "INFO_DODAT": null, "KOD10K": "0010_213", "SKROT_KART": null, "FUNK_TORU": "tor szlakowy stacyjny", "LICZ_TOROW": 1.0, "POLOZENIE": "na powierzchni gruntu", "R_POJ_SZYN": "kolej", "R_TOROW": "tor normalny", "R_TRAKCJI": "niezelektryfikowana", "NR_LINII": "356", "N_STACJI_P": "Poznań Wschód", "N_STACJI_K": "Bydgoszcz Główna", "BDOT500": null }, "geometry": { "type": "MultiLineString", "coordinates": [ [ [ 1927070.40794190322049, 6973508.212839676067233 ], [ 1927107.940681219566613, 6973523.437187550589442 ] ] ] } },
{ "type": "Feature", "properties": { "TERYT": "3028", "LOKALNYID": "2EBDC9DC-A1FC-7DB6-E053-CC2BA8C07DDB", "PRZES_NAZW": "PL.PZGiK.308.BDOT10k", "WERSJA": "20260611000000", "POCZ_WERSJ": "20260611000000", "OZNA_ZMIAN": "BGW-I-K.7520.3.2026", "ZRO_DANYCH": "ortofotomapa", "KAT_ISTNIE": "eksploatowany", "UWAGI": null, "INFO_DODAT": null, "KOD10K": "0010_213", "SKROT_KART": null, "FUNK_TORU": "tor szlakowy stacyjny", "LICZ_TOROW": 1.0, "POLOZENIE": "na powierzchni gruntu", "R_POJ_SZYN": "kolej", "R_TOROW": "tor normalny", "R_TRAKCJI": "niezelektryfikowana", "NR_LINII": "356", "N_STACJI_P": "Poznań Wschód", "N_STACJI_K": "Bydgoszcz Główna", "BDOT500": null }, "geometry": { "type": "MultiLineString", "coordinates": [ [ [ 1926054.460091581568122, 6973135.019098522141576 ], [ 1926159.015596442157403, 6973171.292251899838448 ], [ 1926282.237619276857004, 6973212.35943947173655 ], [ 1926289.28998028463684, 6973214.819327809847891 ], [ 1926306.650319241918623, 6973220.846312769688666 ], [ 1926430.302004664670676, 6973264.845843599177897 ], [ 1926460.002849504817277, 6973275.418020306155086 ], [ 1926477.425802988465875, 6973281.612306882627308 ], [ 1926535.197010162752122, 6973303.03336715977639 ], [ 1926563.342964382609352, 6973313.485348867252469 ], [ 1926615.03511800384149, 6973332.652016965672374 ], [ 1926696.100992085412145, 6973362.946977065876126 ], [ 1926998.008457051590085, 6973472.243864066898823 ] ] ] } },
{ "type": "Feature", "properties": { "TERYT": "3028", "LOKALNYID": "2EBDC9DC-A18D-7DB6-E053-CC2BA8C07DDB", "PRZES_NAZW": "PL.PZGiK.308.BDOT10k", "WERSJA": "20231231120000", "POCZ_WERSJ": "20231231120000", "OZNA_ZMIAN": "GI-TOPO.600.116.2023", "ZRO_DANYCH": "ortofotomapa", "KAT_ISTNIE": "eksploatowany", "UWAGI": null, "INFO_DODAT": null, "KOD10K": "0010_213", "SKROT_KART": null, "FUNK_TORU": "tor zwykły stacyjny", "LICZ_TOROW": 1.0, "POLOZENIE": "na powierzchni gruntu", "R_POJ_SZYN": "kolej", "R_TOROW": "tor normalny", "R_TRAKCJI": "niezelektryfikowana", "NR_LINII": null, "N_STACJI_P": null, "N_STACJI_K": null, "BDOT500": null }, "geometry": { "type": "MultiLineString", "coordinates": [ [ [ 1926998.008457051590085, 6973472.243864066898823 ], [ 1926963.064565891865641, 6973451.962691364809871 ], [ 1926919.470313377911225, 6973433.736875013448298 ], [ 1926910.46304348250851, 6973430.516874277032912 ], [ 1926821.099158567842096, 6973398.499267427250743 ], [ 1926639.673508834792301, 6973332.98534566257149 ], [ 1926626.990627074614167, 6973328.199424272403121 ], [ 1926617.314191084587947, 6973324.547934884205461 ], [ 1926565.7174167255871, 6973304.851877362467349 ], [ 1926543.295124236959964, 6973296.279877708293498 ], [ 1926475.206148907309398, 6973270.294875157997012 ], [ 1926463.116291882935911, 6973265.672294982708991 ], [ 1926395.489076876547188, 6973242.621843657456338 ], [ 1926358.773606822593138, 6973230.105594739317894 ], [ 1926328.010168952401727, 6973219.624236924573779 ], [ 1926309.151012682588771, 6973213.196276626549661 ], [ 1926291.655428730882704, 6973207.282402663491666 ], [ 1926222.06738989171572, 6973183.785438779741526 ], [ 1926159.679720065789297, 6973161.405638808384538 ], [ 1926124.610518292756751, 6973149.39266053494066 ] ] ] } },
{ "type": "Feature", "properties": { "TERYT": "3028", "LOKALNYID": "8b688fc0-6130-4806-a9eb-09276b34df63", "PRZES_NAZW": "PL.PZGiK.308.BDOT10k", "WERSJA": "20231231120000", "POCZ_WERSJ": "20231231120000", "OZNA_ZMIAN": "GI-TOPO.600.116.2023", "ZRO_DANYCH": "ortofotomapa", "KAT_ISTNIE": "eksploatowany", "UWAGI": null, "INFO_DODAT": null, "KOD10K": "0010_213", "SKROT_KART": null, "FUNK_TORU": "tor zwykły stacyjny", "LICZ_TOROW": 1.0, "POLOZENIE": "na powierzchni gruntu", "R_POJ_SZYN": "kolej", "R_TOROW": "tor normalny", "R_TRAKCJI": "niezelektryfikowana", "NR_LINII": null, "N_STACJI_P": null, "N_STACJI_K": null, "BDOT500": null }, "geometry": { "type": "MultiLineString", "coordinates": [ [ [ 1926002.037638511043042, 6973117.410299280658364 ], [ 1926030.342116394313052, 6973131.622600237838924 ], [ 1926044.320815816987306, 6973139.763020909391344 ] ] ] } },
{ "type": "Feature", "properties": { "TERYT": "3028", "LOKALNYID": "2EBDC9DC-A1EF-7DB6-E053-CC2BA8C07DDB", "PRZES_NAZW": "PL.PZGiK.308.BDOT10k", "WERSJA": "20260520000000", "POCZ_WERSJ": "20260520000000", "OZNA_ZMIAN": "BGW-I-K.7520.3.2026", "ZRO_DANYCH": "ortofotomapa", "KAT_ISTNIE": "eksploatowany", "UWAGI": null, "INFO_DODAT": null, "KOD10K": "0010_213", "SKROT_KART": null, "FUNK_TORU": "bocznica", "LICZ_TOROW": 1.0, "POLOZENIE": "na powierzchni gruntu", "R_POJ_SZYN": "kolej", "R_TOROW": "tor normalny", "R_TRAKCJI": "niezelektryfikowana", "NR_LINII": null, "N_STACJI_P": null, "N_STACJI_K": null, "BDOT500": null }, "geometry": { "type": "MultiLineString", "coordinates": [ [ [ 1924231.994235779391602, 6972298.764440136961639 ], [ 1924262.525545386597514, 6972322.903062229044735 ], [ 1924283.203208926599473, 6972341.190574969165027 ], [ 1924300.176470925100148, 6972357.761331933550537 ] ] ] } },
{ "type": "Feature", "properties": { "TERYT": "3028", "LOKALNYID": "2EBDC9DC-A18B-7DB6-E053-CC2BA8C07DDB", "PRZES_NAZW": "PL.PZGiK.308.BDOT10k", "WERSJA": "20260520000000", "POCZ_WERSJ": "20260520000000", "OZNA_ZMIAN": "BGW-I-K.7520.3.2026", "ZRO_DANYCH": "ortofotomapa", "KAT_ISTNIE": "eksploatowany", "UWAGI": null, "INFO_DODAT": null, "KOD10K": "0010_213", "SKROT_KART": null, "FUNK_TORU": "tor zwykły stacyjny", "LICZ_TOROW": 1.0, "POLOZENIE": "na powierzchni gruntu", "R_POJ_SZYN": "kolej", "R_TOROW": "tor normalny", "R_TRAKCJI": "niezelektryfikowana", "NR_LINII": null, "N_STACJI_P": null, "N_STACJI_K": null, "BDOT500": null }, "geometry": { "type": "MultiLineString", "coordinates": [ [ [ 1926101.39587969542481, 6973175.143318212591112 ], [ 1926126.82700757146813, 6973191.0317945741117 ], [ 1926144.442980882013217, 6973200.969645000994205 ], [ 1926170.524157492443919, 6973213.899392902851105 ], [ 1926193.764658416621387, 6973222.89050585962832 ], [ 1926216.461188302608207, 6973231.054544571787119 ], [ 1926268.178590372437611, 6973246.9839818328619 ], [ 1926295.114093174925074, 6973256.029134785756469 ], [ 1926349.139064199058339, 6973271.813370103947818 ], [ 1926462.148106794105843, 6973311.00815405882895 ], [ 1926550.886844270862639, 6973343.430052423849702 ], [ 1926604.769450585125014, 6973363.196966867893934 ], [ 1926705.89968198328279, 6973400.163830387406051 ], [ 1926834.777175351977348, 6973446.98980747256428 ], [ 1926874.924217303283513, 6973460.964282300323248 ], [ 1926913.99343931931071, 6973476.375279566273093 ], [ 1926952.815913279540837, 6973490.301523616537452 ], [ 1926983.855255954898894, 6973500.405160583555698 ], [ 1927008.797578358324245, 6973506.875592756085098 ], [ 1927030.570462393574417, 6973510.67917309794575 ], [ 1927062.754206692334265, 6973513.698138380423188 ] ] ] } },
{ "type": "Feature", "properties": { "TERYT": "3028", "LOKALNYID": "2EBDC9DC-A235-7DB6-E053-CC2BA8C07DDB", "PRZES_NAZW": "PL.PZGiK.308.BDOT10k", "WERSJA": "20260520000000", "POCZ_WERSJ": "20260520000000", "OZNA_ZMIAN": "BGW-I-K.7520.3.2026", "ZRO_DANYCH": "ortofotomapa", "KAT_ISTNIE": "eksploatowany", "UWAGI": null, "INFO_DODAT": null, "KOD10K": "0010_213", "SKROT_KART": null, "FUNK_TORU": "bocznica", "LICZ_TOROW": 1.0, "POLOZENIE": "na powierzchni gruntu", "R_POJ_SZYN": "kolej", "R_TOROW": "tor normalny", "R_TRAKCJI": "niezelektryfikowana", "NR_LINII": null, "N_STACJI_P": null, "N_STACJI_K": null, "BDOT500": null }, "geometry": { "type": "MultiLineString", "coordinates": [ [ [ 1924071.514031385304406, 6972200.493063388392329 ], [ 1924145.750227622454986, 6972251.545188471674919 ], [ 1924174.985576478997245, 6972271.632646613754332 ], [ 1924213.225273283198476, 6972298.447933718562126 ], [ 1924300.176470925100148, 6972357.761331933550537 ] ] ] } },
{ "type": "Feature", "properties": { "TERYT": "3028", "LOKALNYID": "2EBDC9DC-A240-7DB6-E053-CC2BA8C07DDB", "PRZES_NAZW": "PL.PZGiK.308.BDOT10k", "WERSJA": "20231231120000", "POCZ_WERSJ": "20231231120000", "OZNA_ZMIAN": "GI-TOPO.600.116.2023", "ZRO_DANYCH": "ortofotomapa", "KAT_ISTNIE": "eksploatowany", "UWAGI": null, "INFO_DODAT": null, "KOD10K": "0010_213", "SKROT_KART": null, "FUNK_TORU": "tor zwykły stacyjny", "LICZ_TOROW": 1.0, "POLOZENIE": "na powierzchni gruntu", "R_POJ_SZYN": "kolej", "R_TOROW": "tor normalny", "R_TRAKCJI": "niezelektryfikowana", "NR_LINII": null, "N_STACJI_P": null, "N_STACJI_K": null, "BDOT500": null }, "geometry": { "type": "MultiLineString", "coordinates": [ [ [ 1926054.460091581568122, 6973135.019098522141576 ], [ 1926124.610518292756751, 6973149.39266053494066 ] ] ] } },
{ "type": "Feature", "properties": { "TERYT": "3028", "LOKALNYID": "2EBDC9DC-A244-7DB6-E053-CC2BA8C07DDB", "PRZES_NAZW": "PL.PZGiK.308.BDOT10k", "WERSJA": "20231231120000", "POCZ_WERSJ": "20231231120000", "OZNA_ZMIAN": "GI-TOPO.600.116.2023", "ZRO_DANYCH": "ortofotomapa", "KAT_ISTNIE": "eksploatowany", "UWAGI": null, "INFO_DODAT": null, "KOD10K": "0010_213", "SKROT_KART": null, "FUNK_TORU": "bocznica", "LICZ_TOROW": 1.0, "POLOZENIE": "na powierzchni gruntu", "R_POJ_SZYN": "kolej", "R_TOROW": "tor normalny", "R_TRAKCJI": "niezelektryfikowana", "NR_LINII": null, "N_STACJI_P": null, "N_STACJI_K": null, "BDOT500": null }, "geometry": { "type": "MultiLineString", "coordinates": [ [ [ 1926610.491735860938206, 6973346.11906909942627 ], [ 1926753.29809488914907, 6973398.25996414758265 ], [ 1926881.976456000935286, 6973445.811529946513474 ], [ 1926973.828441792400554, 6973481.310111882165074 ], [ 1927062.754206692334265, 6973513.698138380423188 ] ] ] } },
{ "type": "Feature", "properties": { "TERYT": "3028", "LOKALNYID": "2EBDC9DC-A191-7DB6-E053-CC2BA8C07DDB", "PRZES_NAZW": "PL.PZGiK.308.BDOT10k", "WERSJA": "20231231120000", "POCZ_WERSJ": "20231231120000", "OZNA_ZMIAN": "GI-TOPO.600.116.2023", "ZRO_DANYCH": "ortofotomapa", "KAT_ISTNIE": "eksploatowany", "UWAGI": null, "INFO_DODAT": null, "KOD10K": "0010_213", "SKROT_KART": null, "FUNK_TORU": "bocznica", "LICZ_TOROW": 1.0, "POLOZENIE": "na powierzchni gruntu", "R_POJ_SZYN": "kolej", "R_TOROW": "tor normalny", "R_TRAKCJI": "niezelektryfikowana", "NR_LINII": null, "N_STACJI_P": null, "N_STACJI_K": null, "BDOT500": null }, "geometry": { "type": "MultiLineString", "coordinates": [ [ [ 1924098.441788652678952, 6972206.138727005571127 ], [ 1924162.146017202176154, 6972249.91114782076329 ], [ 1924231.994235779391602, 6972298.764440136961639 ] ] ] } },
{ "type": "Feature", "properties": { "TERYT": "3028", "LOKALNYID": "2EBDC9DC-A194-7DB6-E053-CC2BA8C07DDB", "PRZES_NAZW": "PL.PZGiK.308.BDOT10k", "WERSJA": "20240917000000", "POCZ_WERSJ": "20240917000000", "OZNA_ZMIAN": "GK-KARTO.600.48.2024", "ZRO_DANYCH": "ortofotomapa", "KAT_ISTNIE": "eksploatowany", "UWAGI": null, "INFO_DODAT": null, "KOD10K": "0010_213", "SKROT_KART": null, "FUNK_TORU": "bocznica", "LICZ_TOROW": 1.0, "POLOZENIE": "na powierzchni gruntu", "R_POJ_SZYN": "kolej", "R_TOROW": "tor normalny", "R_TRAKCJI": "niezelektryfikowana", "NR_LINII": null, "N_STACJI_P": null, "N_STACJI_K": null, "BDOT500": null }, "geometry": { "type": "MultiLineString", "coordinates": [ [ [ 1924098.441788652678952, 6972206.138727005571127 ], [ 1924159.307587875286117, 6972238.978372512385249 ] ] ] } },
{ "type": "Feature", "properties": { "TERYT": "3028", "LOKALNYID": "2EBDC9DC-A1A9-7DB6-E053-CC2BA8C07DDB", "PRZES_NAZW": "PL.PZGiK.308.BDOT10k", "WERSJA": "20231231120000", "POCZ_WERSJ": "20231231120000", "OZNA_ZMIAN": "GI-TOPO.600.116.2023", "ZRO_DANYCH": "ortofotomapa", "KAT_ISTNIE": "eksploatowany", "UWAGI": null, "INFO_DODAT": null, "KOD10K": "0010_213", "SKROT_KART": null, "FUNK_TORU": "bocznica", "LICZ_TOROW": 1.0, "POLOZENIE": "na powierzchni gruntu", "R_POJ_SZYN": "kolej", "R_TOROW": "tor normalny", "R_TRAKCJI": "niezelektryfikowana", "NR_LINII": null, "N_STACJI_P": null, "N_STACJI_K": null, "BDOT500": null }, "geometry": { "type": "MultiLineString", "coordinates": [ [ [ 1924021.08093604655005, 6972164.530598163604736 ], [ 1923942.03766115475446, 6972110.123129744082689 ], [ 1923869.277661885134876, 6972059.819724122062325 ], [ 1923841.450386628508568, 6972040.512998058460653 ], [ 1923822.181698309956118, 6972027.142851239070296 ], [ 1923778.226729193003848, 6971996.883549351245165 ] ] ] } },
{ "type": "Feature", "properties": { "TERYT": "3028", "LOKALNYID": "2EBDC9DC-A1AA-7DB6-E053-CC2BA8C07DDB", "PRZES_NAZW": "PL.PZGiK.308.BDOT10k", "WERSJA": "20231231120000", "POCZ_WERSJ": "20231231120000", "OZNA_ZMIAN": "GI-TOPO.600.116.2023", "ZRO_DANYCH": "ortofotomapa", "KAT_ISTNIE": "eksploatowany", "UWAGI": null, "INFO_DODAT": null, "KOD10K": "0010_213", "SKROT_KART": null, "FUNK_TORU": "bocznica", "LICZ_TOROW": 1.0, "POLOZENIE": "na powierzchni gruntu", "R_POJ_SZYN": "kolej", "R_TOROW": "tor normalny", "R_TRAKCJI": "niezelektryfikowana", "NR_LINII": null, "N_STACJI_P": null, "N_STACJI_K": null, "BDOT500": null }, "geometry": { "type": "MultiLineString", "coordinates": [ [ [ 1924021.08093604655005, 6972164.530598163604736 ], [ 1924071.514031385304406, 6972200.493063388392329 ] ] ] } },
{ "type": "Feature", "properties": { "TERYT": "3028", "LOKALNYID": "2EBDC9DC-A1FA-7DB6-E053-CC2BA8C07DDB", "PRZES_NAZW": "PL.PZGiK.308.BDOT10k", "WERSJA": "20260520000000", "POCZ_WERSJ": "20260520000000", "OZNA_ZMIAN": "BGW-I-K.7520.3.2026", "ZRO_DANYCH": "ortofotomapa", "KAT_ISTNIE": "eksploatowany", "UWAGI": null, "INFO_DODAT": null, "KOD10K": "0010_213", "SKROT_KART": null, "FUNK_TORU": "bocznica", "LICZ_TOROW": 1.0, "POLOZENIE": "na powierzchni gruntu", "R_POJ_SZYN": "kolej", "R_TOROW": "tor normalny", "R_TRAKCJI": "niezelektryfikowana", "NR_LINII": null, "N_STACJI_P": null, "N_STACJI_K": null, "BDOT500": null }, "geometry": { "type": "MultiLineString", "coordinates": [ [ [ 1924300.176470925100148, 6972357.761331933550537 ], [ 1924361.305846625007689, 6972401.886661361902952 ], [ 1924364.779242165386677, 6972404.262383638881147 ], [ 1924435.977211215067655, 6972452.914507855661213 ], [ 1924438.568485467229038, 6972454.754103176295757 ], [ 1924486.065443901810795, 6972487.505059291608632 ], [ 1924544.019555816892534, 6972527.948641726747155 ], [ 1924586.109521383885294, 6972556.732326757162809 ], [ 1924690.765478727640584, 6972630.023115864954889 ], [ 1924748.116698908852413, 6972670.119234268553555 ] ] ] } },
{ "type": "Feature", "properties": { "TERYT": "3028", "LOKALNYID": "2EBDC9DC-A15F-7DB6-E053-CC2BA8C07DDB", "PRZES_NAZW": "PL.PZGiK.308.BDOT10k", "WERSJA": "20260520000000", "POCZ_WERSJ": "20260520000000", "OZNA_ZMIAN": "BGW-I-K.7520.3.2026", "ZRO_DANYCH": "ortofotomapa", "KAT_ISTNIE": "eksploatowany", "UWAGI": null, "INFO_DODAT": null, "KOD10K": "0010_213", "SKROT_KART": null, "FUNK_TORU": "bocznica", "LICZ_TOROW": 1.0, "POLOZENIE": "na powierzchni gruntu", "R_POJ_SZYN": "kolej", "R_TOROW": "tor normalny", "R_TRAKCJI": "niezelektryfikowana", "NR_LINII": null, "N_STACJI_P": null, "N_STACJI_K": null, "BDOT500": null }, "geometry": { "type": "MultiLineString", "coordinates": [ [ [ 1924159.307587875286117, 6972238.978372512385249 ], [ 1924198.513362597674131, 6972259.321133250370622 ], [ 1924238.777522682677954, 6972283.244251775555313 ], [ 1924296.488757533021271, 6972323.333948135375977 ], [ 1924399.626325782155618, 6972394.729479651898146 ], [ 1924485.688650442520157, 6972455.282881593331695 ], [ 1924578.085315006552264, 6972519.226799527183175 ], [ 1924617.821334630949423, 6972549.432621843181551 ], [ 1924631.325022135628387, 6972560.720165851525962 ], [ 1924667.41391265601851, 6972590.988270729780197 ] ] ] } },
{ "type": "Feature", "properties": { "TERYT": "3028", "LOKALNYID": "2EBDC9DC-A165-7DB6-E053-CC2BA8C07DDB", "PRZES_NAZW": "PL.PZGiK.308.BDOT10k", "WERSJA": "20240917000000", "POCZ_WERSJ": "20240917000000", "OZNA_ZMIAN": "GK-KARTO.600.48.2024", "ZRO_DANYCH": "ortofotomapa", "KAT_ISTNIE": "eksploatowany", "UWAGI": null, "INFO_DODAT": null, "KOD10K": "0010_213", "SKROT_KART": null, "FUNK_TORU": "bocznica", "LICZ_TOROW": 1.0, "POLOZENIE": "na powierzchni gruntu", "R_POJ_SZYN": "kolej", "R_TOROW": "tor normalny", "R_TRAKCJI": "niezelektryfikowana", "NR_LINII": null, "N_STACJI_P": null, "N_STACJI_K": null, "BDOT500": null }, "geometry": { "type": "MultiLineString", "coordinates": [ [ [ 1924071.514031385304406, 6972200.493063388392329 ], [ 1924115.917955933604389, 6972240.513965762220323 ], [ 1924165.518881581490859, 6972283.616389735601842 ], [ 1924184.191935320850462, 6972299.081698367372155 ], [ 1924206.021805965108797, 6972315.602752706035972 ], [ 1924226.275328588671982, 6972329.427955735474825 ], [ 1924255.739487560000271, 6972349.670303011313081 ], [ 1924283.668966765049845, 6972369.643272424116731 ], [ 1924309.12102274922654, 6972386.483471425250173 ], [ 1924355.865766552044079, 6972419.466129868291318 ], [ 1924371.1238124424126, 6972430.13138804025948 ], [ 1924413.052894094726071, 6972459.360357857309282 ], [ 1924428.792614176869392, 6972469.987239017151296 ], [ 1924435.835725005483255, 6972474.873873223550618 ], [ 1924477.067278329282999, 6972503.487899607978761 ], [ 1924520.695635619806126, 6972533.770614128559828 ], [ 1924535.424116377718747, 6972543.725279784761369 ], [ 1924553.841847567120567, 6972556.741925291717052 ], [ 1924582.084742262260988, 6972576.838133783079684 ], [ 1924655.721569300862029, 6972627.591069856658578 ], [ 1924701.310897625749931, 6972659.797441940754652 ], [ 1924731.934965884080157, 6972680.847383422777057 ] ] ] } },
{ "type": "Feature", "properties": { "TERYT": "3028", "LOKALNYID": "2EBDC9DC-A168-7DB6-E053-CC2BA8C07DDB", "PRZES_NAZW": "PL.PZGiK.308.BDOT10k", "WERSJA": "20231231120000", "POCZ_WERSJ": "20231231120000", "OZNA_ZMIAN": "GI-TOPO.600.116.2023", "ZRO_DANYCH": "ortofotomapa", "KAT_ISTNIE": "eksploatowany", "UWAGI": null, "INFO_DODAT": null, "KOD10K": "0010_213", "SKROT_KART": null, "FUNK_TORU": "bocznica", "LICZ_TOROW": 1.0, "POLOZENIE": "na powierzchni gruntu", "R_POJ_SZYN": "kolej", "R_TOROW": "tor normalny", "R_TRAKCJI": "niezelektryfikowana", "NR_LINII": null, "N_STACJI_P": null, "N_STACJI_K": null, "BDOT500": null }, "geometry": { "type": "MultiLineString", "coordinates": [ [ [ 1926045.797664191341028, 6973122.834521296434104 ], [ 1926124.610518292756751, 6973149.39266053494066 ] ] ] } },
{ "type": "Feature", "properties": { "TERYT": "3028", "LOKALNYID": "2EBDC9DC-A216-7DB6-E053-CC2BA8C07DDB", "PRZES_NAZW": "PL.PZGiK.308.BDOT10k", "WERSJA": "20231231120000", "POCZ_WERSJ": "20231231120000", "OZNA_ZMIAN": "GI-TOPO.600.116.2023", "ZRO_DANYCH": "ortofotomapa", "KAT_ISTNIE": "eksploatowany", "UWAGI": null, "INFO_DODAT": null, "KOD10K": "0010_213", "SKROT_KART": null, "FUNK_TORU": "tor zwykły stacyjny", "LICZ_TOROW": 1.0, "POLOZENIE": "na powierzchni gruntu", "R_POJ_SZYN": "kolej", "R_TOROW": "tor normalny", "R_TRAKCJI": "niezelektryfikowana", "NR_LINII": null, "N_STACJI_P": null, "N_STACJI_K": null, "BDOT500": null }, "geometry": { "type": "MultiLineString", "coordinates": [ [ [ 1927062.754206692334265, 6973513.698138380423188 ], [ 1927107.940681219566613, 6973523.437187550589442 ] ] ] } },
{ "type": "Feature", "properties": { "TERYT": "3028", "LOKALNYID": "2EBDC9DC-A1D5-7DB6-E053-CC2BA8C07DDB", "PRZES_NAZW": "PL.PZGiK.308.BDOT10k", "WERSJA": "20260520000000", "POCZ_WERSJ": "20260520000000", "OZNA_ZMIAN": "BGW-I-K.7520.3.2026", "ZRO_DANYCH": "ortofotomapa", "KAT_ISTNIE": "eksploatowany", "UWAGI": null, "INFO_DODAT": null, "KOD10K": "0010_213", "SKROT_KART": null, "FUNK_TORU": "bocznica", "LICZ_TOROW": 1.0, "POLOZENIE": "na powierzchni gruntu", "R_POJ_SZYN": "kolej", "R_TOROW": "tor normalny", "R_TRAKCJI": "niezelektryfikowana", "NR_LINII": null, "N_STACJI_P": null, "N_STACJI_K": null, "BDOT500": null }, "geometry": { "type": "MultiLineString", "coordinates": [ [ [ 1924667.41391265601851, 6972590.988270729780197 ], [ 1924696.619042094564065, 6972613.84838143363595 ] ] ] } },
{ "type": "Feature", "properties": { "TERYT": "3028", "LOKALNYID": "2EBDC9DC-A22C-7DB6-E053-CC2BA8C07DDB", "PRZES_NAZW": "PL.PZGiK.308.BDOT10k", "WERSJA": "20260520000000", "POCZ_WERSJ": "20260520000000", "OZNA_ZMIAN": "BGW-I-K.7520.3.2026", "ZRO_DANYCH": "ortofotomapa", "KAT_ISTNIE": "eksploatowany", "UWAGI": null, "INFO_DODAT": null, "KOD10K": "0010_213", "SKROT_KART": null, "FUNK_TORU": "bocznica", "LICZ_TOROW": 1.0, "POLOZENIE": "na powierzchni gruntu", "R_POJ_SZYN": "kolej", "R_TOROW": "tor normalny", "R_TRAKCJI": "niezelektryfikowana", "NR_LINII": null, "N_STACJI_P": null, "N_STACJI_K": null, "BDOT500": null }, "geometry": { "type": "MultiLineString", "coordinates": [ [ [ 1924231.994235779391602, 6972298.764440136961639 ], [ 1924305.295797894708812, 6972349.477656364440918 ], [ 1924355.4435317767784, 6972384.302604364231229 ], [ 1924371.045778781641275, 6972395.125570950098336 ], [ 1924452.955019192304462, 6972451.908435040153563 ], [ 1924539.30744574056007, 6972512.152961623854935 ], [ 1924602.432872262084857, 6972556.075775552541018 ], [ 1924630.476354789920151, 6972575.502504173666239 ], [ 1924647.387081118300557, 6972586.389670386910439 ], [ 1924668.016355467028916, 6972598.412301312200725 ], [ 1924696.619042094564065, 6972613.84838143363595 ] ] ] } },
{ "type": "Feature", "properties": { "TERYT": "3028", "LOKALNYID": "2EBDC9DC-A22D-7DB6-E053-CC2BA8C07DDB", "PRZES_NAZW": "PL.PZGiK.308.BDOT10k", "WERSJA": "20231231120000", "POCZ_WERSJ": "20231231120000", "OZNA_ZMIAN": "GI-TOPO.600.116.2023", "ZRO_DANYCH": "ortofotomapa", "KAT_ISTNIE": "eksploatowany", "UWAGI": null, "INFO_DODAT": null, "KOD10K": "0010_213", "SKROT_KART": null, "FUNK_TORU": "tor zwykły stacyjny", "LICZ_TOROW": 1.0, "POLOZENIE": "na powierzchni gruntu", "R_POJ_SZYN": "kolej", "R_TOROW": "tor normalny", "R_TRAKCJI": "niezelektryfikowana", "NR_LINII": null, "N_STACJI_P": null, "N_STACJI_K": null, "BDOT500": null }, "geometry": { "type": "MultiLineString", "coordinates": [ [ [ 1926044.320815816987306, 6973139.763020909391344 ], [ 1926087.902317697647959, 6973165.402841565199196 ] ] ] } },
{ "type": "Feature", "properties": { "TERYT": "3028", "LOKALNYID": "2EBDC9DC-A230-7DB6-E053-CC2BA8C07DDB", "PRZES_NAZW": "PL.PZGiK.308.BDOT10k", "WERSJA": "20260520000000", "POCZ_WERSJ": "20260520000000", "OZNA_ZMIAN": "BGW-I-K.7520.3.2026", "ZRO_DANYCH": "ortofotomapa", "KAT_ISTNIE": "eksploatowany", "UWAGI": null, "INFO_DODAT": null, "KOD10K": "0010_213", "SKROT_KART": null, "FUNK_TORU": "tor zwykły stacyjny", "LICZ_TOROW": 1.0, "POLOZENIE": "na powierzchni gruntu", "R_POJ_SZYN": "kolej", "R_TOROW": "tor normalny", "R_TRAKCJI": "niezelektryfikowana", "NR_LINII": null, "N_STACJI_P": null, "N_STACJI_K": null, "BDOT500": null }, "geometry": { "type": "MultiLineString", "coordinates": [ [ [ 1926101.39587969542481, 6973175.143318212591112 ], [ 1926149.67099543963559, 6973195.045800423249602 ], [ 1926190.464156201807782, 6973210.334579772315919 ], [ 1926260.241053614299744, 6973234.96617815643549 ], [ 1926298.760019308654591, 6973247.60868079867214 ], [ 1926329.794826801866293, 6973257.830775727517903 ], [ 1926464.832886061863974, 6973305.389366939663887 ], [ 1926580.229231828590855, 6973346.716004460118711 ], [ 1926610.703292151447386, 6973357.555234568193555 ], [ 1926685.839758585672826, 6973384.154541373252869 ], [ 1926814.599354320438579, 6973431.04442962538451 ], [ 1926842.96070492034778, 6973441.533899871632457 ], [ 1926940.633610871154815, 6973476.887860012240708 ], [ 1926989.694816604489461, 6973493.830366955138743 ], [ 1927034.51214390899986, 6973505.870635384693742 ], [ 1927062.754206692334265, 6973513.698138380423188 ] ] ] } },
{ "type": "Feature", "properties": { "TERYT": "3028", "LOKALNYID": "2EBDC9DC-A187-7DB6-E053-CC2BA8C07DDB", "PRZES_NAZW": "PL.PZGiK.308.BDOT10k", "WERSJA": "20231231120000", "POCZ_WERSJ": "20231231120000", "OZNA_ZMIAN": "GI-TOPO.600.116.2023", "ZRO_DANYCH": "ortofotomapa", "KAT_ISTNIE": "eksploatowany", "UWAGI": null, "INFO_DODAT": null, "KOD10K": "0010_213", "SKROT_KART": null, "FUNK_TORU": "bocznica", "LICZ_TOROW": 1.0, "POLOZENIE": "na powierzchni gruntu", "R_POJ_SZYN": "kolej", "R_TOROW": "tor normalny", "R_TRAKCJI": "niezelektryfikowana", "NR_LINII": null, "N_STACJI_P": null, "N_STACJI_K": null, "BDOT500": null }, "geometry": { "type": "MultiLineString", "coordinates": [ [ [ 1924021.08093604655005, 6972164.530598163604736 ], [ 1924098.441788652678952, 6972206.138727005571127 ] ] ] } },
{ "type": "Feature", "properties": { "TERYT": "3028", "LOKALNYID": "2EBDC9DC-A1C1-7DB6-E053-CC2BA8C07DDB", "PRZES_NAZW": "PL.PZGiK.308.BDOT10k", "WERSJA": "20260520000000", "POCZ_WERSJ": "20260520000000", "OZNA_ZMIAN": "BGW-I-K.7520.3.2026", "ZRO_DANYCH": "ortofotomapa", "KAT_ISTNIE": "eksploatowany", "UWAGI": null, "INFO_DODAT": null, "KOD10K": "0010_213", "SKROT_KART": null, "FUNK_TORU": "bocznica", "LICZ_TOROW": 1.0, "POLOZENIE": "na powierzchni gruntu", "R_POJ_SZYN": "kolej", "R_TOROW": "tor normalny", "R_TRAKCJI": "niezelektryfikowana", "NR_LINII": null, "N_STACJI_P": null, "N_STACJI_K": null, "BDOT500": null }, "geometry": { "type": "MultiLineString", "coordinates": [ [ [ 1924159.307587875286117, 6972238.978372512385249 ], [ 1924227.811830573249608, 6972286.503637597896159 ], [ 1924296.797613096190616, 6972334.023498754017055 ], [ 1924403.914677665103227, 6972408.122582895681262 ], [ 1924488.746022777864709, 6972467.483673644252121 ], [ 1924559.338370812125504, 6972516.569144390523434 ], [ 1924609.283602730603889, 6972550.939792380668223 ], [ 1924667.41391265601851, 6972590.988270729780197 ] ] ] } },
{ "type": "Feature", "properties": { "TERYT": "3028", "LOKALNYID": "2EBDC9DC-A17E-7DB6-E053-CC2BA8C07DDB", "PRZES_NAZW": "PL.PZGiK.308.BDOT10k", "WERSJA": "20260520000000", "POCZ_WERSJ": "20260520000000", "OZNA_ZMIAN": "BGW-I-K.7520.3.2026", "ZRO_DANYCH": "ortofotomapa", "KAT_ISTNIE": "eksploatowany", "UWAGI": null, "INFO_DODAT": null, "KOD10K": "0010_213", "SKROT_KART": null, "FUNK_TORU": "tor zwykły stacyjny", "LICZ_TOROW": 1.0, "POLOZENIE": "na powierzchni gruntu", "R_POJ_SZYN": "kolej", "R_TOROW": "tor normalny", "R_TRAKCJI": "niezelektryfikowana", "NR_LINII": null, "N_STACJI_P": null, "N_STACJI_K": null, "BDOT500": null }, "geometry": { "type": "MultiLineString", "coordinates": [ [ [ 1926087.902317697647959, 6973165.402841565199196 ], [ 1926101.39587969542481, 6973175.143318212591112 ] ] ] } },
{ "type": "Feature", "properties": { "TERYT": "3028", "LOKALNYID": "2EBDC9DC-A1E7-7DB6-E053-CC2BA8C07DDB", "PRZES_NAZW": "PL.PZGiK.308.BDOT10k", "WERSJA": "20260520000000", "POCZ_WERSJ": "20260520000000", "OZNA_ZMIAN": "BGW-I-K.7520.3.2026", "ZRO_DANYCH": "ortofotomapa", "KAT_ISTNIE": "eksploatowany", "UWAGI": null, "INFO_DODAT": null, "KOD10K": "0010_213", "SKROT_KART": null, "FUNK_TORU": "tor zwykły stacyjny", "LICZ_TOROW": 1.0, "POLOZENIE": "na powierzchni gruntu", "R_POJ_SZYN": "kolej", "R_TOROW": "tor normalny", "R_TRAKCJI": "niezelektryfikowana", "NR_LINII": null, "N_STACJI_P": null, "N_STACJI_K": null, "BDOT500": null }, "geometry": { "type": "MultiLineString", "coordinates": [ [ [ 1926044.320815816987306, 6973139.763020909391344 ], [ 1926078.54821705003269, 6973154.431339271366596 ], [ 1926134.323293212102726, 6973173.265603695996106 ], [ 1926287.027565674856305, 6973222.906988364644349 ], [ 1926341.506335860816762, 6973241.227417129091918 ], [ 1926477.954466010443866, 6973290.131660216487944 ], [ 1926563.680363909574226, 6973321.684520484879613 ], [ 1926612.29205883666873, 6973340.047303546220064 ], [ 1926812.048114686040208, 6973412.6575982645154 ], [ 1926973.508743197191507, 6973473.044755822047591 ], [ 1927017.386333355912939, 6973489.100438131019473 ], [ 1927040.765426147961989, 6973497.909871350973845 ], [ 1927070.40794190322049, 6973508.212839676067233 ] ] ] } },
{ "type": "Feature", "properties": { "TERYT": "3028", "LOKALNYID": "2EBDC9DC-A174-7DB6-E053-CC2BA8C07DDB", "PRZES_NAZW": "PL.PZGiK.308.BDOT10k", "WERSJA": "20260611000000", "POCZ_WERSJ": "20260611000000", "OZNA_ZMIAN": "BGW-I-K.7520.3.2026", "ZRO_DANYCH": "ortofotomapa", "KAT_ISTNIE": "eksploatowany", "UWAGI": null, "INFO_DODAT": null, "KOD10K": "0010_213", "SKROT_KART": null, "FUNK_TORU": "tor szlakowy stacyjny", "LICZ_TOROW": 1.0, "POLOZENIE": "na powierzchni gruntu", "R_POJ_SZYN": "kolej", "R_TOROW": "tor normalny", "R_TRAKCJI": "niezelektryfikowana", "NR_LINII": "356", "N_STACJI_P": "Poznań Wschód", "N_STACJI_K": "Bydgoszcz Główna", "BDOT500": null }, "geometry": { "type": "MultiLineString", "coordinates": [ [ [ 1926998.008457051590085, 6973472.243864066898823 ], [ 1927022.881078424630687, 6973485.209176569245756 ], [ 1927070.40794190322049, 6973508.212839676067233 ] ] ] } },
{ "type": "Feature", "properties": { "TERYT": "3028", "LOKALNYID": "bd8fd116-fc69-4864-832a-1f14dbc03433", "PRZES_NAZW": "PL.PZGiK.308.BDOT10k", "WERSJA": "20231231120000", "POCZ_WERSJ": "20231231120000", "OZNA_ZMIAN": "GI-TOPO.600.116.2023", "ZRO_DANYCH": "ortofotomapa", "KAT_ISTNIE": "eksploatowany", "UWAGI": null, "INFO_DODAT": null, "KOD10K": "0010_208", "SKROT_KART": null, "FUNK_TORU": "tor szlakowy", "LICZ_TOROW": 1.0, "POLOZENIE": "na powierzchni gruntu", "R_POJ_SZYN": "kolej", "R_TOROW": "tor normalny", "R_TRAKCJI": "niezelektryfikowana", "NR_LINII": "356", "N_STACJI_P": "Poznań Wschód", "N_STACJI_K": "Bydgoszcz Główna", "BDOT500": null }, "geometry": { "type": "MultiLineString", "coordinates": [ [ [ 1926054.460091581568122, 6973135.019098522141576 ], [ 1926018.621350166155025, 6973123.319732166826725 ], [ 1926002.037638511043042, 6973117.410299280658364 ] ] ] } },
{ "type": "Feature", "properties": { "TERYT": "3028", "LOKALNYID": "2EBDC9DC-A201-7DB6-E053-CC2BA8C07DDB", "PRZES_NAZW": "PL.PZGiK.308.BDOT10k", "WERSJA": "20260611000000", "POCZ_WERSJ": "20260611000000", "OZNA_ZMIAN": "BGW-I-K.7520.3.2026", "ZRO_DANYCH": "ortofotomapa", "KAT_ISTNIE": "eksploatowany", "UWAGI": null, "INFO_DODAT": null, "KOD10K": "0010_208", "SKROT_KART": null, "FUNK_TORU": "tor szlakowy", "LICZ_TOROW": 1.0, "POLOZENIE": "na powierzchni gruntu", "R_POJ_SZYN": "kolej", "R_TOROW": "tor normalny", "R_TRAKCJI": "niezelektryfikowana", "NR_LINII": "356", "N_STACJI_P": "Poznań Wschód", "N_STACJI_K": "Bydgoszcz Główna", "BDOT500": null }, "geometry": { "type": "MultiLineString", "coordinates": [ [ [ 1927107.940681219566613, 6973523.437187550589442 ], [ 1927142.102521668653935, 6973536.106201583519578 ], [ 1927165.041241799248382, 6973544.622472223825753 ], [ 1927179.02492026402615, 6973549.8038659254089 ], [ 1927218.71335894218646, 6973564.297659539617598 ], [ 1927251.352069936692715, 6973576.199282549321651 ], [ 1927371.126115402439609, 6973620.609747570008039 ], [ 1927460.536893338430673, 6973653.653296699747443 ], [ 1927483.2798411634285, 6973662.064466061070561 ], [ 1927559.856490830192342, 6973690.40179761685431 ], [ 1927694.899397390661761, 6973739.786420779302716 ], [ 1927829.762412583921105, 6973787.719228249974549 ], [ 1927850.599978439742699, 6973795.420078092254698 ], [ 1927961.702342555159703, 6973836.678054213523865 ], [ 1928085.74598858691752, 6973882.425582509487867 ], [ 1928109.610971340211108, 6973891.110757160000503 ], [ 1928285.789389175828546, 6973955.226301942020655 ], [ 1928464.106340896571055, 6974022.296377661637962 ], [ 1928599.520162947941571, 6974070.463271593675017 ], [ 1928635.934406261425465, 6974084.12653736397624 ], [ 1928801.031972276978195, 6974146.095232943072915 ], [ 1929071.809490079758689, 6974244.293471584096551 ], [ 1929191.3562191426754, 6974286.497931685298681 ], [ 1929277.709868948673829, 6974318.339027071371675 ], [ 1929282.505275430390611, 6974320.107422753237188 ] ] ] } },
{ "type": "Feature", "properties": { "TERYT": "3028", "LOKALNYID": "2EBDC9DC-A206-7DB6-E053-CC2BA8C07DDB", "PRZES_NAZW": "PL.PZGiK.308.BDOT10k", "WERSJA": "20260520000000", "POCZ_WERSJ": "20260520000000", "OZNA_ZMIAN": "BGW-I-K.7520.3.2026", "ZRO_DANYCH": "ortofotomapa", "KAT_ISTNIE": "eksploatowany", "UWAGI": null, "INFO_DODAT": null, "KOD10K": "0010_208", "SKROT_KART": null, "FUNK_TORU": "tor szlakowy", "LICZ_TOROW": 1.0, "POLOZENIE": "na powierzchni gruntu", "R_POJ_SZYN": "kolej", "R_TOROW": "tor normalny", "R_TRAKCJI": "niezelektryfikowana", "NR_LINII": "356", "N_STACJI_P": "Poznań Wschód", "N_STACJI_K": "Bydgoszcz Główna", "BDOT500": null }, "geometry": { "type": "MultiLineString", "coordinates": [ [ [ 1926002.037638511043042, 6973117.410299280658364 ], [ 1925973.313657035119832, 6973106.228434261865914 ], [ 1925961.612881917739287, 6973101.996548070572317 ], [ 1925945.51169108483009, 6973096.713199549354613 ], [ 1925902.045525810914114, 6973080.961180086247623 ], [ 1925807.578055171296, 6973046.419900975190103 ], [ 1925581.127101305639371, 6972963.134500558488071 ], [ 1925435.228085521841422, 6972909.256872589699924 ], [ 1925367.990974265616387, 6972884.679442509077489 ], [ 1925199.738522940315306, 6972823.055444063618779 ], [ 1925152.927789303241298, 6972805.89104941021651 ], [ 1925102.853338939137757, 6972787.984068240970373 ], [ 1925078.601413007592782, 6972779.115649114362895 ], [ 1925068.02007644274272, 6972775.241575771942735 ], [ 1925000.832510217092931, 6972747.273389014415443 ], [ 1924949.341291598975658, 6972722.752713105641305 ], [ 1924896.753207025118172, 6972694.185078153386712 ], [ 1924870.945170313119888, 6972678.284621371887624 ], [ 1924822.709978813771158, 6972645.80002146679908 ], [ 1924727.520519564859569, 6972579.980401422828436 ], [ 1924635.811290856916457, 6972516.319991873577237 ], [ 1924556.24806486046873, 6972461.156296417117119 ], [ 1924479.767782914452255, 6972408.109312306158245 ], [ 1924408.515542034758255, 6972358.958158941008151 ], [ 1924384.587158252485096, 6972342.15478886757046 ], [ 1924321.240207191789523, 6972298.608183255419135 ], [ 1924267.098935303278267, 6972261.013114025816321 ], [ 1924212.842234880430624, 6972223.415083362720907 ], [ 1924141.39657908026129, 6972173.477208365686238 ], [ 1924131.108608459820971, 6972166.386338863521814 ], [ 1924062.018823531456292, 6972118.464814264327288 ], [ 1924004.72819770523347, 6972078.916095344349742 ], [ 1923953.971576974261552, 6972043.361292879097164 ], [ 1923877.159036698983982, 6971989.987596480175853 ], [ 1923790.80576621927321, 6971930.221427608281374 ], [ 1923765.907659373013303, 6971912.496740921400487 ], [ 1923704.2787489912007, 6971870.151564948260784 ], [ 1923668.414043930824846, 6971845.352472837083042 ], [ 1923632.275152421789244, 6971820.247692801989615 ], [ 1923516.126711725257337, 6971739.846536295488477 ], [ 1923481.681011139880866, 6971716.044576191343367 ], [ 1923396.855623548850417, 6971657.076971266418695 ], [ 1923333.069576122798026, 6971613.631828153505921 ], [ 1923300.804712013807148, 6971590.147691439837217 ], [ 1923198.417140567442402, 6971519.410764965228736 ], [ 1923120.852899804245681, 6971466.015055048279464 ], [ 1923101.285950567573309, 6971452.191311093978584 ] ] ] } },
{ "type": "Feature", "properties": { "TERYT": "3028", "LOKALNYID": "3w25sxhQ-Z82v-m3BE-zrzo-1gO71LPWGjva", "PRZES_NAZW": "PL.PZGiK.308.BDOT10k", "WERSJA": "20260520000000", "POCZ_WERSJ": "20260520000000", "OZNA_ZMIAN": "BGW-I-K.7520.3.2026", "ZRO_DANYCH": "ortofotomapa", "KAT_ISTNIE": "eksploatowany", "UWAGI": null, "INFO_DODAT": null, "KOD10K": "0010_213", "SKROT_KART": null, "FUNK_TORU": "bocznica", "LICZ_TOROW": 1.0, "POLOZENIE": "na powierzchni gruntu", "R_POJ_SZYN": "kolej", "R_TOROW": "tor normalny", "R_TRAKCJI": "niezelektryfikowana", "NR_LINII": null, "N_STACJI_P": null, "N_STACJI_K": null, "BDOT500": null }, "geometry": { "type": "MultiLineString", "coordinates": [ [ [ 1924977.610835800878704, 6972755.059734922833741 ], [ 1925023.746424796525389, 6972769.218458293937147 ], [ 1925056.877754131797701, 6972778.946670359000564 ], [ 1925069.431013274006546, 6972783.532325671054423 ], [ 1925093.476296720094979, 6972792.72813084628433 ], [ 1925196.192544508958235, 6972830.015308258123696 ], [ 1925366.746408778708428, 6972892.441847768612206 ], [ 1925578.453409764217213, 6972970.364606234245002 ], [ 1925805.210072899004444, 6973052.643933121114969 ], [ 1925899.248584972694516, 6973087.806437198072672 ], [ 1925914.106197046115994, 6973093.110203348100185 ], [ 1925943.591535619460046, 6973103.629134517163038 ], [ 1925960.174782030284405, 6973109.555283197201788 ], [ 1925971.943002515472472, 6973113.738931835629046 ], [ 1926018.605537440627813, 6973133.819793031550944 ], [ 1926087.902317697647959, 6973165.402841565199196 ] ] ] } },
{ "type": "Feature", "properties": { "TERYT": "3028", "LOKALNYID": "MAQ6j2FV-50Vm-Jnrc-jhEB-EBXJvILasPBa", "PRZES_NAZW": "PL.PZGiK.308.BDOT10k", "WERSJA": "20260520000000", "POCZ_WERSJ": "20260520000000", "OZNA_ZMIAN": "BGW-I-K.7520.3.2026", "ZRO_DANYCH": "ortofotomapa", "KAT_ISTNIE": "eksploatowany", "UWAGI": null, "INFO_DODAT": null, "KOD10K": "0010_213", "SKROT_KART": null, "FUNK_TORU": "bocznica", "LICZ_TOROW": 1.0, "POLOZENIE": "na powierzchni gruntu", "R_POJ_SZYN": "kolej", "R_TOROW": "tor normalny", "R_TRAKCJI": "niezelektryfikowana", "NR_LINII": null, "N_STACJI_P": null, "N_STACJI_K": null, "BDOT500": null }, "geometry": { "type": "MultiLineString", "coordinates": [ [ [ 1924977.610835800878704, 6972755.059734922833741 ], [ 1924955.380799491191283, 6972750.392659756354988 ], [ 1924930.552227355306968, 6972745.580465028993785 ], [ 1924902.167573823593557, 6972740.467369207181036 ], [ 1924874.787844013655558, 6972737.704091878607869 ] ] ] } },
{ "type": "Feature", "properties": { "TERYT": "3028", "LOKALNYID": "nrtFOee9-AyxG-24bN-uDog-p3oOXTLe8NAL", "PRZES_NAZW": "PL.PZGiK.308.BDOT10k", "WERSJA": "20260520000000", "POCZ_WERSJ": "20260520000000", "OZNA_ZMIAN": "BGW-I-K.7520.3.2026", "ZRO_DANYCH": "ortofotomapa", "KAT_ISTNIE": "eksploatowany", "UWAGI": null, "INFO_DODAT": null, "KOD10K": "0010_213", "SKROT_KART": null, "FUNK_TORU": "bocznica", "LICZ_TOROW": 1.0, "POLOZENIE": "na powierzchni gruntu", "R_POJ_SZYN": "kolej", "R_TOROW": "tor normalny", "R_TRAKCJI": "niezelektryfikowana", "NR_LINII": null, "N_STACJI_P": null, "N_STACJI_K": null, "BDOT500": null }, "geometry": { "type": "MultiLineString", "coordinates": [ [ [ 1924758.65887570893392, 6972655.402038913220167 ], [ 1924784.72807182953693, 6972672.854126097634435 ], [ 1924813.367921990575269, 6972690.932395686395466 ], [ 1924827.363522618310526, 6972698.975246991030872 ], [ 1924846.323172667063773, 6972708.748094208538532 ], [ 1924861.873471175320446, 6972716.229911073110998 ], [ 1924883.359188171336427, 6972725.016304146498442 ], [ 1924901.608671686379239, 6972731.897912913002074 ], [ 1924977.610835800878704, 6972755.059734922833741 ] ] ] } },
{ "type": "Feature", "properties": { "TERYT": "3028", "LOKALNYID": "fc08b3f4-6c21-4114-8ff1-f92be9a1d975", "PRZES_NAZW": "PL.PZGiK.308.BDOT10k", "WERSJA": "20260520000000", "POCZ_WERSJ": "20260520000000", "OZNA_ZMIAN": "BGW-I-K.7520.3.2026", "ZRO_DANYCH": "ortofotomapa", "KAT_ISTNIE": "eksploatowany", "UWAGI": null, "INFO_DODAT": null, "KOD10K": "0010_213", "SKROT_KART": null, "FUNK_TORU": "bocznica", "LICZ_TOROW": 1.0, "POLOZENIE": "na powierzchni gruntu", "R_POJ_SZYN": "kolej", "R_TOROW": "tor normalny", "R_TRAKCJI": "niezelektryfikowana", "NR_LINII": null, "N_STACJI_P": null, "N_STACJI_K": null, "BDOT500": null }, "geometry": { "type": "MultiLineString", "coordinates": [ [ [ 1924758.65887570893392, 6972655.402038913220167 ], [ 1924794.030904758488759, 6972687.280945383012295 ] ] ] } },
{ "type": "Feature", "properties": { "TERYT": "3028", "LOKALNYID": "1dad9843-b0db-42d8-bce6-a462e5838c8d", "PRZES_NAZW": "PL.PZGiK.308.BDOT10k", "WERSJA": "20260520000000", "POCZ_WERSJ": "20260520000000", "OZNA_ZMIAN": "BGW-I-K.7520.3.2026", "ZRO_DANYCH": "ortofotomapa", "KAT_ISTNIE": "eksploatowany", "UWAGI": null, "INFO_DODAT": null, "KOD10K": "0010_213", "SKROT_KART": null, "FUNK_TORU": "bocznica", "LICZ_TOROW": 1.0, "POLOZENIE": "na powierzchni gruntu", "R_POJ_SZYN": "kolej", "R_TOROW": "tor normalny", "R_TRAKCJI": "niezelektryfikowana", "NR_LINII": null, "N_STACJI_P": null, "N_STACJI_K": null, "BDOT500": null }, "geometry": { "type": "MultiLineString", "coordinates": [ [ [ 1924696.619042094564065, 6972613.84838143363595 ], [ 1924723.104050440480933, 6972629.83190315309912 ], [ 1924745.549203981179744, 6972645.652445243671536 ], [ 1924758.65887570893392, 6972655.402038913220167 ] ] ] } }
]
}
