{
"type": "FeatureCollection",
"name": "komunikacja2_1935",
"crs": { "type": "name", "properties": { "name": "urn:ogc:def:crs:OGC:1.3:CRS84" } },
"features": [
{ "type": "Feature", "properties": { "TERYT": "3028", "LOKALNYID": "F50D9BBC-9401-79F2-E043-CA2BA8C0F739", "WERSJAID": "2013-01-01T00:00:00", "PNAZW": "PL.PZGIK.308.BDOT10k", "GMLID": "OT_SKTR_L.17", "X_KOD": "SKTR01", "X_SKRKARTO": null, "X_SKRK_NIL": "inapplicable", "X_KATDOKG": "dokladny", "X_DOKLGEOM": null, "X_ZRODLOG": "ortofotomapa", "X_ZRODLOA": "pomiarTerenowy", "X_KATIST": "eksploatowany", "X_KATI_NIL": null, "X_RODZREPG": "osGeometryczna", "X_UWAGI": null, "X_UZYTKOWN": "Uzytkownik30.xml", "X_AKTG": "2004-05-14", "X_AKTA": "2009-05-19", "POCZWERS": "2013-02-28", "KONIECWERS": null, "X_DATAUTW": "2009-06-08", "X_INFDOD": null, "KOD10K": "0010_208", "KOD10K_NIL": null, "KOD25K": "0025_208", "KOD25K_NIL": null, "KOD50K": "0050_208", "KOD50K_NIL": null, "KOD100K": "0100_208", "KOD100_NIL": null, "KOD250K": null, "KOD250_NIL": "inapplicable", "KOD500K": null, "KOD500_NIL": "inapplicable", "KOD1000K": null, "KOD1000_NI": "inapplicable", "FUNKCTORU": "torSzlakowyStacyjny", "FTORU_NIL": null, "LICZBATOR": 1, "LTOROW_NIL": null, "POLOZENIE": "naPowierzchniGruntu", "POLOZ_NIL": null, "RODZPOJSZ": "kolej", "RODPSZ_NIL": null, "RODZAJTOR": "torNormalny", "RODZTOR_NI": null, "RODZAJTRAK": "niezelektryfikowana", "RODTRA_NIL": null, "LINKOL_NIL": null, "LIN_LOKID": "F50D9BBB-71FC-79F2-E043-CA2BA8C0F739", "LIN_PNAZW": null, "LIN_WERID": "1900-01-01T00:00:00", "LIN_NRLINI": "356", "W1_NAZWA": "Poznań Wschód", "W1_NRWEZ": "4", "WEZEL1_OZN": "ST", "W1_LOKID": "F50D9BBC-BC18-79F2-E043-CA2BA8C0F739", "W1_PNAZW": null, "W1_WERID": "1900-01-01T00:00:00", "W2_NAZWA": "Bydgoszcz Główna", "W2_NRWEZ": "3", "WEZEL2_OZN": "ST", "W2_LOKID": "F50D9BBC-BC17-79F2-E043-CA2BA8C0F739", "W2_PNAZW": null, "W2_WERID": "1900-01-01T00:00:00", "BD500_ID": null, "BD500_PNA": null, "BD500_WEID": null, "length": 24.61 }, "geometry": { "type": "MultiLineString", "coordinates": [ [ [ 17.302041595468406, 52.946646288322277 ], [ 17.301719650576636, 52.946582961072345 ], [ 17.301308755505509, 52.94649470896379 ], [ 17.301205286006272, 52.946471735721857 ], [ 17.301059533601642, 52.946441143050997 ], [ 17.300667685353943, 52.946357028159866 ], [ 17.299823816401588, 52.946166709313466 ], [ 17.297783150899651, 52.945723980431275 ], [ 17.29647395562823, 52.945429842751913 ], [ 17.295874496015944, 52.945294890827775 ], [ 17.29435909390785, 52.944959910201845 ], [ 17.293761025899148, 52.944827755421066 ], [ 17.293493166564705, 52.944767790419242 ], [ 17.29327530780737, 52.944719784667029 ], [ 17.293180254043744, 52.944698813854686 ], [ 17.292460257130205, 52.944525150492808 ], [ 17.292122147658137, 52.944423163309764 ], [ 17.29164173757913, 52.944260043216765 ], [ 17.291300879325526, 52.944133462418982 ], [ 17.290985580250737, 52.944008147595007 ], [ 17.290110210863617, 52.943648591566152 ], [ 17.289289391199397, 52.943302944628087 ], [ 17.288582927843851, 52.942998599664023 ], [ 17.287976049600925, 52.942751354004358 ], [ 17.287242662824831, 52.942450659973616 ], [ 17.28646011856906, 52.942120833523106 ], [ 17.285975824528329, 52.941917793760986 ], [ 17.285486861778942, 52.941719990676241 ], [ 17.284789846775269, 52.94143401553027 ], [ 17.284134758942749, 52.941149630997273 ], [ 17.283619754618826, 52.940933187567538 ], [ 17.28247530476186, 52.940450885065751 ], [ 17.281692464433331, 52.940122821037804 ], [ 17.280921093798323, 52.939802382175401 ], [ 17.280277207277276, 52.939533336777721 ], [ 17.279696734615065, 52.939298301484563 ], [ 17.278920687279644, 52.938972655493146 ], [ 17.278162765383396, 52.938651943556231 ], [ 17.27759492852746, 52.938410425871318 ], [ 17.276981650893429, 52.93815880343233 ], [ 17.276417170307305, 52.937919307224583 ], [ 17.275673826262622, 52.937618486010429 ], [ 17.275506818815561, 52.937546093885416 ] ], [ [ 17.276624922429011, 52.947682710112886 ], [ 17.276916929547021, 52.947609491131416 ], [ 17.277850150212135, 52.947366621102866 ], [ 17.278432267513345, 52.947217763594857 ], [ 17.279012172730631, 52.947072018876845 ], [ 17.280115297196851, 52.946786715295381 ], [ 17.28089005560587, 52.946581637951063 ], [ 17.282151191248779, 52.946257052526136 ], [ 17.283472696690737, 52.945911382279917 ], [ 17.284343137043575, 52.945687969467549 ], [ 17.285941447884124, 52.945284124725724 ], [ 17.286754209994349, 52.945072902603172 ], [ 17.286876206007953, 52.94504120649669 ], [ 17.28780371925977, 52.944800514826902 ], [ 17.287914262962222, 52.944776027144513 ], [ 17.28803471939186, 52.944749343925942 ], [ 17.288130992313466, 52.944728067881528 ], [ 17.288544463667648, 52.944651915358463 ], [ 17.288869274643559, 52.944600295403859 ], [ 17.289167942719605, 52.944550906200313 ], [ 17.289446468779062, 52.944521461219814 ], [ 17.289644038551863, 52.944502451630363 ], [ 17.289902182109266, 52.944487731003804 ], [ 17.290465654416906, 52.94447740325613 ], [ 17.290933085850206, 52.944482508907669 ], [ 17.291359588002244, 52.94449862551118 ], [ 17.291488002502245, 52.944507936535921 ], [ 17.291763388686793, 52.9445279041623 ], [ 17.292292976558283, 52.944584080701844 ] ], [ [ 17.292292976558283, 52.944584080701844 ], [ 17.293089432608372, 52.944725388407022 ], [ 17.293192928704944, 52.944743692641651 ], [ 17.29341409640357, 52.944790846740879 ], [ 17.294331646914411, 52.944995309533923 ], [ 17.295865865851589, 52.94532885165362 ], [ 17.297763358549417, 52.945757871405746 ], [ 17.299802544454909, 52.946200399579666 ], [ 17.300647306781826, 52.946390731349744 ], [ 17.300780774981934, 52.946419440131166 ], [ 17.301045646284916, 52.946476378048146 ], [ 17.301195887559519, 52.946506405383538 ], [ 17.301300331845312, 52.946531101294099 ], [ 17.301699563273996, 52.946616848466043 ], [ 17.302091845036795, 52.946716614440383 ] ], [ [ 17.301963779559181, 52.9465803346828 ], [ 17.302671767473427, 52.946724090541778 ] ], [ [ 17.302041595468406, 52.946646288322277 ], [ 17.302671767473427, 52.946724090541778 ] ], [ [ 17.302041595468406, 52.946646288322277 ], [ 17.302980833548954, 52.946842629909128 ], [ 17.30408775581348, 52.947064919867664 ], [ 17.304151108250306, 52.947078234803989 ], [ 17.304307058828535, 52.947110857780054 ], [ 17.305417840817757, 52.947349018511815 ], [ 17.305684648046469, 52.947406243411656 ], [ 17.30584116110056, 52.947439771706435 ], [ 17.306360128684425, 52.947555718938382 ], [ 17.306612968093045, 52.947612292978846 ], [ 17.307077326609711, 52.947716037309583 ], [ 17.307805553746793, 52.947880015765229 ], [ 17.309650922186275, 52.948288406429143 ], [ 17.310517634648484, 52.948471605196389 ] ], [ [ 17.310893090606534, 52.948622004547062 ], [ 17.310614278487417, 52.948540069121989 ], [ 17.310470492350547, 52.948508346921926 ], [ 17.310322131823241, 52.948475570237633 ], [ 17.308847122502097, 52.948152951697402 ], [ 17.307052685289964, 52.947756066060435 ], [ 17.306590652499459, 52.947657570885262 ], [ 17.304130784634076, 52.947122011837514 ], [ 17.302759018815042, 52.946853311365246 ], [ 17.302257982781146, 52.946751364220532 ], [ 17.302091845036795, 52.946716614440383 ] ], [ [ 17.302091845036795, 52.946716614440383 ], [ 17.302342012096954, 52.946810751402168 ] ], [ [ 17.304253960101484, 52.947204619427623 ], [ 17.302342012096954, 52.946810751402168 ] ], [ [ 17.302342012096954, 52.946810751402168 ], [ 17.302556448000125, 52.946885851214581 ] ], [ [ 17.302556448000125, 52.946885851214581 ], [ 17.302894943523398, 52.946967668937909 ], [ 17.303260309780377, 52.947047711010761 ], [ 17.303895035146336, 52.947184387797414 ], [ 17.304234816429737, 52.947248683115852 ], [ 17.304470382629454, 52.947293773624551 ], [ 17.305798281204183, 52.947569293122037 ], [ 17.30681097668937, 52.947788055534716 ], [ 17.307014162363181, 52.947835107726135 ], [ 17.307713375517928, 52.947994806226276 ], [ 17.309104726420447, 52.948293675346292 ], [ 17.310053993308745, 52.948482728766095 ], [ 17.310625475105081, 52.948604260432354 ], [ 17.310822697265976, 52.948640249472056 ], [ 17.311147836549413, 52.948698740888197 ] ], [ [ 17.302556448000125, 52.946885851214581 ], [ 17.302861215096463, 52.946996325445063 ], [ 17.303097487523395, 52.947068948241046 ], [ 17.303292989683762, 52.947121922620767 ], [ 17.303493783884676, 52.947169036665244 ], [ 17.303961461408036, 52.947252335955611 ], [ 17.304203427146561, 52.947301295521122 ], [ 17.306501072862272, 52.947774375982469 ], [ 17.306985108550275, 52.94788136889008 ], [ 17.307893576875792, 52.948081459712817 ], [ 17.30905130309651, 52.948334913705644 ], [ 17.309991911329721, 52.948532208143106 ], [ 17.310636350078628, 52.948638499561099 ], [ 17.311147836549413, 52.948698740888197 ] ], [ [ 17.310517634648484, 52.948471605196389 ], [ 17.310203728333331, 52.948361830243684 ], [ 17.309812114499998, 52.948263179984274 ], [ 17.309731200817847, 52.948245751171868 ], [ 17.308928431381176, 52.948072449940142 ], [ 17.307298657040306, 52.947717841531386 ], [ 17.307184724774991, 52.94769193657276 ], [ 17.307097799871535, 52.947672171991655 ], [ 17.306634298161352, 52.947565562098113 ], [ 17.306432875280876, 52.947519163899585 ], [ 17.305821221608692, 52.947378512947417 ], [ 17.305712616575214, 52.947353491916658 ], [ 17.30510511096659, 52.947228724572803 ], [ 17.304775290287456, 52.947160976545426 ], [ 17.304498937623148, 52.947104242907223 ], [ 17.30432952293992, 52.947069449518217 ], [ 17.304172357435235, 52.947037438761043 ], [ 17.303547237446427, 52.946910253603924 ], [ 17.302986799472976, 52.946789115121533 ], [ 17.302671767473427, 52.946724090541778 ] ], [ [ 17.307036512713509, 52.947788930910654 ], [ 17.308319364063351, 52.94807115466417 ], [ 17.309475301448572, 52.948328536085583 ], [ 17.310893090606534, 52.948622004547062 ] ], [ [ 17.310517634648484, 52.948471605196389 ], [ 17.31074106920784, 52.948541781789601 ], [ 17.311159298639691, 52.948675881017067 ] ], [ [ 17.310893090606534, 52.948622004547062 ], [ 17.311159298639691, 52.948675881017067 ] ], [ [ 17.311147836549413, 52.948698740888197 ], [ 17.311505172620354, 52.948748695659397 ] ], [ [ 17.311159298639691, 52.948675881017067 ], [ 17.311505172620354, 52.948748695659397 ] ], [ [ 17.311505172620354, 52.948748695659397 ], [ 17.311812053654446, 52.948817268057113 ], [ 17.312143733204291, 52.948891408012678 ], [ 17.312500260514966, 52.948969856957874 ], [ 17.312793459044372, 52.949034275443054 ], [ 17.313869407601196, 52.949274649785416 ], [ 17.314876901661417, 52.949499024764563 ], [ 17.31556480140944, 52.949652400800993 ], [ 17.316777912479189, 52.949919694173836 ], [ 17.317791171171816, 52.950145924541559 ], [ 17.317997382096124, 52.950188503984805 ], [ 17.318171242995582, 52.950224419844389 ], [ 17.319174644114085, 52.950444113574498 ], [ 17.320288947145368, 52.95069171676186 ], [ 17.320503329932993, 52.950738724101548 ], [ 17.322085967587732, 52.951085739283869 ], [ 17.323687816019216, 52.951448742415174 ], [ 17.32490425907951, 52.951709434043593 ], [ 17.326714470462022, 52.952118770515895 ], [ 17.329146906290404, 52.952650234763254 ], [ 17.330220812829239, 52.952878649904818 ], [ 17.330996540863843, 52.953050976587761 ], [ 17.331039618733204, 52.953060547273616 ] ] ] } }
]
}
