{
"type": "FeatureCollection",
"name": "zabudowa_2026",
"crs": { "type": "name", "properties": { "name": "urn:ogc:def:crs:OGC:1.3:CRS84" } },
"features": [
{ "type": "Feature", "properties": { "TERYT": "3028", "LOKALNYID": "2EBDC9DC-2E51-7DB6-E053-CC2BA8C07DDB", "PRZES_NAZW": "PL.PZGiK.308.BDOT10k", "WERSJA": "20231231120000", "POCZ_WERSJ": "20231231120000", "OZNA_ZMIAN": "GI-TOPO.600.116.2023", "ZRO_DANYCH": "ortofotomapa", "KAT_ISTNIE": null, "UWAGI": null, "INFO_DODAT": null, "KOD10K": null, "SKROT_KART": null, "STATUS": 0, "RODZAJ": "jednorodzinna", "CHARAKTER": "gęsta", "ROSLINNOSC": "brak" }, "geometry": { "type": "MultiPolygon", "coordinates": [ [ [ [ 17.284255711360561, 52.932734974301979 ], [ 17.284923405629538, 52.932847948574462 ], [ 17.285338700241592, 52.932817070506459 ], [ 17.285344535412417, 52.932439794605934 ], [ 17.285535141020716, 52.932426177563876 ], [ 17.285446491605722, 52.932161123841624 ], [ 17.285417642820114, 52.932044524423226 ], [ 17.284319180343537, 52.932160449976962 ], [ 17.284262539361674, 52.932178565562978 ], [ 17.284131624889415, 52.932229645556504 ], [ 17.283940131945517, 52.932258176457843 ], [ 17.283946514625246, 52.93229999771404 ], [ 17.283993279990572, 52.932434673856378 ], [ 17.284029074566309, 52.932515591259417 ], [ 17.284255711360561, 52.932734974301979 ] ] ], [ [ [ 17.27920549101966, 52.937291250885544 ], [ 17.27967595434021, 52.937371809357053 ], [ 17.279932608974807, 52.937303578750523 ], [ 17.280113028664744, 52.937021911501233 ], [ 17.279613926705231, 52.936886620322078 ], [ 17.279341673402843, 52.936826559280462 ], [ 17.279276646289848, 52.936934796540392 ], [ 17.279161102800984, 52.937126929336237 ], [ 17.279075343159601, 52.937258698519464 ], [ 17.27920549101966, 52.937291250885544 ] ] ], [ [ [ 17.286045476158947, 52.93828765625382 ], [ 17.286263917857219, 52.938075057533389 ], [ 17.286286655458277, 52.93804211021579 ], [ 17.286292010599986, 52.938015837027685 ], [ 17.286286703791003, 52.93798815098625 ], [ 17.286255847496726, 52.937955329953027 ], [ 17.286021959005907, 52.937854468434239 ], [ 17.285683019768385, 52.937729967124895 ], [ 17.285380017749343, 52.937607692207429 ], [ 17.285057151413422, 52.937912492489716 ], [ 17.284793105973954, 52.938171465751132 ], [ 17.284715583970563, 52.938245890483209 ], [ 17.285024458754041, 52.938362765912501 ], [ 17.285342757291051, 52.938482294659536 ], [ 17.285515841849488, 52.938547296061778 ], [ 17.285671042840704, 52.938605294173811 ], [ 17.285704636247392, 52.938617829943539 ], [ 17.286045476158947, 52.93828765625382 ] ] ], [ [ [ 17.290699532313067, 52.940406798922602 ], [ 17.290627149380928, 52.940468081214043 ], [ 17.291033749549854, 52.94061422599156 ], [ 17.291050930398313, 52.940620228833723 ], [ 17.290981091068616, 52.940684965382303 ], [ 17.290516853747015, 52.941238030539658 ], [ 17.290720461617521, 52.941299596253899 ], [ 17.290912737614249, 52.941357850952265 ], [ 17.291308623691712, 52.94147767006136 ], [ 17.291562421043089, 52.941569004482318 ], [ 17.291785526825272, 52.94164964472548 ], [ 17.291940672965982, 52.941705745113225 ], [ 17.292084079441835, 52.941757539620014 ], [ 17.292258749499755, 52.941820665216085 ], [ 17.292470259452784, 52.941897180428846 ], [ 17.292863505134072, 52.942020014066635 ], [ 17.293133689442573, 52.9421036664206 ], [ 17.293441780200805, 52.942184984758029 ], [ 17.293916527310984, 52.942291088784145 ], [ 17.294328027902779, 52.942404197073849 ], [ 17.294370812524054, 52.942414074372913 ], [ 17.294487369442159, 52.942440838848604 ], [ 17.29442742447511, 52.942522806696999 ], [ 17.294509827187508, 52.942679843508415 ], [ 17.294517023336233, 52.94269370655789 ], [ 17.294649977285371, 52.942947067685182 ], [ 17.294731956415426, 52.943103558644438 ], [ 17.294761180896565, 52.943159196957701 ], [ 17.295328732744306, 52.943279397616855 ], [ 17.295605096575507, 52.943422039039596 ], [ 17.295768081651165, 52.943297931094904 ], [ 17.29610195648355, 52.943481146632308 ], [ 17.295687641468916, 52.943594545493163 ], [ 17.295679213655941, 52.943596852795054 ], [ 17.295640245896838, 52.943546650805608 ], [ 17.295354908379931, 52.943628443476598 ], [ 17.295394471051633, 52.943678654095557 ], [ 17.295189007187457, 52.943735781480456 ], [ 17.295451564486349, 52.944025175675947 ], [ 17.295474736327996, 52.944049250411553 ], [ 17.29605013979721, 52.943871522188978 ], [ 17.29613502400591, 52.943848187771323 ], [ 17.296140689655505, 52.943855553591462 ], [ 17.296482032348425, 52.943761701595868 ], [ 17.296533537828914, 52.943746701762215 ], [ 17.296701437933088, 52.94369829667086 ], [ 17.296892371373712, 52.94353726565879 ], [ 17.296962907731853, 52.94346983768969 ], [ 17.297231231564787, 52.94302887475574 ], [ 17.297231394475705, 52.943028517358428 ], [ 17.297562873530751, 52.942916444408574 ], [ 17.297623455810406, 52.942867399624838 ], [ 17.297678998858782, 52.9428784477875 ], [ 17.297969038293019, 52.942926939912084 ], [ 17.298024935543012, 52.942936554057908 ], [ 17.298245073751453, 52.942971903230557 ], [ 17.298466442102292, 52.943010057531936 ], [ 17.298510804389625, 52.943017707598031 ], [ 17.298791297707837, 52.943062913343518 ], [ 17.298997513573866, 52.943092665793436 ], [ 17.299038343829896, 52.943099275832957 ], [ 17.299098847042053, 52.943109135274767 ], [ 17.299308968628157, 52.943145598133029 ], [ 17.299395479554253, 52.943160416266736 ], [ 17.299498847074307, 52.943178173579504 ], [ 17.299561765691564, 52.943183390839025 ], [ 17.299614517646503, 52.943102396717869 ], [ 17.299662513093409, 52.943028798941285 ], [ 17.299767088047748, 52.942867696623551 ], [ 17.299916448038903, 52.942619910117379 ], [ 17.299969795758731, 52.942531280061495 ], [ 17.30004057865985, 52.942419426932062 ], [ 17.300188014324984, 52.942099126574838 ], [ 17.300274453239581, 52.941933447567003 ], [ 17.300312410522974, 52.9418614146526 ], [ 17.30038506819055, 52.941663702142002 ], [ 17.300457405402238, 52.941477946087723 ], [ 17.300495547265342, 52.941378396261548 ], [ 17.300709349686802, 52.941066239174894 ], [ 17.300823080070003, 52.940982789106528 ], [ 17.300916223148167, 52.940908037823796 ], [ 17.300933914470271, 52.940893451873585 ], [ 17.300924302578089, 52.940872809699997 ], [ 17.300909440365729, 52.940803798430338 ], [ 17.300914985132149, 52.940776268296496 ], [ 17.300934154606338, 52.940750551794288 ], [ 17.301006158196717, 52.940702388102267 ], [ 17.301023712055681, 52.940691307559703 ], [ 17.301065615360844, 52.940674279885719 ], [ 17.301106057204951, 52.940664156139775 ], [ 17.301149029231496, 52.940657845743338 ], [ 17.30119348205864, 52.940666935044419 ], [ 17.301223065365786, 52.940683186231695 ], [ 17.301342815577765, 52.940613221758092 ], [ 17.301704851919954, 52.940461374213591 ], [ 17.301649168597553, 52.94040455002402 ], [ 17.301722040013942, 52.940376003698766 ], [ 17.302006869199332, 52.940264510747859 ], [ 17.302318030900427, 52.940138194709029 ], [ 17.30234373651113, 52.940131817033588 ], [ 17.302380403691867, 52.94013063222102 ], [ 17.302412439507922, 52.940137475192422 ], [ 17.30245811347379, 52.940157193561141 ], [ 17.302523173406087, 52.940130423734303 ], [ 17.30316407401174, 52.939866991728948 ], [ 17.303206861340598, 52.939850155798652 ], [ 17.303149562374312, 52.939796546827843 ], [ 17.302861314506092, 52.939535311405145 ], [ 17.302744998408112, 52.939434004118048 ], [ 17.30258823299312, 52.93929362751927 ], [ 17.302299165932965, 52.939410906922134 ], [ 17.301939111723946, 52.939569439606281 ], [ 17.30215195671499, 52.939756484286022 ], [ 17.301621542020275, 52.939973466051569 ], [ 17.301474382342334, 52.939850132696634 ], [ 17.301247044783988, 52.939949496034806 ], [ 17.30107342801492, 52.939764359657211 ], [ 17.301501802235403, 52.939579556576255 ], [ 17.302001810835655, 52.939371044179275 ], [ 17.302164040047664, 52.939303394701916 ], [ 17.302091007388615, 52.939233462359972 ], [ 17.301748450260387, 52.938937633207544 ], [ 17.30159221196519, 52.938802928566403 ], [ 17.301540040910716, 52.938759104858022 ], [ 17.301414947717184, 52.938653983497872 ], [ 17.301338020993597, 52.938584714464113 ], [ 17.301323803635029, 52.93859044677346 ], [ 17.301263246132308, 52.93853652047023 ], [ 17.300903396342285, 52.93867472807603 ], [ 17.300171600984172, 52.938955733446782 ], [ 17.299931332049493, 52.938762267198868 ], [ 17.299997666179856, 52.938733358592863 ], [ 17.300200116171013, 52.938653606721999 ], [ 17.300152510583008, 52.93859968527854 ], [ 17.300081672861445, 52.938519440771479 ], [ 17.299842769771143, 52.93825323803167 ], [ 17.299801425717732, 52.938206690616155 ], [ 17.299189296011583, 52.938298384545924 ], [ 17.298702077632537, 52.938366772740629 ], [ 17.298797397457694, 52.938608348791256 ], [ 17.298973093436526, 52.939043712092804 ], [ 17.29918221396537, 52.939511299926693 ], [ 17.299271920946495, 52.939698745426902 ], [ 17.299291341519794, 52.939742551002432 ], [ 17.299132209466602, 52.939772828789387 ], [ 17.298504838035267, 52.939884356183754 ], [ 17.298628058091435, 52.940135774819105 ], [ 17.298794127448406, 52.940103258771828 ], [ 17.298822005615275, 52.940159146614 ], [ 17.299099997417979, 52.940108267481996 ], [ 17.29918336507788, 52.940093003188451 ], [ 17.299304978625347, 52.940070462126535 ], [ 17.299435936336671, 52.940044996961859 ], [ 17.299477788291853, 52.94012797462296 ], [ 17.299569936916601, 52.940325347441913 ], [ 17.29967041971204, 52.940530393821057 ], [ 17.299713709801349, 52.940626072521709 ], [ 17.299797165783374, 52.94079840929821 ], [ 17.300141658304359, 52.940741104807607 ], [ 17.300247432470226, 52.940723912005851 ], [ 17.300318530211946, 52.940710270036917 ], [ 17.30041609304627, 52.941005117031146 ], [ 17.300221700647498, 52.941311975444364 ], [ 17.300116600363118, 52.941289157691848 ], [ 17.30003453453994, 52.941305340606021 ], [ 17.300050188761162, 52.941338929721461 ], [ 17.299289870529826, 52.941336232815509 ], [ 17.299307618700588, 52.941430286979518 ], [ 17.299299944194612, 52.941515883273155 ], [ 17.299302973565304, 52.94172331212134 ], [ 17.299311968776738, 52.941801412782169 ], [ 17.299312985176915, 52.94187418312093 ], [ 17.299252545463478, 52.942397897104584 ], [ 17.29912373413098, 52.942364666588162 ], [ 17.299030931401663, 52.942320529949313 ], [ 17.298970768588507, 52.942286843095957 ], [ 17.298946700824374, 52.942270400519412 ], [ 17.29891976593305, 52.942247351780736 ], [ 17.298881465706355, 52.942161097286942 ], [ 17.298820254951238, 52.942089623493118 ], [ 17.298747769587994, 52.942024733205137 ], [ 17.298612229741728, 52.941935377521972 ], [ 17.298126656013643, 52.941744600201226 ], [ 17.298105897779067, 52.941772811626187 ], [ 17.298049279141392, 52.941849882594006 ], [ 17.29786589583497, 52.942099517677782 ], [ 17.297392501618777, 52.942118006091029 ], [ 17.297431081587451, 52.942151564348194 ], [ 17.297389058853259, 52.942243593173281 ], [ 17.297160393447189, 52.942175294622558 ], [ 17.297048019800858, 52.942383138034749 ], [ 17.296788548400102, 52.942291824043245 ], [ 17.296504998143838, 52.942191980346387 ], [ 17.296239272356583, 52.942066670715015 ], [ 17.296009969961531, 52.94201086148788 ], [ 17.295750587534087, 52.941947695512681 ], [ 17.295463452090562, 52.941905085216781 ], [ 17.295538751131843, 52.94175435847712 ], [ 17.295072416566313, 52.941695596481253 ], [ 17.295112583990338, 52.941605430412849 ], [ 17.295146857739496, 52.941490987772568 ], [ 17.295176839230137, 52.941428914501671 ], [ 17.295231550324917, 52.941434555906099 ], [ 17.295292390659355, 52.941447120137624 ], [ 17.29541286424238, 52.941480235229925 ], [ 17.295656128951684, 52.941548117083101 ], [ 17.295750348622445, 52.941540924953443 ], [ 17.296066704222756, 52.941491502463961 ], [ 17.296105809365187, 52.940909297163692 ], [ 17.295905661981635, 52.940770897588919 ], [ 17.295726242156512, 52.940790717428598 ], [ 17.295287281861921, 52.94122491220471 ], [ 17.295255509150774, 52.941260609419132 ], [ 17.295206108594897, 52.941256213352133 ], [ 17.294838813360368, 52.941192755972935 ], [ 17.294623380703783, 52.941155399484977 ], [ 17.294515119278, 52.941118411890777 ], [ 17.294407622279824, 52.941114980203146 ], [ 17.294321506312169, 52.941139464815713 ], [ 17.294268754507133, 52.941178637783686 ], [ 17.294219507923042, 52.941242232912934 ], [ 17.294048103187126, 52.94127772372395 ], [ 17.294022314798831, 52.941240750687612 ], [ 17.294003462759299, 52.941205316170766 ], [ 17.29399126516812, 52.941193719530126 ], [ 17.29393459585134, 52.941139485575263 ], [ 17.293821147517271, 52.941026249552294 ], [ 17.293768883655606, 52.940943300193474 ], [ 17.293585390920494, 52.94112709624946 ], [ 17.293015997832942, 52.940922143598485 ], [ 17.292775853946779, 52.940835684977976 ], [ 17.292930809936909, 52.940711285650728 ], [ 17.292993530301853, 52.940660924921609 ], [ 17.293004684963716, 52.940649843546126 ], [ 17.293022875566994, 52.940652892816537 ], [ 17.293042626374596, 52.94061252681761 ], [ 17.293218099656109, 52.940439588219817 ], [ 17.293259634835302, 52.940443332537015 ], [ 17.293319116063095, 52.940448773555921 ], [ 17.293328253647061, 52.940413291309511 ], [ 17.293191176923219, 52.940363387868381 ], [ 17.292615649375627, 52.940151959825236 ], [ 17.292496307684473, 52.940105368154512 ], [ 17.292444850092753, 52.940085203072712 ], [ 17.292427258309282, 52.940078295194553 ], [ 17.292207751298662, 52.939997168224579 ], [ 17.292184637825944, 52.940020848131454 ], [ 17.292078269465449, 52.93998505462082 ], [ 17.292251515914753, 52.939815772673001 ], [ 17.292354407706615, 52.939697910313313 ], [ 17.292245464829474, 52.939667026264935 ], [ 17.291967352045546, 52.939592341020251 ], [ 17.291964213605663, 52.939596432825425 ], [ 17.291627652700992, 52.939505258149858 ], [ 17.291346442396616, 52.939418565791691 ], [ 17.291280463705789, 52.939578057616146 ], [ 17.290817686901452, 52.939497745930453 ], [ 17.290749286749818, 52.939650637517722 ], [ 17.29122817578094, 52.939737656373836 ], [ 17.291180109827046, 52.939858104988311 ], [ 17.291159691625182, 52.939881373798528 ], [ 17.290699532313067, 52.940406798922602 ] ], [ [ 17.297666108465165, 52.942304310681315 ], [ 17.297411812746223, 52.942824256921796 ], [ 17.297384899919894, 52.94287648207321 ], [ 17.297282925546149, 52.94285361669376 ], [ 17.297126279989406, 52.942820254922864 ], [ 17.297155839547258, 52.942768877157469 ], [ 17.297163209347644, 52.942751805575753 ], [ 17.297181933434079, 52.942710974539672 ], [ 17.297204531484663, 52.942658687595198 ], [ 17.297228595662915, 52.942603184069476 ], [ 17.297246469239884, 52.942561261638076 ], [ 17.297252192230253, 52.942548213435494 ], [ 17.297275292951493, 52.942494494752943 ], [ 17.297389058853259, 52.942243593173281 ], [ 17.297666108465165, 52.942304310681315 ] ], [ [ 17.291755313144368, 52.940190855170513 ], [ 17.291834968299497, 52.940220778995247 ], [ 17.29191594843569, 52.940251081546528 ], [ 17.291868891914227, 52.940296810521552 ], [ 17.291763295901205, 52.940290525896671 ], [ 17.291726461821135, 52.940288377509383 ], [ 17.291689298778962, 52.940317251303753 ], [ 17.291670375469085, 52.940336584636768 ], [ 17.291588231317633, 52.940415174177986 ], [ 17.291553122183661, 52.940403247831597 ], [ 17.291135480476257, 52.940253978224305 ], [ 17.291326351340345, 52.940053114769043 ], [ 17.291592570831206, 52.940150113762634 ], [ 17.291755313144368, 52.940190855170513 ] ], [ [ 17.301428770198317, 52.939509623835292 ], [ 17.3013806516337, 52.939468735857439 ], [ 17.301315246519469, 52.939413121496933 ], [ 17.300932040059703, 52.939079656390888 ], [ 17.300900621576389, 52.939057083564485 ], [ 17.301160960048506, 52.938947400811529 ], [ 17.30123528891631, 52.938919595095157 ], [ 17.301268730507559, 52.938943725620092 ], [ 17.301655375131613, 52.939265457562307 ], [ 17.301703103512224, 52.939289702248288 ], [ 17.301826475517114, 52.939343806670628 ], [ 17.301428770198317, 52.939509623835292 ] ] ], [ [ [ 17.290078516407718, 52.940265751259197 ], [ 17.289833979054269, 52.940173917338178 ], [ 17.289762540138991, 52.940147078224427 ], [ 17.289077047049602, 52.939889712913825 ], [ 17.288785174645096, 52.939779028656659 ], [ 17.287993685361773, 52.94068341574706 ], [ 17.289316724700306, 52.941146112569484 ], [ 17.290078516407718, 52.940265751259197 ] ] ], [ [ [ 17.29607621699548, 52.940525847924413 ], [ 17.295950833323918, 52.940409385057244 ], [ 17.295795290624593, 52.94032927208562 ], [ 17.295707081259174, 52.94030102689208 ], [ 17.295605723886712, 52.940285363516217 ], [ 17.29551846355837, 52.940286000308078 ], [ 17.295449376394263, 52.940396166429466 ], [ 17.295401303331733, 52.940373173338294 ], [ 17.295317787155607, 52.940445180619406 ], [ 17.295219963568773, 52.940525166462947 ], [ 17.295353533600501, 52.940584819935715 ], [ 17.295509408493835, 52.940656484540462 ], [ 17.295647380357359, 52.940695066557474 ], [ 17.295791785704477, 52.940638141857214 ], [ 17.295851164854863, 52.940612103571731 ], [ 17.29607621699548, 52.940525847924413 ] ] ], [ [ [ 17.286626009819326, 52.942707341671635 ], [ 17.286362947853377, 52.942594369052564 ], [ 17.286134308144348, 52.942503206532429 ], [ 17.285316062367023, 52.943321034137981 ], [ 17.28633285551707, 52.943577983454794 ], [ 17.286430128977344, 52.94372345925207 ], [ 17.286624360059392, 52.943969709268657 ], [ 17.286681890432579, 52.944002015455624 ], [ 17.286610889390076, 52.944084539481267 ], [ 17.286910380460004, 52.944451378288868 ], [ 17.286956646631239, 52.944437206375589 ], [ 17.287028385895798, 52.944415127843207 ], [ 17.287325768204369, 52.944330470949545 ], [ 17.287450560732001, 52.944295756849293 ], [ 17.287599988493831, 52.944489198224311 ], [ 17.28767960684775, 52.944508871880799 ], [ 17.287742774651544, 52.944594499181072 ], [ 17.287808639467606, 52.944577911375191 ], [ 17.287871837969888, 52.944542129361864 ], [ 17.288278306094966, 52.944541510589559 ], [ 17.288448942361743, 52.94461267759236 ], [ 17.288968056771566, 52.944545599713024 ], [ 17.289429404678387, 52.944486051720673 ], [ 17.290180417937698, 52.944405219617714 ], [ 17.291136401171176, 52.944408360585797 ], [ 17.290306513108938, 52.944129770438778 ], [ 17.290187951390511, 52.944165116785328 ], [ 17.290161150127943, 52.944187843904473 ], [ 17.28988604944216, 52.944073896584555 ], [ 17.289476513537892, 52.943899556811992 ], [ 17.288815022665862, 52.943624819215607 ], [ 17.288561312426136, 52.943516033223773 ], [ 17.288395863131875, 52.94344557059766 ], [ 17.288263554938109, 52.94339168322 ], [ 17.287871634736359, 52.94322775403964 ], [ 17.28750124539097, 52.943072857384927 ], [ 17.287655030627182, 52.942948537899802 ], [ 17.286919227401469, 52.942641152010175 ], [ 17.286779070031958, 52.942582563185248 ], [ 17.286626009819326, 52.942707341671635 ] ] ], [ [ [ 17.298373735176671, 52.94402560207017 ], [ 17.298429346924539, 52.944034942127111 ], [ 17.298523933677508, 52.944052664459576 ], [ 17.298703729140481, 52.944084287365193 ], [ 17.298759153447275, 52.944094613845436 ], [ 17.298721645659494, 52.944170250021223 ], [ 17.298677593368065, 52.944260901214157 ], [ 17.298646918982545, 52.944253447218451 ], [ 17.298632335197837, 52.944283635734209 ], [ 17.298580804061295, 52.944272735414337 ], [ 17.298529124155429, 52.944261832941535 ], [ 17.298504059216974, 52.944365616384182 ], [ 17.298675418413204, 52.94444532258219 ], [ 17.298851798170777, 52.944484360778027 ], [ 17.299078903789898, 52.944524484612401 ], [ 17.299164743231081, 52.944514741584982 ], [ 17.299165712162377, 52.944524198415294 ], [ 17.299167302366182, 52.944540588976515 ], [ 17.299169861503994, 52.944566436367886 ], [ 17.299196283136784, 52.94462158374975 ], [ 17.299247236625739, 52.944685176240718 ], [ 17.299264699516279, 52.94470683024489 ], [ 17.299275915040937, 52.944720750522706 ], [ 17.299297013986703, 52.944748392141946 ], [ 17.299325324373036, 52.944785759802386 ], [ 17.299414373527014, 52.944902957924036 ], [ 17.29946780071122, 52.944949048793831 ], [ 17.299444018086728, 52.945023982289449 ], [ 17.299331791237549, 52.945410346741802 ], [ 17.299224390320013, 52.945392801386731 ], [ 17.299167729130634, 52.945580939435992 ], [ 17.299283855398286, 52.945592404356844 ], [ 17.299408506378366, 52.945606689161728 ], [ 17.299324392183017, 52.945758371246498 ], [ 17.299312278660295, 52.945755949539972 ], [ 17.299294206812906, 52.945795351297235 ], [ 17.299276006594656, 52.945849410282904 ], [ 17.299237237180964, 52.945964778903978 ], [ 17.299307130215158, 52.945978279998968 ], [ 17.299569983375914, 52.946029616511069 ], [ 17.299652801233222, 52.946043841965626 ], [ 17.299764067764105, 52.946053977802258 ], [ 17.300017731363539, 52.946138457001034 ], [ 17.300844190706712, 52.946328525508143 ], [ 17.301083787933646, 52.946376918021109 ], [ 17.301107378322598, 52.946306837854031 ], [ 17.301163448198928, 52.946198191182759 ], [ 17.301203813357422, 52.946155960236368 ], [ 17.301230087150653, 52.946078184179662 ], [ 17.301238842712124, 52.946052318747455 ], [ 17.301252933120498, 52.946023292001499 ], [ 17.301318910288682, 52.945893562732792 ], [ 17.301333983217251, 52.945869856065265 ], [ 17.301409836271144, 52.945750250486356 ], [ 17.301439296873845, 52.945697521288821 ], [ 17.301495354623214, 52.945604342748027 ], [ 17.301517535271547, 52.945555016848395 ], [ 17.30154231499013, 52.945500152256407 ], [ 17.301634832097442, 52.945350387413221 ], [ 17.30164648515926, 52.945353162032916 ], [ 17.301705834872042, 52.945251936485235 ], [ 17.301731700786323, 52.945207339731027 ], [ 17.301795867987259, 52.94510474406794 ], [ 17.301859753235476, 52.945009338973954 ], [ 17.301931191701303, 52.944914941120672 ], [ 17.301690851098325, 52.944840099358778 ], [ 17.301687904228004, 52.944843114957365 ], [ 17.301565520784038, 52.94480898977146 ], [ 17.301527855421003, 52.944786147997029 ], [ 17.301329727187596, 52.944720722327979 ], [ 17.301167866443222, 52.944668225618024 ], [ 17.300950932804241, 52.944596414992873 ], [ 17.300934620637136, 52.94459096562413 ], [ 17.300906878434734, 52.9445808561577 ], [ 17.300879132722827, 52.944570836567479 ], [ 17.300807382888628, 52.944547776938784 ], [ 17.300594819232693, 52.944478456338196 ], [ 17.300459284793153, 52.94443424928096 ], [ 17.300421516260144, 52.944421658028411 ], [ 17.300323920570666, 52.944389504904322 ], [ 17.30019498736829, 52.944347820160999 ], [ 17.300017395040268, 52.944290330359706 ], [ 17.299837238414572, 52.944233702926375 ], [ 17.299647742655868, 52.944172265054114 ], [ 17.2994836322213, 52.944116496238507 ], [ 17.29944011059694, 52.944102563269816 ], [ 17.299386630302941, 52.944088217949599 ], [ 17.299451969452619, 52.943925475134513 ], [ 17.299495252457262, 52.943824020696333 ], [ 17.299535074217413, 52.943723505968535 ], [ 17.299572442540658, 52.943632399076151 ], [ 17.299592731586568, 52.943506063824799 ], [ 17.299604457313073, 52.943431047674487 ], [ 17.299588975862022, 52.943286753503607 ], [ 17.299447981211181, 52.943268008075911 ], [ 17.299369583117684, 52.943255104761768 ], [ 17.299266339582672, 52.943237978642998 ], [ 17.299016188303952, 52.943197255398069 ], [ 17.299009088600091, 52.943196074562053 ], [ 17.298925805322103, 52.943182471485201 ], [ 17.29889089847314, 52.943176665677775 ], [ 17.298661310063743, 52.943139293802261 ], [ 17.298571692450974, 52.943123980979848 ], [ 17.298321290788952, 52.943082083548326 ], [ 17.298103869013204, 52.943045784168142 ], [ 17.298045183984406, 52.943038918050377 ], [ 17.298000821761512, 52.943031267810959 ], [ 17.297866112598598, 52.943007934017153 ], [ 17.297719650174923, 52.943014739100214 ], [ 17.297524745011586, 52.943136773525396 ], [ 17.297291901553145, 52.943390825199472 ], [ 17.297132040813349, 52.943560576015344 ], [ 17.296924488669401, 52.94374295312091 ], [ 17.296779389210844, 52.943870376744471 ], [ 17.29676657977377, 52.943878107226176 ], [ 17.297087831371613, 52.944174454534014 ], [ 17.297537377173263, 52.944107961013884 ], [ 17.297706013284362, 52.944074943589079 ], [ 17.297902837825031, 52.944036843827114 ], [ 17.298031608795117, 52.944014316610186 ], [ 17.298172502118891, 52.944009140082976 ], [ 17.298289341928076, 52.944013691387532 ], [ 17.298330502274258, 52.944019496995594 ], [ 17.298373735176671, 52.94402560207017 ] ] ], [ [ [ 17.296470121814757, 52.944477847144022 ], [ 17.296075992100082, 52.944592615992512 ], [ 17.295916051782555, 52.944639155852244 ], [ 17.295786833137914, 52.944676783114076 ], [ 17.295421916364106, 52.944783065443403 ], [ 17.295594159784809, 52.944991662774974 ], [ 17.29585188375388, 52.944919456012101 ], [ 17.295856148778675, 52.944947306477893 ], [ 17.295940774619112, 52.944938177896383 ], [ 17.29597345107479, 52.944917422343416 ], [ 17.296175387285217, 52.94485925373526 ], [ 17.296284703515976, 52.944827995715208 ], [ 17.296980715775575, 52.944638682216507 ], [ 17.296981615663199, 52.944665045478423 ], [ 17.297016106059235, 52.94498848915395 ], [ 17.297057010598198, 52.945372279820702 ], [ 17.297061384584687, 52.945465603000329 ], [ 17.297061217182566, 52.94548502612254 ], [ 17.297106248061517, 52.945494664804002 ], [ 17.29743439213139, 52.945339106717995 ], [ 17.297516725519493, 52.945301165613543 ], [ 17.297656827633464, 52.945236622579266 ], [ 17.297906742776572, 52.945128146441903 ], [ 17.297960785449291, 52.945109225280845 ], [ 17.297657497992965, 52.944794881442071 ], [ 17.297565796503989, 52.944699857412452 ], [ 17.29745492610736, 52.944584953248643 ], [ 17.297393825451191, 52.944522023963643 ], [ 17.297372214378214, 52.944496083385154 ], [ 17.297172679589902, 52.944273337787692 ], [ 17.296765754062385, 52.944391792640943 ], [ 17.296470121814757, 52.944477847144022 ] ] ], [ [ [ 17.294922496824444, 52.946079568385841 ], [ 17.295071161149924, 52.94624798773976 ], [ 17.296045973702221, 52.945932186992096 ], [ 17.296075399727254, 52.945922176753569 ], [ 17.296072143104269, 52.945853511190791 ], [ 17.296058105717488, 52.945786399751185 ], [ 17.296038549903102, 52.945730900457697 ], [ 17.296004936388478, 52.945741390231404 ], [ 17.294922496824444, 52.946079568385841 ] ] ], [ [ [ 17.298406301188745, 52.946970203516493 ], [ 17.298411183872432, 52.94684580626096 ], [ 17.298405275267481, 52.946745986021483 ], [ 17.297587256775262, 52.947095529210756 ], [ 17.29779527621243, 52.947239074622331 ], [ 17.297984434764228, 52.947138721176529 ], [ 17.298106874387869, 52.947080489698813 ], [ 17.298406301188745, 52.946970203516493 ] ] ], [ [ [ 17.280871089818639, 52.948103662001493 ], [ 17.280420989471008, 52.948212443302474 ], [ 17.28052024876196, 52.948382684247029 ], [ 17.279991683505443, 52.948517578184557 ], [ 17.280153266623252, 52.94880572460368 ], [ 17.280517061028249, 52.948752083451907 ], [ 17.28059778068954, 52.948879247846612 ], [ 17.281170112929484, 52.948759643426662 ], [ 17.280871089818639, 52.948103662001493 ] ] ], [ [ [ 17.298826388684365, 52.951502271524184 ], [ 17.298762240366003, 52.951524286007654 ], [ 17.298403023771886, 52.95156752642918 ], [ 17.298186670209144, 52.951563618640584 ], [ 17.298159904612014, 52.95168023796829 ], [ 17.298151450173123, 52.951724903451733 ], [ 17.298126849693489, 52.951866015519357 ], [ 17.298531758683154, 52.951895466416183 ], [ 17.298593722779106, 52.951902559026792 ], [ 17.298946177870903, 52.951800225266695 ], [ 17.298934169556066, 52.951480162177624 ], [ 17.298903092100311, 52.951486642111604 ], [ 17.298826388684365, 52.951502271524184 ] ] ], [ [ [ 17.280122507709031, 52.953318662424095 ], [ 17.280000428779044, 52.953505575021573 ], [ 17.280672284922851, 52.953664047356298 ], [ 17.281108253280543, 52.953901752368381 ], [ 17.281139800251083, 52.953921094644166 ], [ 17.281355322358735, 52.953976283232002 ], [ 17.281571599853265, 52.954031212549779 ], [ 17.282181586380414, 52.954135451218143 ], [ 17.282224341703468, 52.954056118820496 ], [ 17.282252740528989, 52.953967045972661 ], [ 17.282298648132723, 52.953808168373584 ], [ 17.282052947276977, 52.95377799624751 ], [ 17.282174492448057, 52.95337892181869 ], [ 17.281280393980229, 52.953274710902747 ], [ 17.280756072578068, 52.953308675041718 ], [ 17.280169641532062, 52.953241642437838 ], [ 17.280122507709031, 52.953318662424095 ] ], [ [ 17.281407663276877, 52.953839262802937 ], [ 17.281475194334515, 52.953844915993415 ], [ 17.281555826624764, 52.953846891489569 ], [ 17.281649168978529, 52.9538512990556 ], [ 17.281692473312066, 52.953855792384431 ], [ 17.281713895639705, 52.953863836401098 ], [ 17.281711539770427, 52.95389321044194 ], [ 17.281701323707971, 52.953925528545362 ], [ 17.281658415246742, 52.953941096015022 ], [ 17.281584670591407, 52.953926899366294 ], [ 17.281531004441351, 52.953924594407979 ], [ 17.281485808200266, 52.953934013282698 ], [ 17.281425867205943, 52.953928469872068 ], [ 17.2814055428546, 52.953922779942637 ], [ 17.281386743291087, 52.953912435543955 ], [ 17.281368186100384, 52.953895979200006 ], [ 17.281363952858822, 52.953875053505257 ], [ 17.281379103673078, 52.953849731646116 ], [ 17.281407663276877, 52.953839262802937 ] ] ], [ [ [ 17.288966678882137, 52.959702704629137 ], [ 17.289057390111264, 52.959721277797492 ], [ 17.28913043503956, 52.959730873067706 ], [ 17.289233065864796, 52.9597304620046 ], [ 17.289298779389409, 52.959718277805202 ], [ 17.2893700366456, 52.9596863881399 ], [ 17.28942404856458, 52.959657487779026 ], [ 17.289473887918355, 52.959655057530455 ], [ 17.289515448896893, 52.959485053099364 ], [ 17.289475707272349, 52.959393918658542 ], [ 17.289229620706809, 52.959323556081408 ], [ 17.288949374812567, 52.959250812558359 ], [ 17.288722879289736, 52.959600807499001 ], [ 17.288873480361115, 52.959675462019909 ], [ 17.288966678882137, 52.959702704629137 ] ] ], [ [ [ 17.27818916894774, 52.960467231806554 ], [ 17.278037564761306, 52.960433198836199 ], [ 17.277823745368369, 52.960667973151075 ], [ 17.277740136519238, 52.960770544149675 ], [ 17.278336768216441, 52.960958156125429 ], [ 17.278673193507704, 52.960580094977473 ], [ 17.27818916894774, 52.960467231806554 ] ] ], [ [ [ 17.294036913241584, 52.961976794412685 ], [ 17.29402331297964, 52.962261686080616 ], [ 17.294485141352293, 52.962255094793107 ], [ 17.294483696934027, 52.961917196638744 ], [ 17.294939560589732, 52.961914475046029 ], [ 17.2949688055465, 52.961716323085795 ], [ 17.294719671306222, 52.961711489309309 ], [ 17.294482729111049, 52.96170718971721 ], [ 17.294159745358627, 52.961705521724504 ], [ 17.294152710475707, 52.961884207110678 ], [ 17.294146676836963, 52.961976931129009 ], [ 17.294036913241584, 52.961976794412685 ] ] ], [ [ [ 17.277238511421551, 52.962523801591949 ], [ 17.276915590152765, 52.962460483555461 ], [ 17.276494451932287, 52.962439987273932 ], [ 17.276310845160975, 52.96247644514623 ], [ 17.276098778861293, 52.962400883040615 ], [ 17.275885810594868, 52.962666153557066 ], [ 17.276340999654543, 52.96278921982023 ], [ 17.276220716499225, 52.963045942578056 ], [ 17.276747112814306, 52.963165093783807 ], [ 17.276808799599422, 52.963179478218478 ], [ 17.276882008602389, 52.963016501977414 ], [ 17.276898046743277, 52.962983998916314 ], [ 17.276980850680069, 52.96283815906952 ], [ 17.277085776393957, 52.962705320438715 ], [ 17.27714929813223, 52.962624852002712 ], [ 17.277173358649403, 52.962596602125579 ], [ 17.277238511421551, 52.962523801591949 ] ] ], [ [ [ 17.28438772731494, 52.963359369907593 ], [ 17.284592650116398, 52.963390117331016 ], [ 17.284691830557168, 52.963006816052086 ], [ 17.284022370898164, 52.962866568718901 ], [ 17.283893962681955, 52.963006178943523 ], [ 17.28371135019351, 52.96313043709177 ], [ 17.283819848051426, 52.963207727474909 ], [ 17.283784263362058, 52.963267558556723 ], [ 17.284036989356672, 52.963306012047703 ], [ 17.28438772731494, 52.963359369907593 ] ] ], [ [ [ 17.287589846913129, 52.965789385455011 ], [ 17.287647733553221, 52.965755073451469 ], [ 17.287915104075484, 52.965562872057738 ], [ 17.288335535081668, 52.965260558833322 ], [ 17.287192728325959, 52.964759255567813 ], [ 17.287129497856657, 52.964810145548668 ], [ 17.286449179044148, 52.965406755214133 ], [ 17.286613586501161, 52.965460387354717 ], [ 17.287394575315908, 52.965715812140473 ], [ 17.287589846913129, 52.965789385455011 ] ] ], [ [ [ 17.27349773636276, 52.967399731002097 ], [ 17.273558468145442, 52.967284959467371 ], [ 17.27310451074305, 52.967249585422486 ], [ 17.272851225255781, 52.967434044502689 ], [ 17.272665321201316, 52.967407960057251 ], [ 17.272597378554941, 52.967583960630449 ], [ 17.272783283318997, 52.967610045187342 ], [ 17.272829443622097, 52.967621687869588 ], [ 17.27278280470712, 52.9677079752407 ], [ 17.272733627856226, 52.967801870010291 ], [ 17.273065583990007, 52.967886015020781 ], [ 17.27311417224491, 52.967799396136662 ], [ 17.273334632671556, 52.967848015509084 ], [ 17.273404596933624, 52.967722136570032 ], [ 17.273540362378768, 52.967742994842311 ], [ 17.273607385601977, 52.967578761618931 ], [ 17.273629629176149, 52.96752521489239 ], [ 17.273437149543224, 52.967514594544717 ], [ 17.27349773636276, 52.967399731002097 ] ] ], [ [ [ 17.301605356138609, 52.940652768303721 ], [ 17.301581188155158, 52.940661685924994 ], [ 17.301364519427857, 52.940773612760303 ], [ 17.301307843437669, 52.94080293001732 ], [ 17.301212738004413, 52.940874595823914 ], [ 17.301074212662989, 52.940979185700222 ], [ 17.30100625491243, 52.941030465009305 ], [ 17.300891377593405, 52.941116596838633 ], [ 17.300811457212127, 52.941218607031963 ], [ 17.300712252575419, 52.941391028691349 ], [ 17.30060353542202, 52.941627616290987 ], [ 17.300526929691276, 52.941861515447883 ], [ 17.300494288845826, 52.941976432570328 ], [ 17.300460508150643, 52.942063454156447 ], [ 17.300285198514764, 52.9424530541446 ], [ 17.301100775156296, 52.942573357605944 ], [ 17.301408504106263, 52.942618766738043 ], [ 17.301530124994972, 52.942117330483434 ], [ 17.301552374654989, 52.942024388062734 ], [ 17.301618458673826, 52.942028570295967 ], [ 17.301815966870191, 52.942041106142938 ], [ 17.301998479242428, 52.942052617957472 ], [ 17.302163391483354, 52.942061180002099 ], [ 17.302172519052217, 52.942193062206059 ], [ 17.302191677762529, 52.942650465144993 ], [ 17.302554413315942, 52.942637031759048 ], [ 17.30256048143837, 52.9427292097795 ], [ 17.302913240256149, 52.942529471587982 ], [ 17.303525502771556, 52.942409071499284 ], [ 17.303448649928853, 52.942075132364671 ], [ 17.303440492020762, 52.942040121898955 ], [ 17.303359329411027, 52.941694609723392 ], [ 17.30394636668187, 52.941609820490868 ], [ 17.303988711087619, 52.941219936124682 ], [ 17.304633290678428, 52.941266187799421 ], [ 17.304854131183287, 52.941279681070156 ], [ 17.30491739592641, 52.941188402412813 ], [ 17.304964951692352, 52.941137189566618 ], [ 17.305258135785582, 52.940910873763656 ], [ 17.305274699846265, 52.940833677777867 ], [ 17.305341673549432, 52.940521756386737 ], [ 17.305704195448648, 52.940528545353445 ], [ 17.305845590157368, 52.940533079702384 ], [ 17.306094900763398, 52.9405341162309 ], [ 17.306264810165192, 52.940532761302727 ], [ 17.306301758467391, 52.940524384652058 ], [ 17.306341036806341, 52.940513523082387 ], [ 17.306363551753197, 52.940501163484534 ], [ 17.306373441167828, 52.940488084314559 ], [ 17.306391415688488, 52.940458572734812 ], [ 17.306423643223535, 52.940384297856724 ], [ 17.306450219811296, 52.940347984047747 ], [ 17.306466808720259, 52.940327266132591 ], [ 17.306508315882375, 52.940308881912323 ], [ 17.306561206914015, 52.940296325706349 ], [ 17.306630562858011, 52.940292907501608 ], [ 17.306898149867607, 52.940310031026812 ], [ 17.306970531986945, 52.940309173868641 ], [ 17.30701605884169, 52.94029840111584 ], [ 17.307042935917025, 52.940281067303893 ], [ 17.307059947048121, 52.940234274778319 ], [ 17.307182896858205, 52.940242231971119 ], [ 17.307317569386072, 52.940186323812277 ], [ 17.307517253682782, 52.940200140286144 ], [ 17.307704054875092, 52.939258595443071 ], [ 17.307113556389851, 52.93841875323178 ], [ 17.306807329080538, 52.938541374844114 ], [ 17.30664915353864, 52.938604591737715 ], [ 17.306025960226808, 52.938853995484386 ], [ 17.305646135281791, 52.939008480238222 ], [ 17.304953631469811, 52.939290345027302 ], [ 17.304180931869396, 52.93961279009789 ], [ 17.303797510264605, 52.939759933097037 ], [ 17.303525322585738, 52.939864326235856 ], [ 17.302614859857428, 52.94025629079065 ], [ 17.302189442202533, 52.940430168304445 ], [ 17.301818468348866, 52.940574605001231 ], [ 17.301605356138609, 52.940652768303721 ] ] ], [ [ [ 17.30085642839806, 52.944151064670805 ], [ 17.300831526180662, 52.944212852216246 ], [ 17.300801678544545, 52.94426026969515 ], [ 17.300769155351986, 52.94428858311997 ], [ 17.300725453962794, 52.944313409152322 ], [ 17.300630845608996, 52.944349378239174 ], [ 17.300784385697124, 52.944431794302083 ], [ 17.300898454047633, 52.944488104766847 ], [ 17.301072302934347, 52.944542392058437 ], [ 17.30116498131563, 52.944570876937505 ], [ 17.301293699537169, 52.944610489085804 ], [ 17.301480913906747, 52.944669463500119 ], [ 17.301547703789797, 52.944689933695976 ], [ 17.301576685888918, 52.944698801673759 ], [ 17.301627588827511, 52.944714368217987 ], [ 17.301838868019644, 52.944778542416536 ], [ 17.301972781328921, 52.944818587800341 ], [ 17.302052084784581, 52.944838876807964 ], [ 17.302119964465888, 52.944865747488649 ], [ 17.302096752887486, 52.944911011786665 ], [ 17.302068385460181, 52.944966274888706 ], [ 17.301831381430063, 52.945349779224571 ], [ 17.301777207995194, 52.945436689549084 ], [ 17.301747533961617, 52.94548348020637 ], [ 17.30271125450917, 52.94570409619179 ], [ 17.302572383981047, 52.945916062754641 ], [ 17.302435572068251, 52.945889106868528 ], [ 17.302343795443576, 52.946046617121759 ], [ 17.302295945744508, 52.946131729432949 ], [ 17.302203521995146, 52.946298133688401 ], [ 17.302163625829444, 52.94637022939029 ], [ 17.302859787187714, 52.94652316817826 ], [ 17.303215285315495, 52.94660037148293 ], [ 17.303753254461725, 52.946717321032374 ], [ 17.304195369408141, 52.946814553833036 ], [ 17.304417315771296, 52.946865205784988 ], [ 17.304467946113363, 52.946777434342586 ], [ 17.305177505913178, 52.945982478502373 ], [ 17.305226972908059, 52.945920590810019 ], [ 17.305553729838209, 52.945963652356475 ], [ 17.305513473933889, 52.946033675565481 ], [ 17.305436782515638, 52.946232142849318 ], [ 17.305428499171882, 52.946253608599989 ], [ 17.305414025001337, 52.946292522964157 ], [ 17.305258905177119, 52.946280597830089 ], [ 17.30520785313248, 52.946470617241943 ], [ 17.3051749853134, 52.946667730902035 ], [ 17.305225601131269, 52.946671690444539 ], [ 17.305097391105164, 52.946953959545752 ], [ 17.305073443364794, 52.947006678324058 ], [ 17.304619512572227, 52.946910719151944 ], [ 17.30458492879087, 52.946965084733122 ], [ 17.304539506677841, 52.947041509066977 ], [ 17.304498937623148, 52.947104242907223 ], [ 17.304775290287456, 52.947160976545426 ], [ 17.30510511096659, 52.947228724572803 ], [ 17.305712616575214, 52.947353491916658 ], [ 17.305821221608692, 52.947378512947417 ], [ 17.306432875280876, 52.947519163899585 ], [ 17.306634298161352, 52.947565562098113 ], [ 17.306540671732719, 52.947469618433509 ], [ 17.306558333224306, 52.94731860313879 ], [ 17.306604322966585, 52.947273302902865 ], [ 17.30667787448516, 52.947200875991555 ], [ 17.306753568137275, 52.946829632782105 ], [ 17.306841910597932, 52.946835927904786 ], [ 17.307099028284053, 52.946859106892632 ], [ 17.307438837153775, 52.94689605385188 ], [ 17.307495582171406, 52.946682012646498 ], [ 17.308114438403422, 52.946832560252155 ], [ 17.308223009684728, 52.946591377488652 ], [ 17.308301098374656, 52.946417839774057 ], [ 17.3083344019945, 52.946346547542468 ], [ 17.308872695641895, 52.946432541579284 ], [ 17.30882616329006, 52.946503285940636 ], [ 17.308621153430192, 52.946957226506854 ], [ 17.308772311752172, 52.946994451892337 ], [ 17.308875890294864, 52.947010944899027 ], [ 17.308951443985556, 52.947001587990123 ], [ 17.309047768919331, 52.946963568271862 ], [ 17.309078637125019, 52.946916523039185 ], [ 17.30919287707782, 52.946713101936368 ], [ 17.309239932092311, 52.946613676310328 ], [ 17.309257000807609, 52.946576866875333 ], [ 17.309425871860892, 52.94660274214494 ], [ 17.30950727274297, 52.946615231817006 ], [ 17.309463355034133, 52.946725853848193 ], [ 17.310447193577367, 52.94687510635228 ], [ 17.310505311724306, 52.946778265738729 ], [ 17.31053242332111, 52.946716777477683 ], [ 17.310571165046106, 52.946723623619697 ], [ 17.310899682442653, 52.946779106138756 ], [ 17.310902198123909, 52.946779501631546 ], [ 17.310965062155351, 52.946790107997778 ], [ 17.311220156453096, 52.946830876113935 ], [ 17.311583545067801, 52.946885593284414 ], [ 17.31213724870365, 52.946947059901767 ], [ 17.31250029805307, 52.946999071451792 ], [ 17.312946855337142, 52.947063059510647 ], [ 17.312902074496364, 52.947138686662008 ], [ 17.312797725267227, 52.947314102713811 ], [ 17.312749938143433, 52.947394273690385 ], [ 17.312668600595149, 52.947521632573185 ], [ 17.312550174222903, 52.947706741107012 ], [ 17.312500234535566, 52.947784812961061 ], [ 17.312423657194561, 52.947904594998192 ], [ 17.312295416085377, 52.948093161195253 ], [ 17.312259720412165, 52.948145714500384 ], [ 17.311752630634683, 52.94802240760594 ], [ 17.310785829609689, 52.947813423186659 ], [ 17.310438523444056, 52.947743194072004 ], [ 17.310390748846675, 52.947830558923144 ], [ 17.310081393108995, 52.947753134179059 ], [ 17.310026929184922, 52.947752359566174 ], [ 17.309812788478961, 52.947852556535047 ], [ 17.308560601439339, 52.947578069990833 ], [ 17.307939652639977, 52.947435049358241 ], [ 17.307965425819077, 52.947392698292454 ], [ 17.307794676936215, 52.947353843895698 ], [ 17.307767609962827, 52.947395007373117 ], [ 17.307719052410672, 52.947384063476136 ], [ 17.307440576611853, 52.947320561517081 ], [ 17.307382495108648, 52.947412454886525 ], [ 17.307373136429387, 52.947427160485319 ], [ 17.307350106457157, 52.947464064602407 ], [ 17.308124134683826, 52.947637057321693 ], [ 17.309566956834242, 52.9479674109797 ], [ 17.309856562155719, 52.948032055471465 ], [ 17.309824357412193, 52.948101924810388 ], [ 17.310001291951298, 52.948112085747987 ], [ 17.310094639160372, 52.948123755646492 ], [ 17.310166671574233, 52.948136021672674 ], [ 17.31021607625955, 52.94814436855583 ], [ 17.310435767822181, 52.948192099252957 ], [ 17.311100246364056, 52.94834570796133 ], [ 17.311491575043178, 52.948432658641153 ], [ 17.311578669853901, 52.948451972733629 ], [ 17.311984745240885, 52.948550282978132 ], [ 17.311853881343282, 52.948752571151999 ], [ 17.311950889682112, 52.94877733184002 ], [ 17.312500202635867, 52.948902496524376 ], [ 17.312974743773715, 52.949005462892153 ], [ 17.31309848379053, 52.948821598523359 ], [ 17.313148859585535, 52.948743802418861 ], [ 17.313470770236382, 52.948227121877792 ], [ 17.313397423440978, 52.948210342569183 ], [ 17.3134530471388, 52.948108608788488 ], [ 17.313548278867124, 52.948048896132754 ], [ 17.313650253888468, 52.948018687104693 ], [ 17.313899847985752, 52.948078616940954 ], [ 17.313869606117578, 52.948163264155831 ], [ 17.313866057762016, 52.948227695562792 ], [ 17.31390808847021, 52.948280183162765 ], [ 17.313972660197585, 52.948312036270082 ], [ 17.314153177674772, 52.948360283389007 ], [ 17.314499497875278, 52.948440829844365 ], [ 17.314711048791253, 52.948498959245477 ], [ 17.314287283559189, 52.949291910292523 ], [ 17.314891633590371, 52.949426478141852 ], [ 17.315211533634539, 52.948781070836553 ], [ 17.315248367191899, 52.948702991916647 ], [ 17.315668686959704, 52.948783684790726 ], [ 17.31583439311618, 52.94854258578679 ], [ 17.315839547573546, 52.9484788965677 ], [ 17.315865588236015, 52.948383487341729 ], [ 17.316044046109766, 52.948067025320512 ], [ 17.316097102620098, 52.947985219014051 ], [ 17.315898156647414, 52.947805771652277 ], [ 17.315730960210963, 52.947686759099668 ], [ 17.315712266757561, 52.947673543814894 ], [ 17.315625271935364, 52.947624826175854 ], [ 17.315539708141614, 52.947581434787942 ], [ 17.315427732118401, 52.947539557473419 ], [ 17.315282435865782, 52.947481559333745 ], [ 17.315044054203305, 52.947397509553596 ], [ 17.315165210279535, 52.947364063857698 ], [ 17.315269038150536, 52.947351236739429 ], [ 17.315361191946458, 52.947351464126463 ], [ 17.315510668842492, 52.947359338988633 ], [ 17.31552472148601, 52.947323385257292 ], [ 17.315655872191659, 52.947002026280174 ], [ 17.315725981095255, 52.946833856650358 ], [ 17.315657298385993, 52.946823530060037 ], [ 17.315744655299703, 52.946613786200444 ], [ 17.315754080017722, 52.946589637959377 ], [ 17.315299207617059, 52.946525092885963 ], [ 17.31546468110075, 52.946140368491065 ], [ 17.315597508153246, 52.945844754065241 ], [ 17.31561983571444, 52.945795067982942 ], [ 17.315410876019147, 52.945762517736945 ], [ 17.3151008403105, 52.94571423457225 ], [ 17.314307430118959, 52.945599558475301 ], [ 17.31425100237518, 52.945591923033298 ], [ 17.314116874218868, 52.945901636996688 ], [ 17.314550776856684, 52.94599601667101 ], [ 17.314445084028069, 52.946244530401707 ], [ 17.313943637849853, 52.946171765056221 ], [ 17.313893448686038, 52.946164487772528 ], [ 17.313512817390748, 52.946105306069761 ], [ 17.313553461779772, 52.946009654908224 ], [ 17.313576787517665, 52.945953508205584 ], [ 17.313617501542154, 52.945856059354874 ], [ 17.313630137561283, 52.94582593135592 ], [ 17.313638966527616, 52.945805641926782 ], [ 17.313739203078185, 52.945563526599265 ], [ 17.313759696527413, 52.945518940990205 ], [ 17.313359944128674, 52.945461555848638 ], [ 17.312884246310972, 52.945393108492681 ], [ 17.312500290129844, 52.945335405135602 ], [ 17.312267756336595, 52.945300446068657 ], [ 17.312126843822018, 52.945279288752488 ], [ 17.312149976696972, 52.945224308701341 ], [ 17.312286663351927, 52.944898894957724 ], [ 17.312309141135376, 52.944845434427165 ], [ 17.312330125726668, 52.94479590972589 ], [ 17.312096359083593, 52.944762101917171 ], [ 17.311865652775438, 52.944726178739231 ], [ 17.311708936423475, 52.94470182859375 ], [ 17.311611946679065, 52.944936793810193 ], [ 17.310994419214676, 52.944840422727175 ], [ 17.311040307407389, 52.94472874894916 ], [ 17.310421081043103, 52.944626415141592 ], [ 17.310038444380083, 52.944573309095276 ], [ 17.309913156496854, 52.944873251650279 ], [ 17.309887543736199, 52.944934491307322 ], [ 17.309750799997097, 52.94491339045463 ], [ 17.309646765684509, 52.944897251424301 ], [ 17.309672676357945, 52.944836016055071 ], [ 17.309914321237624, 52.944266671353127 ], [ 17.31000404096218, 52.944054177186167 ], [ 17.309694981232695, 52.944008052056851 ], [ 17.309648734887706, 52.944025740442157 ], [ 17.309455420245879, 52.944004643807432 ], [ 17.309413600384453, 52.943992807179882 ], [ 17.309363920507476, 52.943984006347968 ], [ 17.30915552601056, 52.944467937312218 ], [ 17.308683079505265, 52.944396731363319 ], [ 17.308567482770986, 52.944379347596204 ], [ 17.308549721828015, 52.944376666572396 ], [ 17.308233113404899, 52.94432557381176 ], [ 17.308243119417803, 52.944301884076552 ], [ 17.308278488073022, 52.944215782329792 ], [ 17.307976390644182, 52.944151495485983 ], [ 17.307961031615708, 52.944148308980616 ], [ 17.307732764688442, 52.944099642004097 ], [ 17.307377925835858, 52.94404782257191 ], [ 17.307363863941806, 52.94404573366149 ], [ 17.307030492527307, 52.943997006920775 ], [ 17.306583655948931, 52.943929754778573 ], [ 17.306458621217367, 52.944356053139799 ], [ 17.306533070662997, 52.944451094106753 ], [ 17.30659482139318, 52.944451974200298 ], [ 17.306663702493939, 52.944449448498929 ], [ 17.30673850523301, 52.944451593722277 ], [ 17.306816606679323, 52.944464577849068 ], [ 17.307162170153973, 52.94451761578209 ], [ 17.307527643849866, 52.944567878594597 ], [ 17.30766824006491, 52.94458939662352 ], [ 17.30778366362215, 52.944607408327535 ], [ 17.308339070913558, 52.944693019146669 ], [ 17.308229708571002, 52.944962249835278 ], [ 17.308176449653104, 52.944953577419611 ], [ 17.307689134373412, 52.944874151808818 ], [ 17.307649049475586, 52.944962794260114 ], [ 17.307608971427399, 52.945051256929595 ], [ 17.307577961523506, 52.945136251436146 ], [ 17.307545111187913, 52.945226435823884 ], [ 17.307509123958621, 52.945313068138638 ], [ 17.307472499273178, 52.945400770555999 ], [ 17.307395836877905, 52.945583501229457 ], [ 17.307804471530712, 52.945642022243838 ], [ 17.307893501080422, 52.945653542488849 ], [ 17.30772973830608, 52.945771540359587 ], [ 17.307624772139512, 52.945851704358446 ], [ 17.307574092863003, 52.94590278382173 ], [ 17.307530589751384, 52.945968354734006 ], [ 17.307500014113952, 52.946042203727991 ], [ 17.307459599263844, 52.946143072273038 ], [ 17.307428480801278, 52.946215564523406 ], [ 17.306607839330944, 52.946104585938627 ], [ 17.306634300563459, 52.946033196648457 ], [ 17.306812874129697, 52.945467455834226 ], [ 17.30611114247424, 52.945438118438716 ], [ 17.306116671455506, 52.945403303312034 ], [ 17.306151460038432, 52.945172132213578 ], [ 17.306190426464628, 52.944914040797563 ], [ 17.306204095357209, 52.944834735002956 ], [ 17.306135182913607, 52.94483042509713 ], [ 17.305507929135985, 52.9448042142525 ], [ 17.305505271944334, 52.945135039384184 ], [ 17.305277116926764, 52.945121533059023 ], [ 17.305173982023383, 52.945844111498801 ], [ 17.305162393966278, 52.945912025383635 ], [ 17.304817862470777, 52.945866640713731 ], [ 17.30450852971639, 52.945819688856389 ], [ 17.304539151267509, 52.945752406354451 ], [ 17.304595825777927, 52.945624251305219 ], [ 17.304660613629927, 52.945475167699556 ], [ 17.304734228193404, 52.945309752278526 ], [ 17.30444272380462, 52.94526386398433 ], [ 17.304550501705446, 52.945028159002433 ], [ 17.304268156979475, 52.944980332509765 ], [ 17.304227781474655, 52.945068609969425 ], [ 17.303796682502657, 52.944964249850422 ], [ 17.303188878287063, 52.944810060099648 ], [ 17.303216371807576, 52.94473904600045 ], [ 17.303241344826962, 52.944675370399146 ], [ 17.303290511869019, 52.944575527524634 ], [ 17.303348070775364, 52.94448569708041 ], [ 17.303395772320371, 52.944404269481048 ], [ 17.303413959130637, 52.944373232519347 ], [ 17.303524399121514, 52.944168503346809 ], [ 17.302569708319609, 52.943953778429623 ], [ 17.302665789063045, 52.943842105325707 ], [ 17.30242146390589, 52.943739868471205 ], [ 17.302415762990893, 52.943737178965264 ], [ 17.302215746315198, 52.943644028419207 ], [ 17.302365559869394, 52.943521252186457 ], [ 17.302173273867378, 52.943439813361884 ], [ 17.301993878197116, 52.943363774547329 ], [ 17.301992120843408, 52.943363029969454 ], [ 17.301804039009191, 52.943314925806014 ], [ 17.301610207503256, 52.943265390160583 ], [ 17.301448216283998, 52.943223953676871 ], [ 17.301466953361892, 52.943194093996823 ], [ 17.301497145486035, 52.94314164503146 ], [ 17.301512749116576, 52.943119564717165 ], [ 17.30138349542969, 52.94308992767332 ], [ 17.30152580296982, 52.942866140410722 ], [ 17.30130622663097, 52.942759398599513 ], [ 17.301330424808288, 52.942723141843381 ], [ 17.301074612611224, 52.942633148663703 ], [ 17.301022151841615, 52.942718194565778 ], [ 17.300932483002001, 52.942882748706339 ], [ 17.300910882488758, 52.942924888172328 ], [ 17.300884606851437, 52.942972356755689 ], [ 17.300859970025233, 52.942966608459344 ], [ 17.300757990018628, 52.942943835928709 ], [ 17.300578213011637, 52.943386612721007 ], [ 17.300435939424734, 52.943354899832805 ], [ 17.300116573088705, 52.943279643841301 ], [ 17.299830666486262, 52.943212959738439 ], [ 17.299800795808064, 52.943253361874611 ], [ 17.299765133507155, 52.943350338894746 ], [ 17.299753001728046, 52.943466088881998 ], [ 17.299739904873334, 52.943557093491577 ], [ 17.299979105031621, 52.943581020908375 ], [ 17.300221953689409, 52.943618220181229 ], [ 17.300309584956452, 52.943631075142804 ], [ 17.300702613418832, 52.943703427069217 ], [ 17.300786333103055, 52.943728726413703 ], [ 17.300869363337373, 52.943775419879991 ], [ 17.300931349393153, 52.943834852636179 ], [ 17.300918842811519, 52.943956442997177 ], [ 17.300877164275352, 52.944089217540167 ], [ 17.30085642839806, 52.944151064670805 ] ], [ [ 17.313745063295524, 52.946672210764028 ], [ 17.313801187727197, 52.946530733647172 ], [ 17.313837830145356, 52.946438443047754 ], [ 17.314332250445474, 52.946512008473135 ], [ 17.314383838363259, 52.946391421060099 ], [ 17.315289919563643, 52.946534224265477 ], [ 17.31516310259866, 52.946839816161564 ], [ 17.314753559735209, 52.946773483574688 ], [ 17.314548566103891, 52.947243891900349 ], [ 17.314529732490538, 52.947291738756199 ], [ 17.314245065997987, 52.94723787772638 ], [ 17.313961987126579, 52.947196808985289 ], [ 17.313945255842729, 52.947194413187212 ], [ 17.313561308699075, 52.947139861155776 ], [ 17.313587743655496, 52.947072696859728 ], [ 17.313745063295524, 52.946672210764028 ] ] ], [ [ [ 17.301952668913007, 52.946324226886269 ], [ 17.301989209120418, 52.946261796046926 ], [ 17.302014094544695, 52.946219433546901 ], [ 17.302025894503053, 52.946199457203896 ], [ 17.302221551907294, 52.945868152340417 ], [ 17.302251579273488, 52.945804729031295 ], [ 17.302255630169388, 52.945796333219853 ], [ 17.302235800196499, 52.945766641820505 ], [ 17.302195714118728, 52.9457447549417 ], [ 17.301662061704469, 52.9456396411328 ], [ 17.301643466339247, 52.945673459911553 ], [ 17.301527719139976, 52.945872715526988 ], [ 17.301490440828434, 52.945946377292465 ], [ 17.301483988714814, 52.945959055532924 ], [ 17.301387792221451, 52.946198880427353 ], [ 17.301859159631288, 52.946305443533625 ], [ 17.301952668913007, 52.946324226886269 ] ] ], [ [ [ 17.299797171326897, 52.94947316086904 ], [ 17.299781315854236, 52.949528152785859 ], [ 17.300249831685129, 52.949586747002705 ], [ 17.300314732245596, 52.949587225709621 ], [ 17.300506630331576, 52.949584214808269 ], [ 17.300500769300498, 52.949448871943751 ], [ 17.300522841225852, 52.949356826571147 ], [ 17.300527648532267, 52.949336750364424 ], [ 17.300526649719874, 52.949255886426471 ], [ 17.30052582544841, 52.94921234712659 ], [ 17.300525149990282, 52.949168809954791 ], [ 17.300526082216575, 52.949088063566336 ], [ 17.300559104899158, 52.94871288624001 ], [ 17.300580537801636, 52.948470014266199 ], [ 17.30058140002274, 52.948459414517586 ], [ 17.300592726518868, 52.948341404700642 ], [ 17.300640233238923, 52.948151246552804 ], [ 17.300678765600271, 52.947996303662599 ], [ 17.300718504925168, 52.947837151172912 ], [ 17.300761263395074, 52.947665541171972 ], [ 17.300773111335673, 52.947617776374301 ], [ 17.300799179854678, 52.947389539752187 ], [ 17.300805516633346, 52.947334231707146 ], [ 17.300862375165831, 52.947019380324392 ], [ 17.300855615957332, 52.946975306479246 ], [ 17.300924217946339, 52.946736886088942 ], [ 17.300963058127003, 52.946669002539444 ], [ 17.301021560917054, 52.946536288706525 ], [ 17.300163362248615, 52.946342979490126 ], [ 17.300082169127286, 52.946325270257461 ], [ 17.300052201808938, 52.946318726082538 ], [ 17.299940892692906, 52.946294470442808 ], [ 17.299867671654134, 52.94627849391815 ], [ 17.299656427155114, 52.946232303336807 ], [ 17.299389052836514, 52.94616714257829 ], [ 17.299295988255864, 52.946452067067312 ], [ 17.299627061747618, 52.946495116776966 ], [ 17.299784786563489, 52.946516529502318 ], [ 17.299783625087233, 52.946519570601872 ], [ 17.299754496160698, 52.946632109535592 ], [ 17.299706409041228, 52.946818032234944 ], [ 17.299698340765158, 52.946849123501813 ], [ 17.299997740351355, 52.946876070575534 ], [ 17.299926005074035, 52.947099336898596 ], [ 17.299917718925904, 52.947173952589573 ], [ 17.29973381560832, 52.947383382973719 ], [ 17.299732916464208, 52.947387327155454 ], [ 17.299721415160089, 52.947437614939382 ], [ 17.299670269641936, 52.947697688490628 ], [ 17.299289923266482, 52.947760414291849 ], [ 17.299115863857601, 52.947813681233058 ], [ 17.299075175307575, 52.948065180732335 ], [ 17.299387765472613, 52.948086292605808 ], [ 17.299347813806328, 52.948349404070449 ], [ 17.299992221539547, 52.94839882545245 ], [ 17.299935340492116, 52.94866088547375 ], [ 17.299498120672556, 52.948620814345546 ], [ 17.299488016681664, 52.949034001317258 ], [ 17.299470253408472, 52.949137619587361 ], [ 17.299450738176976, 52.949251734928161 ], [ 17.299851790652799, 52.949284004141106 ], [ 17.299797171326897, 52.94947316086904 ] ] ], [ [ [ 17.300044825588948, 52.951397130554639 ], [ 17.300111358828037, 52.951397812579103 ], [ 17.300125372713531, 52.951363209044239 ], [ 17.300253881667064, 52.951002348187124 ], [ 17.299574105613797, 52.950938752563587 ], [ 17.29954047324641, 52.951090077939767 ], [ 17.299493663800536, 52.951376114015559 ], [ 17.299514483799513, 52.951372994518152 ], [ 17.299576292080822, 52.951365065603632 ], [ 17.299622312033136, 52.951361047641299 ], [ 17.29966085644406, 52.951361599198677 ], [ 17.299744904558391, 52.951363701183659 ], [ 17.299909322102646, 52.95138197180033 ], [ 17.300044825588948, 52.951397130554639 ] ] ], [ [ [ 17.300919108068989, 52.951068699647642 ], [ 17.300827133536, 52.951337183000142 ], [ 17.301012908315986, 52.951376621905126 ], [ 17.301238845557247, 52.951424728649734 ], [ 17.301661910200401, 52.951519000216621 ], [ 17.301790447312751, 52.951149504632227 ], [ 17.301354178032625, 52.951092097063039 ], [ 17.301422682205697, 52.95088668046705 ], [ 17.300999798318006, 52.950825955533709 ], [ 17.300939276773786, 52.95100621491261 ], [ 17.300919108068989, 52.951068699647642 ] ] ], [ [ [ 17.302750117258267, 52.951081287169202 ], [ 17.302625752753926, 52.951386271586166 ], [ 17.302201784325746, 52.951322657634435 ], [ 17.302089746974822, 52.951616935765969 ], [ 17.302904057917562, 52.95180070006387 ], [ 17.30334178244556, 52.951897243425094 ], [ 17.30358316146155, 52.951950422528405 ], [ 17.303749771487102, 52.951988864050662 ], [ 17.304105049440164, 52.951189935914599 ], [ 17.303728247510271, 52.951108204610193 ], [ 17.303691936888189, 52.951100041971635 ], [ 17.303236724707933, 52.950997764230053 ], [ 17.303231462871558, 52.951010459553508 ], [ 17.303177346620171, 52.951141438361908 ], [ 17.302750117258267, 52.951081287169202 ] ] ], [ [ [ 17.302291346741136, 52.952332084133047 ], [ 17.302333071363286, 52.952183032060823 ], [ 17.302380245451406, 52.952020298106078 ], [ 17.301300830713764, 52.951845421237032 ], [ 17.300554196992067, 52.95172826481982 ], [ 17.300266052460678, 52.951683044140871 ], [ 17.300101739370387, 52.952167050441197 ], [ 17.300067275112507, 52.952248486217336 ], [ 17.299675664657624, 52.953288172556896 ], [ 17.299591727828027, 52.95346153108602 ], [ 17.299560135752277, 52.953526640036834 ], [ 17.300978601336602, 52.953721939093995 ], [ 17.300949939552495, 52.953841499644305 ], [ 17.300804320683397, 52.954209490940663 ], [ 17.300987489652663, 52.954235942207873 ], [ 17.301364389059771, 52.954292951907178 ], [ 17.301320801407233, 52.954515991677837 ], [ 17.301960377256652, 52.954607511160908 ], [ 17.302287345825413, 52.954654361454359 ], [ 17.302497329432093, 52.954684431049415 ], [ 17.302692358761075, 52.954712308152089 ], [ 17.30287295622767, 52.954264504261637 ], [ 17.303254140835119, 52.95431482419167 ], [ 17.303352518008964, 52.954061359394089 ], [ 17.303064223264901, 52.954027115285875 ], [ 17.303319294467439, 52.953411300586851 ], [ 17.303333816679327, 52.953363663700898 ], [ 17.303328987437823, 52.953327261904178 ], [ 17.303304584070567, 52.953303980603174 ], [ 17.303270430606219, 52.953286315775465 ], [ 17.30320762953853, 52.953273907637161 ], [ 17.302605469641144, 52.953200825843474 ], [ 17.302869637552092, 52.952516253440152 ], [ 17.302898231808438, 52.952432484729641 ], [ 17.302899576198651, 52.95239814960108 ], [ 17.302881202456824, 52.952380620086984 ], [ 17.302859474667446, 52.952368888298054 ], [ 17.302733798027678, 52.952346048989703 ], [ 17.302488020843782, 52.95232149390565 ], [ 17.302291346741136, 52.952332084133047 ] ], [ [ 17.301595266943831, 52.952501553024042 ], [ 17.301450705361937, 52.952877024662811 ], [ 17.300844586205802, 52.952791196764153 ], [ 17.300777774520288, 52.952774772938263 ], [ 17.300735979346641, 52.952773545734878 ], [ 17.300873021632867, 52.952419101618645 ], [ 17.300879031980486, 52.952406327167338 ], [ 17.30092907668331, 52.952299662957437 ], [ 17.301720593844752, 52.95241170272385 ], [ 17.301774370899444, 52.95227433449061 ], [ 17.301950011299756, 52.952321721010954 ], [ 17.301918658627795, 52.952377031318228 ], [ 17.301887157050441, 52.952432339489299 ], [ 17.301823442909601, 52.952534491961487 ], [ 17.301595266943831, 52.952501553024042 ] ] ], [ [ [ 17.305261050918801, 52.940996261693634 ], [ 17.305201190926894, 52.941042352834579 ], [ 17.305197262118725, 52.941074312914964 ], [ 17.305170501853354, 52.941073391596575 ], [ 17.305139806421185, 52.941074122863341 ], [ 17.305109110988159, 52.941074854122135 ], [ 17.305079860553327, 52.941369956456036 ], [ 17.305143153382044, 52.941376974769028 ], [ 17.305535404087564, 52.941415574865701 ], [ 17.305616538745156, 52.941385075549242 ], [ 17.305696592192835, 52.941363194319784 ], [ 17.305771202740562, 52.941347260929398 ], [ 17.305795925290891, 52.941095531488919 ], [ 17.305393753746568, 52.941086108870429 ], [ 17.305402436555401, 52.941001066230157 ], [ 17.305261050918801, 52.940996261693634 ] ] ], [ [ [ 17.305923285394289, 52.942812008272931 ], [ 17.305942452816932, 52.942713894973679 ], [ 17.30599620759924, 52.942515460024254 ], [ 17.306004609820917, 52.94247187242977 ], [ 17.30642582649503, 52.942504767051695 ], [ 17.306445038357694, 52.942275891880008 ], [ 17.306450133775471, 52.942229289335742 ], [ 17.306299593644948, 52.942214822689259 ], [ 17.305976965155885, 52.942188729248926 ], [ 17.305926106073155, 52.942183507463177 ], [ 17.305830461488419, 52.942177647073756 ], [ 17.305516676621682, 52.942153836869061 ], [ 17.305478078862176, 52.942341515976132 ], [ 17.30545980532403, 52.94242435336615 ], [ 17.305397611152518, 52.942712960358293 ], [ 17.305736218707679, 52.942775975826272 ], [ 17.305727499730661, 52.942816231367757 ], [ 17.305917885281097, 52.942839720542274 ], [ 17.305923285394289, 52.942812008272931 ] ] ], [ [ [ 17.309450640808727, 52.943142119881216 ], [ 17.309839192250887, 52.943165364416451 ], [ 17.309889796676991, 52.942841066963716 ], [ 17.309924158038488, 52.94262409811676 ], [ 17.309555469802234, 52.942622270652201 ], [ 17.30962126999594, 52.942141166708346 ], [ 17.309187243941899, 52.942116105150255 ], [ 17.308706544254292, 52.942089208501919 ], [ 17.308448031642154, 52.942079592813577 ], [ 17.308361204552966, 52.942607071980134 ], [ 17.308339643921663, 52.942606405277509 ], [ 17.30818179352152, 52.942592286612239 ], [ 17.308105117060329, 52.94291675177066 ], [ 17.309040586763356, 52.943009839238862 ], [ 17.309015003196844, 52.943116135499992 ], [ 17.309450640808727, 52.943142119881216 ] ] ], [ [ [ 17.305576289235695, 52.944140765046591 ], [ 17.305645844988298, 52.943869530110547 ], [ 17.305654780784018, 52.943819924651841 ], [ 17.305492430219392, 52.943802770478598 ], [ 17.305349300120216, 52.943789037870658 ], [ 17.304999964201205, 52.943756535424534 ], [ 17.304990959697445, 52.943804071402262 ], [ 17.304904986779484, 52.944076240897118 ], [ 17.305576289235695, 52.944140765046591 ] ] ], [ [ [ 17.310532435842099, 52.947220760942891 ], [ 17.310558167837787, 52.947179398004323 ], [ 17.310473276613731, 52.947160923869347 ], [ 17.310359305304619, 52.947136010661517 ], [ 17.310015769323861, 52.947060887575063 ], [ 17.30995974186186, 52.947153710715213 ], [ 17.30983963248465, 52.947305337688753 ], [ 17.309776349163275, 52.947408579668405 ], [ 17.309763631537503, 52.947429263166299 ], [ 17.30975106621139, 52.947449858896476 ], [ 17.309934504479781, 52.947487901695403 ], [ 17.309941594683654, 52.947489351534642 ], [ 17.310250131040402, 52.947553365023531 ], [ 17.310330371339404, 52.94741232236894 ], [ 17.310394152476491, 52.947300093903465 ], [ 17.310454808051837, 52.947203109532751 ], [ 17.310532435842099, 52.947220760942891 ] ] ], [ [ [ 17.306611494895403, 52.947913007322015 ], [ 17.30642626162869, 52.947875203601193 ], [ 17.306356983054464, 52.94786108596012 ], [ 17.306196412634073, 52.948118073459113 ], [ 17.306160672257924, 52.948175390778538 ], [ 17.305895365323266, 52.948117738713826 ], [ 17.305706860278502, 52.948076020115174 ], [ 17.305735019215806, 52.948029836429072 ], [ 17.305895561355719, 52.947766014237587 ], [ 17.305332143461502, 52.947644484727441 ], [ 17.304825867335573, 52.947535279156909 ], [ 17.304475650022596, 52.947463642006753 ], [ 17.304329252494487, 52.947719660168644 ], [ 17.304302240550779, 52.947766939094414 ], [ 17.303476361292187, 52.947587605244095 ], [ 17.30350777736469, 52.947538141059169 ], [ 17.303577408686664, 52.94744047886438 ], [ 17.30366109639883, 52.947459210558364 ], [ 17.303737504906955, 52.947336733623068 ], [ 17.303755757151354, 52.947307855939769 ], [ 17.303671442807882, 52.947289924760291 ], [ 17.303136091120944, 52.947182005559242 ], [ 17.302983348257985, 52.947424981166563 ], [ 17.302953852092127, 52.947474832369004 ], [ 17.302608133363165, 52.947398667363686 ], [ 17.30247158876103, 52.947368567722037 ], [ 17.302499069970644, 52.9473207563057 ], [ 17.302645252628746, 52.947074270141279 ], [ 17.302444892319926, 52.947000900451343 ], [ 17.302303982150431, 52.946949244278329 ], [ 17.302106117485927, 52.946876808994723 ], [ 17.301650170800524, 52.946703287463748 ], [ 17.301414871407854, 52.946636341440119 ], [ 17.301271725450356, 52.946619006431263 ], [ 17.301177071481902, 52.946876390114731 ], [ 17.301129550102846, 52.947078419424358 ], [ 17.301112018128844, 52.947134466747976 ], [ 17.301030196331265, 52.947398688812406 ], [ 17.300969528942453, 52.947647385116163 ], [ 17.300898482856134, 52.947910142369324 ], [ 17.301386977020485, 52.948017042051049 ], [ 17.301358367941276, 52.948066995480659 ], [ 17.301140299803475, 52.948437818760951 ], [ 17.300789138546335, 52.948363639142009 ], [ 17.300763297132278, 52.948468311201864 ], [ 17.300730917687041, 52.948697986390549 ], [ 17.300739936970476, 52.948836342206043 ], [ 17.300741235472593, 52.948924764792324 ], [ 17.300733243998554, 52.949159015576221 ], [ 17.300732161891496, 52.949217006803302 ], [ 17.300730252798697, 52.94934927075375 ], [ 17.300728969643824, 52.949363012132594 ], [ 17.300724494864106, 52.949412591083188 ], [ 17.30072366393917, 52.949452779192356 ], [ 17.300719527939336, 52.949641848862555 ], [ 17.30080498425313, 52.949649725959851 ], [ 17.300986834288956, 52.9496789464228 ], [ 17.301194102767766, 52.949720670947244 ], [ 17.301509052005802, 52.949788306165722 ], [ 17.301486891940801, 52.949829448449506 ], [ 17.301377351942602, 52.95003337916588 ], [ 17.301533506431188, 52.950068616683666 ], [ 17.301498150139039, 52.950134931405444 ], [ 17.301340800445963, 52.950430359841477 ], [ 17.301313220812151, 52.950480597766607 ], [ 17.301302971751511, 52.95051795324536 ], [ 17.301253633098213, 52.950507894884026 ], [ 17.300830513921102, 52.950422884086343 ], [ 17.300802009089491, 52.950473918061967 ], [ 17.300617904353579, 52.950437560398072 ], [ 17.30055610260132, 52.950650446915866 ], [ 17.301041605758648, 52.950701456713404 ], [ 17.301099227490184, 52.950534375947726 ], [ 17.301223906461225, 52.95055972088597 ], [ 17.301225830520863, 52.95056001819173 ], [ 17.30151468552814, 52.950624942037848 ], [ 17.301625588344486, 52.950648470842964 ], [ 17.301808676396952, 52.950300349513917 ], [ 17.302246770566537, 52.950387009711406 ], [ 17.302054330519685, 52.950745879930196 ], [ 17.302393993397907, 52.95081764305742 ], [ 17.30281711105853, 52.950910472372001 ], [ 17.302881361597244, 52.950923800773175 ], [ 17.30325979178923, 52.950218286134508 ], [ 17.303282754278062, 52.950175626131511 ], [ 17.303490135090271, 52.950222204594631 ], [ 17.303696388050152, 52.950263370622672 ], [ 17.303739086541619, 52.950271894252673 ], [ 17.303921255167122, 52.950308309365418 ], [ 17.304136208283708, 52.950351667262552 ], [ 17.304112134482544, 52.950396110220247 ], [ 17.303969638213946, 52.950658658738163 ], [ 17.304393068467391, 52.950735928516949 ], [ 17.304524991690489, 52.95048096286687 ], [ 17.304547060180532, 52.950438289871791 ], [ 17.304769560940787, 52.950490477789046 ], [ 17.304974311881271, 52.950535846994022 ], [ 17.304945884513184, 52.950592638737831 ], [ 17.30477252506914, 52.950894408278018 ], [ 17.305200707398562, 52.95098352414302 ], [ 17.305363166429917, 52.950674853582207 ], [ 17.305385884465267, 52.950626973598588 ], [ 17.30557927169431, 52.950281241842724 ], [ 17.305597526264375, 52.950248496812456 ], [ 17.305870719978596, 52.950298977334867 ], [ 17.306016708748956, 52.950049606576961 ], [ 17.306053936492162, 52.949984756155978 ], [ 17.306196983583089, 52.950016383217253 ], [ 17.306917446208885, 52.950178007843455 ], [ 17.30677661918925, 52.950451645145044 ], [ 17.306003002420166, 52.950358420243973 ], [ 17.305807207045724, 52.950720126367933 ], [ 17.305699457712933, 52.950916801906672 ], [ 17.305597645885477, 52.951102500281579 ], [ 17.305571661266118, 52.95117299678283 ], [ 17.305532665741879, 52.95123350506919 ], [ 17.305489830536935, 52.951319859228548 ], [ 17.305036476199369, 52.951242256505274 ], [ 17.304971609013048, 52.951377939110976 ], [ 17.304591065443855, 52.952137928080433 ], [ 17.304574061960601, 52.95217671630283 ], [ 17.304848459485228, 52.95223477062342 ], [ 17.304737425303397, 52.953029181563124 ], [ 17.305292868617503, 52.953055540716761 ], [ 17.305444876069906, 52.952370712150895 ], [ 17.305139711193799, 52.952295942550045 ], [ 17.305007671560823, 52.952268248459198 ], [ 17.305022373240906, 52.952235003176064 ], [ 17.30541336628951, 52.951474172637681 ], [ 17.306016812001836, 52.951601488126286 ], [ 17.306416927114203, 52.951692717528928 ], [ 17.306487554713424, 52.951706764382621 ], [ 17.306553552437546, 52.951553470271946 ], [ 17.306631285282059, 52.951370395748178 ], [ 17.306678819280251, 52.951251372624178 ], [ 17.306736614306359, 52.951102188357169 ], [ 17.306755163304768, 52.951061892999419 ], [ 17.30721318863926, 52.951119051031121 ], [ 17.307222730066581, 52.951088250087047 ], [ 17.307237461950823, 52.951046551287114 ], [ 17.30733468838763, 52.950821755410445 ], [ 17.307093157024106, 52.950783960243847 ], [ 17.306961459671431, 52.95076283826652 ], [ 17.30703274452847, 52.950668525183019 ], [ 17.307088475280324, 52.950606456188353 ], [ 17.30714138812132, 52.950551721509484 ], [ 17.307197360696179, 52.950502516295913 ], [ 17.307306400001497, 52.950413687202904 ], [ 17.307333140124783, 52.950392394321959 ], [ 17.307450333156492, 52.950411240841284 ], [ 17.307742293768399, 52.950457847446096 ], [ 17.3083377224679, 52.950561474651863 ], [ 17.308508147203884, 52.950589891354944 ], [ 17.308496171597763, 52.950618229563034 ], [ 17.3083948323263, 52.95083793157341 ], [ 17.308325970130866, 52.950977066455579 ], [ 17.308734297551137, 52.951040975494735 ], [ 17.309122228906364, 52.951108639863989 ], [ 17.309332571820207, 52.950644342318057 ], [ 17.310177237970539, 52.950764006834561 ], [ 17.310298980487062, 52.950551608246883 ], [ 17.310261936419746, 52.950504945981834 ], [ 17.310078169764328, 52.950474993061853 ], [ 17.310296294668479, 52.949971144182285 ], [ 17.310234376713847, 52.949897957760975 ], [ 17.309916672325688, 52.949999919735717 ], [ 17.309804633656537, 52.9500283636565 ], [ 17.3097500404294, 52.950038468957288 ], [ 17.309706871276276, 52.950041991786257 ], [ 17.309676388456683, 52.950040928632212 ], [ 17.309645909143814, 52.950039775587491 ], [ 17.309504348477216, 52.950027239585367 ], [ 17.309473908246677, 52.950135805004983 ], [ 17.309461435627181, 52.950176906686792 ], [ 17.309448814166242, 52.95021800624955 ], [ 17.309399294851811, 52.950296532465735 ], [ 17.309353926115733, 52.950344990246222 ], [ 17.309191799049803, 52.950416877904942 ], [ 17.309170769805004, 52.950425392079275 ], [ 17.308698564729671, 52.950357787399817 ], [ 17.308851667770213, 52.950059231369224 ], [ 17.308911992345237, 52.94994038941222 ], [ 17.308925700675612, 52.949913424812991 ], [ 17.309106843090913, 52.949945680446234 ], [ 17.309266916998503, 52.949976017234036 ], [ 17.309288766492841, 52.949980824761838 ], [ 17.309496482478679, 52.949564603535293 ], [ 17.308781500265873, 52.949426634920357 ], [ 17.308921117338389, 52.949118713691703 ], [ 17.309001823535251, 52.948946831615324 ], [ 17.309010652226863, 52.948918988166305 ], [ 17.309011629722669, 52.948874845086948 ], [ 17.309011007637046, 52.948852622839595 ], [ 17.30977547599025, 52.948851538563204 ], [ 17.309830352350307, 52.948605004053157 ], [ 17.309572906517793, 52.948521211702044 ], [ 17.309455290940893, 52.948490400175622 ], [ 17.30912532978336, 52.948448742846672 ], [ 17.308916648735647, 52.948431743573408 ], [ 17.308880667822429, 52.948403712058173 ], [ 17.308841471868607, 52.948389394488544 ], [ 17.308756736398987, 52.948374518668274 ], [ 17.308620680415768, 52.948362239790455 ], [ 17.308570996752863, 52.948364860071997 ], [ 17.308599599279411, 52.948318682040842 ], [ 17.307709422246457, 52.948145657158641 ], [ 17.307085315095964, 52.948022372340553 ], [ 17.306875208942255, 52.947965688788834 ], [ 17.30673530143503, 52.947937704548892 ], [ 17.306611494895403, 52.947913007322015 ] ], [ [ 17.308260379833595, 52.949586401706192 ], [ 17.308301617022519, 52.949590406252057 ], [ 17.308673956745821, 52.94965281397036 ], [ 17.308582788763097, 52.949852336126121 ], [ 17.308512319295723, 52.949838112885423 ], [ 17.307822708309139, 52.949717676835192 ], [ 17.307927361350085, 52.949527520412154 ], [ 17.307994969602507, 52.94953873548085 ], [ 17.308193617240548, 52.949572590779582 ], [ 17.308260379833595, 52.949586401706192 ] ], [ [ 17.302196698741383, 52.949593536282386 ], [ 17.302369305077082, 52.949277100548748 ], [ 17.302412783805391, 52.949197231820733 ], [ 17.302830829636381, 52.949289898814179 ], [ 17.302788395784354, 52.949365915502106 ], [ 17.302441489681375, 52.94998887108958 ], [ 17.302029536851602, 52.949900156952147 ], [ 17.302196698741383, 52.949593536282386 ] ], [ [ 17.304079750821018, 52.949564488928758 ], [ 17.304055244577196, 52.94955910292164 ], [ 17.303666834209945, 52.949473788181798 ], [ 17.303690804843701, 52.949428174708778 ], [ 17.30375272678226, 52.949310707075369 ], [ 17.303897643149547, 52.949035692663109 ], [ 17.30411148329198, 52.948658239040498 ], [ 17.304140628602276, 52.948609731547997 ], [ 17.304301425104978, 52.948644222308452 ], [ 17.304542099507046, 52.948695950612901 ], [ 17.304514846947018, 52.948745564402472 ], [ 17.304413360994161, 52.948953389950077 ], [ 17.304392448502469, 52.948996978750678 ], [ 17.304324365288245, 52.949119754754889 ], [ 17.304105396711186, 52.94951791002417 ], [ 17.304079750821018, 52.949564488928758 ] ] ], [ [ [ 17.31093191651496, 52.949020329003076 ], [ 17.31127696113936, 52.949210045061889 ], [ 17.31144124990783, 52.949300334032841 ], [ 17.311455329500728, 52.949313484425012 ], [ 17.31148194608167, 52.949283825123274 ], [ 17.311548159039329, 52.94919708159258 ], [ 17.311627600164091, 52.949084175694708 ], [ 17.311642729925627, 52.94906271688432 ], [ 17.311765789548048, 52.94888882673601 ], [ 17.311163129007941, 52.948745723268885 ], [ 17.31093191651496, 52.949020329003076 ] ] ], [ [ [ 17.306160917187849, 52.952501610961185 ], [ 17.306122728920666, 52.952644329476733 ], [ 17.306075508052125, 52.952797171550344 ], [ 17.306058388159954, 52.952865636123697 ], [ 17.30713900048935, 52.953022410041036 ], [ 17.307285175940095, 52.952600549482774 ], [ 17.307418449968104, 52.952215377391944 ], [ 17.307442795891856, 52.952137212887962 ], [ 17.306373642247252, 52.951969723040278 ], [ 17.306351445212648, 52.952027143498988 ], [ 17.306182202007307, 52.952448494308491 ], [ 17.306160917187849, 52.952501610961185 ] ] ], [ [ [ 17.313292542744534, 52.934886206100629 ], [ 17.313598936246262, 52.934853862965802 ], [ 17.313830508270158, 52.934827921591179 ], [ 17.31406880587112, 52.934801265810215 ], [ 17.314318808984687, 52.934760656170958 ], [ 17.314223230654626, 52.934408831500534 ], [ 17.314154112909634, 52.934302988978452 ], [ 17.313221162962524, 52.934394608642648 ], [ 17.31320752575801, 52.934496488886722 ], [ 17.313238923224567, 52.934726353526138 ], [ 17.313292542744534, 52.934886206100629 ] ] ], [ [ [ 17.321120873564968, 52.93724234942875 ], [ 17.321163933034374, 52.936872165026351 ], [ 17.320885925075327, 52.936859332967231 ], [ 17.320337638868182, 52.936833956037901 ], [ 17.320336439888788, 52.936841853173405 ], [ 17.320281141038794, 52.937205029389879 ], [ 17.321120873564968, 52.93724234942875 ] ] ], [ [ [ 17.318597120917904, 52.937439945677973 ], [ 17.31860061621337, 52.937399705245006 ], [ 17.318601172269304, 52.93731625546684 ], [ 17.318605892070526, 52.937252110234525 ], [ 17.318625554575672, 52.937151933545557 ], [ 17.317976148382584, 52.937116211305181 ], [ 17.317935977385627, 52.937276892132616 ], [ 17.318114188023106, 52.937287598922509 ], [ 17.31813028648174, 52.937455911245188 ], [ 17.318175503269227, 52.93745682112165 ], [ 17.318584803476998, 52.93746585187516 ], [ 17.318597120917904, 52.937439945677973 ] ] ], [ [ [ 17.317568350308782, 52.939105956459059 ], [ 17.317567031818164, 52.939255046366767 ], [ 17.317592362294356, 52.939473132350358 ], [ 17.317638455097594, 52.939604996967368 ], [ 17.317696623884476, 52.939609777653551 ], [ 17.317859733399629, 52.939610917931404 ], [ 17.317862094680503, 52.939454108578488 ], [ 17.317876816992801, 52.939454496880572 ], [ 17.317885071878351, 52.939176451627056 ], [ 17.31808263627979, 52.939183475375607 ], [ 17.318086897954881, 52.939115816312373 ], [ 17.317568350308782, 52.939105956459059 ] ] ], [ [ [ 17.317259521202246, 52.939595493830382 ], [ 17.317180953924069, 52.939529449578117 ], [ 17.317028479891555, 52.939400034978753 ], [ 17.316944129363591, 52.939341103268141 ], [ 17.316798816639231, 52.939272674316349 ], [ 17.316650831357791, 52.939188738874954 ], [ 17.316492663619982, 52.939938426011103 ], [ 17.316213301704007, 52.939936985413063 ], [ 17.316043631988222, 52.939932242523305 ], [ 17.316036665781933, 52.940057959784582 ], [ 17.316001895331894, 52.940251811759076 ], [ 17.315231575477295, 52.940231178404503 ], [ 17.31493846717807, 52.940223334530842 ], [ 17.314917733618142, 52.94050021341053 ], [ 17.314875173869126, 52.940898192011076 ], [ 17.314864225266259, 52.941022863463644 ], [ 17.314854315577673, 52.941097816807172 ], [ 17.314902314097846, 52.9411000264192 ], [ 17.314896763916494, 52.941185383866561 ], [ 17.315560238239716, 52.941201536797578 ], [ 17.316434612270101, 52.9412227430455 ], [ 17.316571484233666, 52.941228819308634 ], [ 17.316599867589044, 52.94123012078385 ], [ 17.316545652532632, 52.941602753535257 ], [ 17.316523673739933, 52.941727898344674 ], [ 17.316454676457393, 52.941771887098682 ], [ 17.316267907602413, 52.941762585514468 ], [ 17.315894079557641, 52.941743797482701 ], [ 17.315475231871567, 52.941722751215565 ], [ 17.314987288949691, 52.941698385340345 ], [ 17.314838621009468, 52.941689352040456 ], [ 17.314831699539475, 52.941748699451111 ], [ 17.314979455402106, 52.941754392309981 ], [ 17.31631594344331, 52.941821362795601 ], [ 17.316281488712043, 52.942053080971775 ], [ 17.316275789070179, 52.942096347799534 ], [ 17.316260802744768, 52.942210080251527 ], [ 17.31625250262454, 52.942289643065429 ], [ 17.317284878371698, 52.942317848299851 ], [ 17.317503761897427, 52.942324455387109 ], [ 17.317507965600495, 52.942258324406133 ], [ 17.317527048276876, 52.941966043366058 ], [ 17.317531658774996, 52.941893263117159 ], [ 17.317533014244592, 52.941873676969365 ], [ 17.317578944700696, 52.941227081247362 ], [ 17.317615475339469, 52.940753652811246 ], [ 17.31763803647555, 52.940509804782934 ], [ 17.317650884587405, 52.940243875611969 ], [ 17.317647038611604, 52.940009186522936 ], [ 17.317636561344599, 52.939814963214943 ], [ 17.317556775860108, 52.939826334101312 ], [ 17.317259521202246, 52.939595493830382 ] ] ], [ [ [ 17.333479165680998, 52.940811474155133 ], [ 17.333676791779588, 52.940910114059079 ], [ 17.333691060828862, 52.940869847271301 ], [ 17.333436588182781, 52.940749542929268 ], [ 17.333079283766477, 52.940498475084169 ], [ 17.332992386816414, 52.940437157294085 ], [ 17.332984795932692, 52.940454791169287 ], [ 17.333138923126448, 52.940573506168548 ], [ 17.333228755426262, 52.940641496377587 ], [ 17.333298957918899, 52.940697340055443 ], [ 17.333479165680998, 52.940811474155133 ] ] ], [ [ [ 17.310855152025418, 52.942633290247556 ], [ 17.310698039212387, 52.942630786753732 ], [ 17.310669701892813, 52.942826977033427 ], [ 17.310624651255008, 52.943104408811955 ], [ 17.311036950415676, 52.943121871646269 ], [ 17.3114827073213, 52.943140348121076 ], [ 17.311881796162176, 52.943156810888908 ], [ 17.312162904657558, 52.943167459506263 ], [ 17.312560856184565, 52.943182554841236 ], [ 17.312850724458478, 52.943189998721401 ], [ 17.313168237601879, 52.943213932339454 ], [ 17.313327585571933, 52.942741888905893 ], [ 17.313917145872541, 52.942787308941455 ], [ 17.313961040298761, 52.942366776542912 ], [ 17.313492279616909, 52.942338989523819 ], [ 17.313068224964702, 52.94231390384531 ], [ 17.312682093180275, 52.942293671979058 ], [ 17.312713480846394, 52.941904079083891 ], [ 17.312605217123995, 52.941855236923779 ], [ 17.312445303305616, 52.941871222106734 ], [ 17.312417997538169, 52.941497972771394 ], [ 17.313284345602749, 52.941541931121591 ], [ 17.313268905985264, 52.941705389665081 ], [ 17.313264357477646, 52.941795527707455 ], [ 17.313866062758336, 52.941773311158272 ], [ 17.31392639640405, 52.941787567340917 ], [ 17.313965544714659, 52.941806828901598 ], [ 17.31400280668819, 52.941729116116761 ], [ 17.314030199423343, 52.941518522451716 ], [ 17.314066030138118, 52.941247883455759 ], [ 17.314122539478749, 52.940820605089826 ], [ 17.313367255567282, 52.940937500475918 ], [ 17.312350093162074, 52.941135118551323 ], [ 17.312406911570729, 52.94124348526254 ], [ 17.311657665439949, 52.9413655817727 ], [ 17.31171652916024, 52.940989329793354 ], [ 17.311723706834716, 52.940804979514311 ], [ 17.311710388037909, 52.940680592995818 ], [ 17.311132744122126, 52.940643425145666 ], [ 17.310971384132646, 52.941804952436897 ], [ 17.311608390453511, 52.941824348444165 ], [ 17.311604491341168, 52.941909189633236 ], [ 17.311590665894911, 52.94204632060643 ], [ 17.311566520235971, 52.942249675349345 ], [ 17.312215158370698, 52.94227256086787 ], [ 17.312162746000688, 52.942659067056859 ], [ 17.312061392861885, 52.942654479596392 ], [ 17.311528342346481, 52.942641329878334 ], [ 17.311477760370575, 52.942640431191009 ], [ 17.310855152025418, 52.942633290247556 ] ] ], [ [ [ 17.322206199460926, 52.942712730462425 ], [ 17.32206735669255, 52.943426813850607 ], [ 17.322708190639119, 52.943474982657605 ], [ 17.322843693980502, 52.942762290373885 ], [ 17.322206199460926, 52.942712730462425 ] ] ], [ [ [ 17.314794991636717, 52.943367328680651 ], [ 17.315214988597941, 52.943401343861623 ], [ 17.3153568440489, 52.942900001524627 ], [ 17.314730829356222, 52.942846337378661 ], [ 17.314559326320495, 52.943336556461801 ], [ 17.314794991636717, 52.943367328680651 ] ] ], [ [ [ 17.320850319843807, 52.942888011016308 ], [ 17.320782474628889, 52.943332848594949 ], [ 17.321422447639787, 52.943380112862336 ], [ 17.321498286401084, 52.942936287211303 ], [ 17.320850319843807, 52.942888011016308 ] ] ], [ [ [ 17.316857845980465, 52.94344324372647 ], [ 17.317189648743433, 52.943475013275098 ], [ 17.317274476238456, 52.943007844924253 ], [ 17.317189552554712, 52.943021031413153 ], [ 17.317093248520596, 52.943032078131601 ], [ 17.31696046720317, 52.943027859105577 ], [ 17.316857845980465, 52.94344324372647 ] ] ], [ [ [ 17.314263673902843, 52.943539117669722 ], [ 17.314325733975657, 52.943306082981124 ], [ 17.313891117539026, 52.943257557870744 ], [ 17.313796349664447, 52.943248208980386 ], [ 17.313716841703492, 52.943520206482212 ], [ 17.31367351200063, 52.943658177950049 ], [ 17.314221511400209, 52.943696891097304 ], [ 17.314263673902843, 52.943539117669722 ] ] ], [ [ [ 17.320352188649895, 52.943875625950696 ], [ 17.320465626816546, 52.943310833354069 ], [ 17.320075183956948, 52.943278603610956 ], [ 17.319961458114143, 52.943839164963158 ], [ 17.320352188649895, 52.943875625950696 ] ] ], [ [ [ 17.319558011578195, 52.944161534204532 ], [ 17.319593367820644, 52.943982978228419 ], [ 17.319596838948623, 52.943954878382748 ], [ 17.319728566733655, 52.943260302397988 ], [ 17.319738313457847, 52.943250817432208 ], [ 17.319071997465077, 52.943203441188523 ], [ 17.318995582206092, 52.943600042592593 ], [ 17.318960626977393, 52.943683725071999 ], [ 17.318914363693125, 52.943966898177763 ], [ 17.319371417239008, 52.944013024208971 ], [ 17.319358137124524, 52.944140540810309 ], [ 17.319558011578195, 52.944161534204532 ] ] ], [ [ [ 17.3134354165574, 52.944447645921663 ], [ 17.313333624742661, 52.944653226245386 ], [ 17.314583809689822, 52.94484759437519 ], [ 17.314688691233819, 52.944665799092029 ], [ 17.3134354165574, 52.944447645921663 ] ] ], [ [ [ 17.313852584382136, 52.945102071852936 ], [ 17.313791805244566, 52.945091496589122 ], [ 17.313788078713305, 52.945099267854729 ], [ 17.313717828856745, 52.945087209158046 ], [ 17.313483145330117, 52.945046286395275 ], [ 17.313164460223845, 52.94499472770967 ], [ 17.313087670544675, 52.944982395928371 ], [ 17.313039194136788, 52.945080363934302 ], [ 17.313104319731451, 52.945090191897066 ], [ 17.313438238990241, 52.94514052805534 ], [ 17.313672334772921, 52.945181262696394 ], [ 17.31405264513246, 52.945244666230295 ], [ 17.314336826929633, 52.945291506187978 ], [ 17.31424119957498, 52.945499423020998 ], [ 17.314441931079305, 52.94553293780838 ], [ 17.314581139980799, 52.94523031030505 ], [ 17.314380409759639, 52.945196795761682 ], [ 17.314096044779586, 52.945150852632501 ], [ 17.313957551057051, 52.945128742549628 ], [ 17.313915699378878, 52.945121493642681 ], [ 17.31384885786078, 52.945109843120477 ], [ 17.313852584382136, 52.945102071852936 ] ] ], [ [ [ 17.321090645598801, 52.945320578864042 ], [ 17.320687735075694, 52.945502124915265 ], [ 17.321413154836748, 52.946046575236856 ], [ 17.321953745107773, 52.945781445248237 ], [ 17.321281424690518, 52.945234420927243 ], [ 17.321090645598801, 52.945320578864042 ] ] ], [ [ [ 17.317916993344674, 52.946366216970908 ], [ 17.317969906856792, 52.946234225373011 ], [ 17.31798797010838, 52.946190773786604 ], [ 17.317088586153908, 52.946059507475901 ], [ 17.316117574776339, 52.945917236726885 ], [ 17.315998626847684, 52.946215926262624 ], [ 17.316756151843077, 52.946323427582151 ], [ 17.316608278887017, 52.946688437995306 ], [ 17.316719524427509, 52.946706921357674 ], [ 17.316740480094385, 52.946765404683234 ], [ 17.316741667049726, 52.946765511430719 ], [ 17.316812222852693, 52.946773615609324 ], [ 17.3169533367873, 52.9467936010466 ], [ 17.317073535526394, 52.946811581363214 ], [ 17.317501964602553, 52.946874755913065 ], [ 17.317626602391073, 52.946897295157903 ], [ 17.317708959772563, 52.946858351236116 ], [ 17.317788243230492, 52.946821881854099 ], [ 17.31781507371533, 52.946729001505595 ], [ 17.317916993344674, 52.946366216970908 ] ] ], [ [ [ 17.316881225157363, 52.949026777279926 ], [ 17.316610204551441, 52.948709342774862 ], [ 17.316259182542147, 52.948811029433287 ], [ 17.31621066305679, 52.948829677424058 ], [ 17.316389667961104, 52.949047332839854 ], [ 17.316839165200509, 52.949561640593025 ], [ 17.316668235785471, 52.949841427931844 ], [ 17.316814320373368, 52.949867869099862 ], [ 17.317377560216535, 52.949673317873732 ], [ 17.317028856395027, 52.949251091975277 ], [ 17.3169592402771, 52.949149651156084 ], [ 17.316881225157363, 52.949026777279926 ] ] ], [ [ [ 17.313602487828305, 52.950540171956042 ], [ 17.314239570583965, 52.950626014372837 ], [ 17.314439850349103, 52.950181620320002 ], [ 17.313798954507071, 52.950021710217293 ], [ 17.31371380120774, 52.950235620810545 ], [ 17.313602487828305, 52.950540171956042 ] ] ], [ [ [ 17.315006704791113, 52.950633747461445 ], [ 17.314970937192367, 52.950734144713749 ], [ 17.314903542098421, 52.950912694594599 ], [ 17.314877229623761, 52.950984357515722 ], [ 17.3157384954593, 52.951087400346083 ], [ 17.315963643126207, 52.950431834701384 ], [ 17.315613894968269, 52.95038155136929 ], [ 17.315574190750819, 52.950403201911996 ], [ 17.315518348411484, 52.950414821006355 ], [ 17.315443048568628, 52.950417530696257 ], [ 17.315354574456624, 52.950406743526251 ], [ 17.315117828913419, 52.950356801710079 ], [ 17.315091816202056, 52.950424601826285 ], [ 17.315006704791113, 52.950633747461445 ] ] ], [ [ [ 17.317553406782348, 52.950766690798837 ], [ 17.317486936457581, 52.950910181446197 ], [ 17.317437379281227, 52.951020726402795 ], [ 17.317416379381232, 52.951017011605231 ], [ 17.317394577760609, 52.951064636985748 ], [ 17.317336997633529, 52.95118621994002 ], [ 17.317811710512721, 52.951266506136015 ], [ 17.317848198653678, 52.951178079313557 ], [ 17.317863030805832, 52.951148881313124 ], [ 17.317868799935095, 52.951149862308519 ], [ 17.317943204531392, 52.950986069066282 ], [ 17.317999266554448, 52.950842161045237 ], [ 17.317872183829685, 52.950820936653741 ], [ 17.317553406782348, 52.950766690798837 ] ] ], [ [ [ 17.319063027370234, 52.951774976256075 ], [ 17.319380810734167, 52.951839726054722 ], [ 17.319462068643691, 52.951852386660491 ], [ 17.319472263869219, 52.951842908060087 ], [ 17.319558731743207, 52.951759594268736 ], [ 17.319906836126446, 52.951384011800577 ], [ 17.319929972126157, 52.951359517521446 ], [ 17.319880322902915, 52.951338131031896 ], [ 17.319643740319357, 52.951233791385164 ], [ 17.31918427388111, 52.951036725865329 ], [ 17.31906211518595, 52.951203351700514 ], [ 17.318975667631197, 52.951351416903776 ], [ 17.318540278577004, 52.951259191205089 ], [ 17.318586374554606, 52.951164874635246 ], [ 17.318745946232781, 52.950832223423298 ], [ 17.318729287575984, 52.950824073650438 ], [ 17.318624750070931, 52.950762879241296 ], [ 17.318520801010084, 52.950690361553953 ], [ 17.318429720600676, 52.950627738608652 ], [ 17.318301658238539, 52.950892756362137 ], [ 17.318208076100671, 52.95108649575856 ], [ 17.317893297541918, 52.951754106659315 ], [ 17.318670657678634, 52.951901805920379 ], [ 17.318779083526014, 52.951709265461112 ], [ 17.318856269415051, 52.951727084962386 ], [ 17.319063027370234, 52.951774976256075 ] ] ], [ [ [ 17.320312100223639, 52.95152365077189 ], [ 17.320717859972078, 52.951700527435982 ], [ 17.321047648451714, 52.951416953670936 ], [ 17.320620830961047, 52.951264781770327 ], [ 17.320312100223639, 52.95152365077189 ] ] ], [ [ [ 17.325070457605836, 52.953924566295605 ], [ 17.325205110997175, 52.953981412936663 ], [ 17.325440195874407, 52.953735972718512 ], [ 17.324701875373911, 52.953428249079316 ], [ 17.324134071409993, 52.953182011384826 ], [ 17.323764570740927, 52.953021756008269 ], [ 17.323710231699366, 52.952998326476362 ], [ 17.323519790515039, 52.953259771652156 ], [ 17.323018989821872, 52.953102427874278 ], [ 17.322729343970437, 52.953491524923351 ], [ 17.323262856522504, 52.953646363701587 ], [ 17.32345111093991, 52.953657113830246 ], [ 17.323894722098022, 52.953718590406879 ], [ 17.323822847344491, 52.953905985203491 ], [ 17.323723842698616, 52.954136434653954 ], [ 17.32468258758691, 52.954293217768388 ], [ 17.325070457605836, 52.953924566295605 ] ] ], [ [ [ 17.329902966736878, 52.95375785933242 ], [ 17.329982212842641, 52.953706147009818 ], [ 17.329941484368096, 52.953693469451075 ], [ 17.329594355212492, 52.953933476366274 ], [ 17.329452650335561, 52.954032388525221 ], [ 17.329547289490272, 52.954041865926442 ], [ 17.329549584460185, 52.954040316278579 ], [ 17.329902966736878, 52.95375785933242 ] ] ] ] } }
]
}
