{
"type": "FeatureCollection",
"name": "zabudowa_1966",
"crs": { "type": "name", "properties": { "name": "urn:ogc:def:crs:OGC:1.3:CRS84" } },
"features": [
{ "type": "Feature", "properties": { "TERYT": "3028", "LOKALNYID": "F50D9BBC-10C8-79F2-E043-CA2BA8C0F739", "WERSJAID": "2013-01-01T00:00:00", "PNAZW": "PL.PZGIK.308.BDOT10k", "GMLID": "OT_PTZB_A.14", "X_KOD": "PTZB02", "X_SKRKARTO": null, "X_SKRK_NIL": "inapplicable", "X_KATDOKG": "przyblizony", "X_DOKLGEOM": null, "X_ZRODLOG": "ortofotomapa", "X_ZRODLOA": "pomiarTerenowy", "X_KATIST": null, "X_KATI_NIL": "inapplicable", "X_RODZREPG": "zasiegUmowny", "X_UWAGI": null, "X_UZYTKOWN": "Uzytkownik30.xml", "X_AKTG": "2004-05-14", "X_AKTA": "2012-01-30", "POCZWERS": "2012-04-23", "KONIECWERS": null, "X_DATAUTW": "2012-04-23", "X_INFDOD": null, "KOD10K": null, "KOD10K_NIL": "inapplicable", "KOD25K": "0025_315", "KOD25K_NIL": null, "KOD50K": "0050_315", "KOD50K_NIL": null, "KOD100K": "0100_315", "KOD100_NIL": null, "KOD250K": null, "KOD250_NIL": "inapplicable", "KOD500K": null, "KOD500_NIL": "inapplicable", "KOD1000K": null, "KOD1000_NI": "inapplicable", "RODZAJ": "jednorodzinna", "CHARAKTER": "luzna", "ROSLINNOSC": "brak", "ROSLIN_NIL": null, "PRNG_LOKID": null, "PRNG_PNAZW": null, "PRNG_WERID": null, "area": 1879.41 }, "geometry": { "type": "MultiPolygon", "coordinates": [ [ [ [ 17.279312816093377, 52.937340020299168 ], [ 17.27967595434021, 52.937371809357053 ], [ 17.279932608974807, 52.937303578750523 ], [ 17.280113028664744, 52.937021911501233 ], [ 17.279613926705231, 52.936886620322078 ], [ 17.279341673402843, 52.936826559280462 ], [ 17.279276646289848, 52.936934796540392 ], [ 17.279161102800984, 52.937126929336237 ], [ 17.279004712563051, 52.937335557672284 ], [ 17.279024517899334, 52.937331617694625 ], [ 17.279312816093377, 52.937340020299168 ] ] ], [ [ [ 17.294219261362326, 52.941358243025711 ], [ 17.293941441799589, 52.941631427574372 ], [ 17.294252703456728, 52.941753169542601 ], [ 17.294498845766611, 52.941838721955349 ], [ 17.294592627956, 52.941878519634216 ], [ 17.294691132357098, 52.941718767349414 ], [ 17.295017273444046, 52.941760457940347 ], [ 17.295051972371802, 52.94169305478875 ], [ 17.295074583755735, 52.941610191183578 ], [ 17.295117627491489, 52.941480945509845 ], [ 17.295174881357589, 52.941440847504389 ], [ 17.295277172322749, 52.941413896359471 ], [ 17.29528499761404, 52.941267867429254 ], [ 17.294838813360368, 52.941192755972935 ], [ 17.294504007471279, 52.941219247216885 ], [ 17.29443633329225, 52.941149566916437 ], [ 17.29431933157781, 52.941190965241368 ], [ 17.294387002094883, 52.941260735489301 ], [ 17.294219261362326, 52.941358243025711 ] ] ], [ [ [ 17.291329066487034, 52.940637960187942 ], [ 17.291553122183661, 52.940403247831597 ], [ 17.291135480476257, 52.940253978224305 ], [ 17.291326351340345, 52.940053114769043 ], [ 17.291592570831206, 52.940150113762634 ], [ 17.291755313144368, 52.940190855170513 ], [ 17.291834823058927, 52.940220686974008 ], [ 17.292078269465449, 52.93998505462082 ], [ 17.292251515914753, 52.939815772673001 ], [ 17.292410352842122, 52.939713733212358 ], [ 17.292245464829474, 52.939667026264935 ], [ 17.291967352045546, 52.939592341020251 ], [ 17.291964213605663, 52.939596432825425 ], [ 17.291627652700992, 52.939505258149858 ], [ 17.291180109827046, 52.939858104988311 ], [ 17.291159691625182, 52.939881373798528 ], [ 17.290699532313067, 52.940406798922602 ], [ 17.291057143784951, 52.940538119337504 ], [ 17.291329066487034, 52.940637960187942 ] ] ], [ [ [ 17.299806809704293, 52.942801455111173 ], [ 17.299306522890575, 52.942699974532644 ], [ 17.297389058853259, 52.942243593173281 ], [ 17.297160393447189, 52.942175294622558 ], [ 17.297048019800858, 52.942383138034749 ], [ 17.296788548400102, 52.942291824043245 ], [ 17.296504998143838, 52.942191980346387 ], [ 17.296239272356583, 52.942066670715015 ], [ 17.296009969961531, 52.94201086148788 ], [ 17.295750587534087, 52.941947695512681 ], [ 17.295463452090562, 52.941905085216781 ], [ 17.295205051645624, 52.941834905324242 ], [ 17.295081513355111, 52.941977843942226 ], [ 17.294948092001363, 52.941933175674841 ], [ 17.294890188011781, 52.942008196772676 ], [ 17.294957340032553, 52.94204009742846 ], [ 17.295305230916163, 52.942192129826992 ], [ 17.295549607665944, 52.942288626526981 ], [ 17.295603800518805, 52.942307480473609 ], [ 17.295786360297306, 52.942370803941813 ], [ 17.295846870034477, 52.942391816841159 ], [ 17.296086936458568, 52.942476829101658 ], [ 17.296186214764031, 52.942511438082825 ], [ 17.296358076611291, 52.942566693145061 ], [ 17.296506613728145, 52.94261693702682 ], [ 17.29660593153735, 52.942650556955577 ], [ 17.296894616988229, 52.942714500788718 ], [ 17.297155839547258, 52.942768877157469 ], [ 17.297411812746223, 52.942824256921796 ], [ 17.297456982687709, 52.94283407734946 ], [ 17.297560086876093, 52.942854710442738 ], [ 17.29768761050817, 52.942875243648878 ], [ 17.297969038293019, 52.942926939912084 ], [ 17.298024790280166, 52.942936462044123 ], [ 17.298244932015802, 52.942971721334551 ], [ 17.298466296838253, 52.943009965518677 ], [ 17.298510659125469, 52.943017615584807 ], [ 17.298791007178014, 52.943062729317781 ], [ 17.298997513573866, 52.943092665793436 ], [ 17.299038343829896, 52.943099275832957 ], [ 17.299098847042053, 52.943109135274767 ], [ 17.299308968628157, 52.943145598133029 ], [ 17.299395479554253, 52.943160416266736 ], [ 17.299498847074307, 52.943178173579504 ], [ 17.299561765691564, 52.943183390839025 ], [ 17.299614517646503, 52.943102396717869 ], [ 17.299662513093409, 52.943028798941285 ], [ 17.299767088047748, 52.942867696623551 ], [ 17.299806809704293, 52.942801455111173 ] ] ], [ [ [ 17.299260032717157, 52.942333272829018 ], [ 17.30004057865985, 52.942419426932062 ], [ 17.300188014324984, 52.942099126574838 ], [ 17.300274453239581, 52.941933447567003 ], [ 17.300312410522974, 52.9418614146526 ], [ 17.300234743931426, 52.941712183958359 ], [ 17.300161234903936, 52.941570836857352 ], [ 17.300143865552652, 52.941535424561003 ], [ 17.300104030598181, 52.941454094820195 ], [ 17.300018123822952, 52.941450527446968 ], [ 17.299969668878333, 52.941448575086078 ], [ 17.299871969258106, 52.941445828133475 ], [ 17.299286991043878, 52.941432419906441 ], [ 17.299279312971279, 52.941518106080935 ], [ 17.299302973565304, 52.94172331212134 ], [ 17.299311968776738, 52.941801412782169 ], [ 17.299312985176915, 52.94187418312093 ], [ 17.299260032717157, 52.942333272829018 ] ] ], [ [ [ 17.292797403000151, 52.941365970283911 ], [ 17.292258749499755, 52.941820665216085 ], [ 17.292470259452784, 52.941897180428846 ], [ 17.292863505134072, 52.942020014066635 ], [ 17.293133689442573, 52.9421036664206 ], [ 17.293441780200805, 52.942184984758029 ], [ 17.293916527310984, 52.942291088784145 ], [ 17.294028357183759, 52.94232042536084 ], [ 17.294201138120982, 52.942112154003063 ], [ 17.294636611469304, 52.942232727781288 ], [ 17.294577677878415, 52.942317398000263 ], [ 17.294487369442159, 52.942440838848604 ], [ 17.29442742447511, 52.942522806696999 ], [ 17.294509827187508, 52.942679843508415 ], [ 17.294517023336233, 52.94269370655789 ], [ 17.294649977285371, 52.942947067685182 ], [ 17.294731956415426, 52.943103558644438 ], [ 17.294761180896565, 52.943159196957701 ], [ 17.295328732744306, 52.943279397616855 ], [ 17.295605096575507, 52.943422039039596 ], [ 17.295768081651165, 52.943297931094904 ], [ 17.29610195648355, 52.943481146632308 ], [ 17.295687641468916, 52.943594545493163 ], [ 17.295679213655941, 52.943596852795054 ], [ 17.295640245896838, 52.943546650805608 ], [ 17.295354908379931, 52.943628443476598 ], [ 17.295394471051633, 52.943678654095557 ], [ 17.295189007187457, 52.943735781480456 ], [ 17.295451564486349, 52.944025175675947 ], [ 17.295474736327996, 52.944049250411553 ], [ 17.296049994535522, 52.943871430172784 ], [ 17.296135027538185, 52.943848097888974 ], [ 17.296481887086173, 52.943761609580172 ], [ 17.296533537828914, 52.943746701762215 ], [ 17.296701437933088, 52.94369829667086 ], [ 17.296892371373712, 52.94353726565879 ], [ 17.296962907731853, 52.94346983768969 ], [ 17.297231231564787, 52.94302887475574 ], [ 17.297297125269218, 52.942909039049248 ], [ 17.297027707604645, 52.942854815338428 ], [ 17.296959995184494, 52.942839005857856 ], [ 17.296812029220046, 52.942804509016824 ], [ 17.296756539458706, 52.942792112215372 ], [ 17.296672715011976, 52.942773373609249 ], [ 17.296452442616928, 52.942722551104573 ], [ 17.296420247617043, 52.942753835850745 ], [ 17.296298088830639, 52.942706668098246 ], [ 17.296021208715295, 52.942615102811082 ], [ 17.295634140276288, 52.942452168274173 ], [ 17.295464841806854, 52.942403693907018 ], [ 17.295188777524913, 52.942283899382495 ], [ 17.295129203050649, 52.942258043180551 ], [ 17.294911100318739, 52.942174873023113 ], [ 17.294731865172892, 52.942106559660445 ], [ 17.294474018797505, 52.94200815918046 ], [ 17.294285978015012, 52.941936661009713 ], [ 17.294246998150211, 52.941920902717563 ], [ 17.294156823541613, 52.94188579326714 ], [ 17.294096247890003, 52.941862710089005 ], [ 17.293934696465112, 52.941799056121049 ], [ 17.293868980714418, 52.941774190289784 ], [ 17.293792874490958, 52.941744768491638 ], [ 17.293725401761947, 52.941719157884464 ], [ 17.29359735399915, 52.941670463810659 ], [ 17.29353916703942, 52.941654789161817 ], [ 17.293496152998777, 52.94164319953282 ], [ 17.293428609853628, 52.941619386404561 ], [ 17.293438053720337, 52.941610169010836 ], [ 17.293351068808317, 52.941577263147202 ], [ 17.293294316465403, 52.941555403601726 ], [ 17.293217183671828, 52.941525606950464 ], [ 17.292994660156769, 52.941441470382948 ], [ 17.292885251465524, 52.941399608431453 ], [ 17.292797403000151, 52.941365970283911 ] ] ], [ [ [ 17.299164743231081, 52.944514741584982 ], [ 17.299939974040939, 52.944687222696146 ], [ 17.299748467520999, 52.945020840234918 ], [ 17.299464829001337, 52.944952693513351 ], [ 17.299444018086728, 52.945023982289449 ], [ 17.299331791237549, 52.945410346741802 ], [ 17.299224390320013, 52.945392801386731 ], [ 17.299167729130634, 52.945580939435992 ], [ 17.299283855398286, 52.945592404356844 ], [ 17.299408506378366, 52.945606689161728 ], [ 17.299324392183017, 52.945758371246498 ], [ 17.299312278660295, 52.945755949539972 ], [ 17.299294206812906, 52.945795351297235 ], [ 17.299276006594656, 52.945849410282904 ], [ 17.299237237180964, 52.945964778903978 ], [ 17.299307130215158, 52.945978279998968 ], [ 17.299569983375914, 52.946029616511069 ], [ 17.299652801233222, 52.946043841965626 ], [ 17.299764067764105, 52.946053977802258 ], [ 17.300017731363539, 52.946138457001034 ], [ 17.300844190706712, 52.946328525508143 ], [ 17.301083787933646, 52.946376918021109 ], [ 17.301107378322598, 52.946306837854031 ], [ 17.301163448198928, 52.946198191182759 ], [ 17.301203813357422, 52.946155960236368 ], [ 17.301230087150653, 52.946078184179662 ], [ 17.301238842712124, 52.946052318747455 ], [ 17.301252933120498, 52.946023292001499 ], [ 17.301318910288682, 52.945893562732792 ], [ 17.301348903806051, 52.945846237150889 ], [ 17.301409836271144, 52.945750250486356 ], [ 17.301439296873845, 52.945697521288821 ], [ 17.301495354623214, 52.945604342748027 ], [ 17.301509550348808, 52.945572619489731 ], [ 17.301542169711258, 52.945500060246815 ], [ 17.301588069975807, 52.945422924389973 ], [ 17.301634686818865, 52.945350295403713 ], [ 17.301705689593636, 52.945251844475827 ], [ 17.301731700786323, 52.945207339731027 ], [ 17.301795867987259, 52.94510474406794 ], [ 17.301859607957535, 52.94500924696473 ], [ 17.30193104642353, 52.944914849111562 ], [ 17.301687904228004, 52.944843114957365 ], [ 17.301565520784038, 52.94480898977146 ], [ 17.301527855421003, 52.944786147997029 ], [ 17.301329727187596, 52.944720722327979 ], [ 17.301167866443222, 52.944668225618024 ], [ 17.300950932804241, 52.944596414992873 ], [ 17.300934620637136, 52.94459096562413 ], [ 17.300906878434734, 52.9445808561577 ], [ 17.300879132722827, 52.944570836567479 ], [ 17.300807382888628, 52.944547776938784 ], [ 17.300594673959225, 52.944478364327473 ], [ 17.300459143043508, 52.944434067387498 ], [ 17.300421516260144, 52.944421658028411 ], [ 17.300323778821742, 52.944389323010746 ], [ 17.300194842096122, 52.944347728149801 ], [ 17.300017100972784, 52.944290236219366 ], [ 17.299837093143541, 52.944233610914722 ], [ 17.299647597385452, 52.944172173042283 ], [ 17.299483490476788, 52.944116314343923 ], [ 17.29944011059694, 52.944102563269816 ], [ 17.299386488558934, 52.9440880360549 ], [ 17.299451827708847, 52.943925293239914 ], [ 17.299495107188317, 52.94382392868431 ], [ 17.29953492894872, 52.943723413956533 ], [ 17.299572300797305, 52.94363221718168 ], [ 17.299607668605553, 52.943421290938332 ], [ 17.29958868532729, 52.943286569479753 ], [ 17.299447839469508, 52.943267826181298 ], [ 17.299369441376388, 52.943254922867062 ], [ 17.299266194316157, 52.943237886630691 ], [ 17.299021364290049, 52.943198138894658 ], [ 17.299006420921888, 52.943195766572181 ], [ 17.298925511264514, 52.943182377342239 ], [ 17.29889089847314, 52.943176665677775 ], [ 17.298661019533974, 52.943139109776183 ], [ 17.298571547186327, 52.943123888966674 ], [ 17.298321145524991, 52.943081991534875 ], [ 17.298103723749836, 52.943045692154435 ], [ 17.298045183984406, 52.943038918050377 ], [ 17.297866112598598, 52.943007934017153 ], [ 17.297719650174923, 52.943014739100214 ], [ 17.297524745011586, 52.943136773525396 ], [ 17.297271059702723, 52.943413549368529 ], [ 17.297132040813349, 52.943560576015344 ], [ 17.297646168266116, 52.943661803982238 ], [ 17.297537377173263, 52.944107961013884 ], [ 17.297714602195715, 52.944083700208303 ], [ 17.297918732426332, 52.944049122540982 ], [ 17.298024253826121, 52.944034805907243 ], [ 17.298165147217215, 52.94402962938937 ], [ 17.298281987080635, 52.944034180701557 ], [ 17.298323147445174, 52.944039986312312 ], [ 17.298366380366843, 52.944046091389694 ], [ 17.29848032457523, 52.944063731250196 ], [ 17.298696947171468, 52.94409777013486 ], [ 17.298750918810978, 52.944107176488927 ], [ 17.298721645659494, 52.944170250021223 ], [ 17.298677593368065, 52.944260901214157 ], [ 17.298646918982545, 52.944253447218451 ], [ 17.298632335197837, 52.944283635734209 ], [ 17.298529124155429, 52.944261832941535 ], [ 17.298503790765455, 52.94430796550791 ], [ 17.298528449837054, 52.944316952194377 ], [ 17.298885161418873, 52.944430878668534 ], [ 17.299164743231081, 52.944514741584982 ] ] ], [ [ [ 17.295786833137914, 52.944676783114076 ], [ 17.295421916364106, 52.944783065443403 ], [ 17.295594159784809, 52.944991662774974 ], [ 17.29585188375388, 52.944919456012101 ], [ 17.295856148778675, 52.944947306477893 ], [ 17.295940774619112, 52.944938177896383 ], [ 17.295984749950527, 52.944925408555655 ], [ 17.296177064234612, 52.944869620076147 ], [ 17.296275104120344, 52.944841168152706 ], [ 17.296668466892523, 52.944727017173584 ], [ 17.296684128949437, 52.944722475250096 ], [ 17.296965659558715, 52.944642963063416 ], [ 17.296980715775575, 52.944638682216507 ], [ 17.297393825451191, 52.944522023963643 ], [ 17.297372214378214, 52.944496083385154 ], [ 17.297183523489178, 52.944270165675754 ], [ 17.296765754062385, 52.944391792640943 ], [ 17.296470121814757, 52.944477847144022 ], [ 17.296075992100082, 52.944592615992512 ], [ 17.295916051782555, 52.944639155852244 ], [ 17.295786833137914, 52.944676783114076 ] ] ], [ [ [ 17.280420989471008, 52.948212443302474 ], [ 17.28052024876196, 52.948382684247029 ], [ 17.279991683505443, 52.948517578184557 ], [ 17.280172461566583, 52.948839817292956 ], [ 17.280525092840453, 52.948868663091147 ], [ 17.281181615057928, 52.948784991086789 ], [ 17.280871089818639, 52.948103662001493 ], [ 17.280420989471008, 52.948212443302474 ] ] ], [ [ [ 17.281139800251083, 52.953921094644166 ], [ 17.281355322358735, 52.953976283232002 ], [ 17.281571599853265, 52.954031212549779 ], [ 17.28204640674026, 52.954138353330634 ], [ 17.282055903877247, 52.95408659926894 ], [ 17.282089395863316, 52.953944179863782 ], [ 17.282148076023688, 52.953511910641723 ], [ 17.282174492448057, 52.95337892181869 ], [ 17.281280393980229, 52.953274710902747 ], [ 17.281108253280543, 52.953901752368381 ], [ 17.281139800251083, 52.953921094644166 ] ] ], [ [ [ 17.288966678882137, 52.959702704629137 ], [ 17.289057390111264, 52.959721277797492 ], [ 17.28913043503956, 52.959730873067706 ], [ 17.289233065864796, 52.9597304620046 ], [ 17.289298779389409, 52.959718277805202 ], [ 17.2893700366456, 52.9596863881399 ], [ 17.289409061598125, 52.95964477137921 ], [ 17.289473887918355, 52.959655057530455 ], [ 17.289515448896893, 52.959485053099364 ], [ 17.289475707272349, 52.959393918658542 ], [ 17.289229620706809, 52.959323556081408 ], [ 17.288949374812567, 52.959250812558359 ], [ 17.288734894057889, 52.959590728167591 ], [ 17.288873480361115, 52.959675462019909 ], [ 17.288966678882137, 52.959702704629137 ] ] ], [ [ [ 17.277740136519238, 52.960770544149675 ], [ 17.278336768216441, 52.960958156125429 ], [ 17.278673193507704, 52.960580094977473 ], [ 17.278037564761306, 52.960433198836199 ], [ 17.277821753154168, 52.960658141582158 ], [ 17.277740136519238, 52.960770544149675 ] ] ], [ [ [ 17.294059958841949, 52.961697883952489 ], [ 17.294036284562438, 52.962257555518818 ], [ 17.294650659599949, 52.962253962735829 ], [ 17.294808224455586, 52.962250557940386 ], [ 17.294811463076385, 52.962240172209803 ], [ 17.294935043687634, 52.961715119220145 ], [ 17.294719671306222, 52.961711489309309 ], [ 17.294059958841949, 52.961697883952489 ] ] ], [ [ [ 17.277173358649403, 52.962596602125579 ], [ 17.277212888615352, 52.962550140241028 ], [ 17.276915590152765, 52.962460483555461 ], [ 17.276494451932287, 52.962439987273932 ], [ 17.276310845160975, 52.96247644514623 ], [ 17.276098778861293, 52.962400883040615 ], [ 17.275885810594868, 52.962666153557066 ], [ 17.276340999654543, 52.96278921982023 ], [ 17.276220716499225, 52.963045942578056 ], [ 17.276747112814306, 52.963165093783807 ], [ 17.276801878301725, 52.96317748926537 ], [ 17.276834532633973, 52.963101699586275 ], [ 17.276872334086391, 52.9630125845149 ], [ 17.276884905341731, 52.96299235200577 ], [ 17.276980850680069, 52.96283815906952 ], [ 17.277085776393957, 52.962705320438715 ], [ 17.27714929813223, 52.962624852002712 ], [ 17.277173358649403, 52.962596602125579 ] ] ], [ [ [ 17.283838847273582, 52.963277070305956 ], [ 17.28438772731494, 52.963359369907593 ], [ 17.284592650116398, 52.963390117331016 ], [ 17.284691830557168, 52.963006816052086 ], [ 17.284008210894218, 52.962870591100625 ], [ 17.283838847273582, 52.963277070305956 ] ] ], [ [ [ 17.287430367703578, 52.965714709137963 ], [ 17.287558897018918, 52.965764135684239 ], [ 17.287571745207739, 52.965770706046619 ], [ 17.287598249612273, 52.965784404800687 ], [ 17.287647733553221, 52.965755073451469 ], [ 17.287915104075484, 52.965562872057738 ], [ 17.288335535081668, 52.965260558833322 ], [ 17.287192728325959, 52.964759255567813 ], [ 17.287137387332557, 52.964814036438753 ], [ 17.28650823717059, 52.965435036253929 ], [ 17.286919940548628, 52.965574431872263 ], [ 17.287142391655482, 52.965648145563293 ], [ 17.287430367703578, 52.965714709137963 ] ] ], [ [ [ 17.273056279189134, 52.967902697277019 ], [ 17.27311417224491, 52.967799396136662 ], [ 17.273274277978555, 52.967822496981668 ], [ 17.273437149543224, 52.967514594544717 ], [ 17.27349773636276, 52.967399731002097 ], [ 17.273558468145442, 52.967284959467371 ], [ 17.27310251807036, 52.967250995394963 ], [ 17.273030928571309, 52.967413902934695 ], [ 17.272936187550307, 52.967488699408214 ], [ 17.27287877811165, 52.967490203367518 ], [ 17.272829153041673, 52.967621503780634 ], [ 17.272782514126323, 52.967707791151611 ], [ 17.272717663583819, 52.967832395063873 ], [ 17.273056279189134, 52.967902697277019 ] ] ], [ [ [ 17.302468895799688, 52.942075887481181 ], [ 17.30289036869808, 52.942060480115067 ], [ 17.302840953381878, 52.941822249277749 ], [ 17.302880485634841, 52.941732912375571 ], [ 17.302761888875949, 52.941387474618253 ], [ 17.301264604794984, 52.941822249277749 ], [ 17.300794414842638, 52.94129989161047 ], [ 17.300752660932954, 52.941370382424701 ], [ 17.300733117545342, 52.941420825119209 ], [ 17.300626842199453, 52.941693870516957 ], [ 17.300547253702408, 52.941863335012613 ], [ 17.300494288845826, 52.941976432570328 ], [ 17.300460508150643, 52.942063454156447 ], [ 17.300285198514764, 52.9424530541446 ], [ 17.301100775156296, 52.942573357605944 ], [ 17.301408504106263, 52.942618766738043 ], [ 17.301530124994972, 52.942117330483434 ], [ 17.301552374654989, 52.942024388062734 ], [ 17.301618458673826, 52.942028570295967 ], [ 17.301900385382861, 52.942051866987931 ], [ 17.301927847666093, 52.942798947206569 ], [ 17.302226009598275, 52.942827317087222 ], [ 17.302216877881225, 52.942063922822733 ], [ 17.302273481804743, 52.942066890030986 ], [ 17.302418052370665, 52.942074081865456 ], [ 17.302468895799688, 52.942075887481181 ] ] ], [ [ [ 17.302530872272694, 52.940695101844206 ], [ 17.302281553914888, 52.940392666673453 ], [ 17.302189442202533, 52.940430168304445 ], [ 17.301818468348866, 52.940574605001231 ], [ 17.301605356138609, 52.940652768303721 ], [ 17.301581188155158, 52.940661685924994 ], [ 17.301364519427857, 52.940773612760303 ], [ 17.301307843437669, 52.94080293001732 ], [ 17.301212738004413, 52.940874595823914 ], [ 17.301074212662989, 52.940979185700222 ], [ 17.301519215388819, 52.941213887819337 ], [ 17.302530872272694, 52.940695101844206 ] ] ], [ [ [ 17.300109513496221, 52.941195021316972 ], [ 17.300282133562121, 52.941533107050738 ], [ 17.300482215911234, 52.941528378597134 ], [ 17.300733299643454, 52.941180835843809 ], [ 17.300109513496221, 52.941195021316972 ] ] ], [ [ [ 17.302631538187562, 52.945002200250073 ], [ 17.302716179708426, 52.944773241257842 ], [ 17.303041070219951, 52.944246318197621 ], [ 17.30301380574134, 52.9441707448876 ], [ 17.303013679857663, 52.944086475950478 ], [ 17.302569708319609, 52.943953778429623 ], [ 17.302665789063045, 52.943842105325707 ], [ 17.302845872562546, 52.94364057908885 ], [ 17.302173273867378, 52.943439813361884 ], [ 17.301993878197116, 52.943363774547329 ], [ 17.301992120843408, 52.943363029969454 ], [ 17.301804039009191, 52.943314925806014 ], [ 17.301610207503256, 52.943265390160583 ], [ 17.301448216283998, 52.943223953676871 ], [ 17.301467382132913, 52.943194549791038 ], [ 17.301497145486035, 52.94314164503146 ], [ 17.301512749116576, 52.943119564717165 ], [ 17.30138349542969, 52.94308992767332 ], [ 17.301284445601897, 52.943068460321641 ], [ 17.301319754251764, 52.942928975673446 ], [ 17.300932483002001, 52.942882748706339 ], [ 17.300895757555541, 52.942949943042763 ], [ 17.300883781026915, 52.942970636219933 ], [ 17.300859970025233, 52.942966608459344 ], [ 17.300757990018628, 52.942943835928709 ], [ 17.300578213011637, 52.943386612721007 ], [ 17.300435939424734, 52.943354899832805 ], [ 17.300299568422695, 52.943324530272363 ], [ 17.300233887801564, 52.943310010798093 ], [ 17.299828315531077, 52.943219761003455 ], [ 17.299800795808064, 52.943253361874611 ], [ 17.299765133507155, 52.943350338894746 ], [ 17.299753001728046, 52.943466088881998 ], [ 17.299739904873334, 52.943557093491577 ], [ 17.300242544842945, 52.943639828864406 ], [ 17.300716489833523, 52.943717834932187 ], [ 17.300759525366235, 52.943744171228744 ], [ 17.300827760718178, 52.943788494745839 ], [ 17.300980855422623, 52.943882235753179 ], [ 17.300953275149762, 52.943959183697032 ], [ 17.300906303489654, 52.944090263766647 ], [ 17.300884239061396, 52.944151822104743 ], [ 17.300861179641338, 52.944215974264971 ], [ 17.300801974973599, 52.944381863266756 ], [ 17.300784385697124, 52.944431794302083 ], [ 17.30089830877349, 52.944488012756473 ], [ 17.301072161181771, 52.944542210165707 ], [ 17.30116498483757, 52.944570787054928 ], [ 17.301293557783449, 52.944610307193329 ], [ 17.301481863031249, 52.944668038141195 ], [ 17.301628502738264, 52.944713841683786 ], [ 17.301838722742513, 52.944778450407306 ], [ 17.301972636051367, 52.944818495791246 ], [ 17.302052084784581, 52.944838876807964 ], [ 17.302119819187869, 52.944865655479745 ], [ 17.302299775992498, 52.944908516820568 ], [ 17.302364435750587, 52.944922570879477 ], [ 17.30240168400956, 52.944933265482696 ], [ 17.302523735691036, 52.944968284389631 ], [ 17.302631538187562, 52.945002200250073 ] ] ], [ [ [ 17.303283080399172, 52.94488170737749 ], [ 17.30323998206018, 52.944948924643853 ], [ 17.303062086921848, 52.944945946965284 ], [ 17.302965159859287, 52.945128285217251 ], [ 17.303082084965283, 52.945210624959266 ], [ 17.303308409970228, 52.945369800656195 ], [ 17.30333608044057, 52.945385574301774 ], [ 17.3036435184504, 52.945560746486528 ], [ 17.30396782736662, 52.945654859350263 ], [ 17.304244673998376, 52.945702518127042 ], [ 17.304539151267509, 52.945752406354451 ], [ 17.304595825777927, 52.945624251305219 ], [ 17.304660613629927, 52.945475167699556 ], [ 17.304688974571516, 52.94540857236634 ], [ 17.304396159650096, 52.945365722981514 ], [ 17.304550501705446, 52.945028159002433 ], [ 17.304268156979475, 52.944980332509765 ], [ 17.304227781474655, 52.945068609969425 ], [ 17.303890012488488, 52.945006591551859 ], [ 17.303505350811555, 52.944940665056379 ], [ 17.303283080399172, 52.94488170737749 ] ] ], [ [ [ 17.302249661228551, 52.946214885636394 ], [ 17.302398068610202, 52.94604916284424 ], [ 17.303356725744553, 52.946263549709826 ], [ 17.303702533817845, 52.945726705795039 ], [ 17.303570269662263, 52.945671037617799 ], [ 17.303489180005059, 52.945631658364839 ], [ 17.303389393628731, 52.945575464436352 ], [ 17.303360840768633, 52.945559408406076 ], [ 17.30322325207981, 52.945476234273279 ], [ 17.302935966195683, 52.945307374318737 ], [ 17.302581762817784, 52.945087105341088 ], [ 17.302068385460181, 52.944966274888706 ], [ 17.301831239671714, 52.945349597332743 ], [ 17.301798346831042, 52.945402547369966 ], [ 17.30177706271602, 52.945436597539782 ], [ 17.301745268599962, 52.945491901521599 ], [ 17.301527719139976, 52.945872715526988 ], [ 17.301490440828434, 52.945946377292465 ], [ 17.301483988714814, 52.945959055532924 ], [ 17.301455997938543, 52.946028838722761 ], [ 17.302249661228537, 52.946214885636422 ], [ 17.302249661228551, 52.946214885636394 ] ] ], [ [ [ 17.299781315854236, 52.949528152785859 ], [ 17.300249682871058, 52.949586744873969 ], [ 17.300514118177492, 52.949605905792374 ], [ 17.300506485041431, 52.949584122797368 ], [ 17.300500769300498, 52.949448871943751 ], [ 17.300522841225852, 52.949356826571147 ], [ 17.300527652056136, 52.949336660481919 ], [ 17.300526649719874, 52.949255886426471 ], [ 17.30052582544841, 52.94921234712659 ], [ 17.30052500470147, 52.949168717943934 ], [ 17.300526085740419, 52.949087973683874 ], [ 17.300559104899158, 52.94871288624001 ], [ 17.300580537801636, 52.948470014266199 ], [ 17.30058140002274, 52.948459414517586 ], [ 17.300592726518868, 52.948341404700642 ], [ 17.300640233238923, 52.948151246552804 ], [ 17.300678765600271, 52.947996303662599 ], [ 17.300718504925168, 52.947837151172912 ], [ 17.300761263395074, 52.947665541171972 ], [ 17.300773111335673, 52.947617776374301 ], [ 17.300799179854678, 52.947389539752187 ], [ 17.300805516633346, 52.947334231707146 ], [ 17.300862375165831, 52.947019380324392 ], [ 17.300855615957332, 52.946975306479246 ], [ 17.300924217946339, 52.946736886088942 ], [ 17.300963058127003, 52.946669002539444 ], [ 17.301021560917054, 52.946536288706525 ], [ 17.300827200829712, 52.946496097355137 ], [ 17.300686465455481, 52.946481853827486 ], [ 17.300163362248615, 52.946342979490126 ], [ 17.300082169127286, 52.946325270257461 ], [ 17.300052201808938, 52.946318726082538 ], [ 17.299940896217606, 52.946294380560303 ], [ 17.299867526376296, 52.946278401906511 ], [ 17.299656281877873, 52.94623221132494 ], [ 17.299601420897304, 52.946218835626887 ], [ 17.299502437074366, 52.946483890315463 ], [ 17.299783628612282, 52.946519480719374 ], [ 17.299754496160698, 52.946632109535592 ], [ 17.299706409041228, 52.946818032234944 ], [ 17.299698340765158, 52.946849123501813 ], [ 17.299997740351355, 52.946876070575534 ], [ 17.299926005074035, 52.947099336898596 ], [ 17.299917718925904, 52.947173952589573 ], [ 17.29973381560832, 52.947383382973719 ], [ 17.299732916464208, 52.947387327155454 ], [ 17.299721415160089, 52.947437614939382 ], [ 17.299670269641936, 52.947697688490628 ], [ 17.299754665422771, 52.947702133744116 ], [ 17.299735052696441, 52.947997192752005 ], [ 17.299924210328179, 52.948003136909463 ], [ 17.299911549891352, 52.948120947727837 ], [ 17.299867101821576, 52.948119142635477 ], [ 17.299387765472613, 52.948086292605808 ], [ 17.299347813806328, 52.948349404070449 ], [ 17.299992221539547, 52.94839882545245 ], [ 17.299935340492116, 52.94866088547375 ], [ 17.299498120672556, 52.948620814345546 ], [ 17.299488016681664, 52.949034001317258 ], [ 17.299470253408472, 52.949137619587361 ], [ 17.299450738176976, 52.949251734928161 ], [ 17.299851790652799, 52.949284004141106 ], [ 17.299781315854236, 52.949528152785859 ] ] ], [ [ [ 17.305650399870572, 52.943855835332776 ], [ 17.305663720953337, 52.943804493750406 ], [ 17.305520277636251, 52.943775917956231 ], [ 17.305394857449144, 52.943750926557115 ], [ 17.304993182317549, 52.943697712497254 ], [ 17.304974477089647, 52.943764895322744 ], [ 17.304904986779484, 52.944076240897118 ], [ 17.305576289235695, 52.944140765046591 ], [ 17.305650399870572, 52.943855835332776 ] ] ], [ [ [ 17.306304158657436, 52.943804884526429 ], [ 17.306190386341214, 52.944239877204687 ], [ 17.3064787403151, 52.94428006652489 ], [ 17.306610166956258, 52.943845074250731 ], [ 17.306304158657436, 52.943804884526429 ] ] ], [ [ [ 17.30611114247424, 52.945438118438716 ], [ 17.305676825277242, 52.94542012223009 ], [ 17.305577320857637, 52.945897971837212 ], [ 17.30590210384144, 52.945937413185383 ], [ 17.30611114247424, 52.945438118438716 ] ] ], [ [ [ 17.306900039943187, 52.946689446244633 ], [ 17.307069757976183, 52.946236084894622 ], [ 17.306794664974603, 52.946196731556718 ], [ 17.306537244907915, 52.946158528788779 ], [ 17.306214703737748, 52.946121825359334 ], [ 17.306010531734856, 52.946096431487838 ], [ 17.305907155775753, 52.946082456968256 ], [ 17.305693151387093, 52.946053414980376 ], [ 17.305513473933889, 52.946033675565481 ], [ 17.305428499171882, 52.946253608599989 ], [ 17.305414025001337, 52.946292522964157 ], [ 17.305258905177119, 52.946280597830089 ], [ 17.30520785313248, 52.946470617241943 ], [ 17.3051749853134, 52.946667730902035 ], [ 17.305225601131269, 52.946671690444539 ], [ 17.305097391105164, 52.946953959545752 ], [ 17.305073443364794, 52.947006678324058 ], [ 17.304771965439237, 52.94695282449549 ], [ 17.304620635056633, 52.946920088184733 ], [ 17.30458492879087, 52.946965084733122 ], [ 17.304539506677841, 52.947041509066977 ], [ 17.304498937623148, 52.947104242907223 ], [ 17.304775290287456, 52.947160976545426 ], [ 17.30510511096659, 52.947228724572803 ], [ 17.305712616575214, 52.947353491916658 ], [ 17.305821221608692, 52.947378512947417 ], [ 17.306432875280876, 52.947519163899585 ], [ 17.306634298161352, 52.947565562098113 ], [ 17.306540671732719, 52.947469618433509 ], [ 17.306558333224306, 52.94731860313879 ], [ 17.306560976686185, 52.947315999796558 ], [ 17.305819461566003, 52.94715830564413 ], [ 17.305854052287344, 52.947018361677422 ], [ 17.306688610194044, 52.947148222377493 ], [ 17.306753568137275, 52.946829632782105 ], [ 17.306841910597932, 52.946835927904786 ], [ 17.306900039943187, 52.946689446244633 ] ] ], [ [ [ 17.30882616329006, 52.946503285940636 ], [ 17.308621153430192, 52.946957226506854 ], [ 17.308772311752172, 52.946994451892337 ], [ 17.308955030821629, 52.947039410812316 ], [ 17.309003740346277, 52.946954847737707 ], [ 17.309066682832594, 52.94696725488209 ], [ 17.30919287707782, 52.946713101936368 ], [ 17.309239932092311, 52.946613676310328 ], [ 17.309257000807609, 52.946576866875333 ], [ 17.309114284467476, 52.94655226289197 ], [ 17.308885493657424, 52.946512853857861 ], [ 17.30882616329006, 52.946503285940636 ] ] ], [ [ [ 17.309856562155719, 52.948032055471465 ], [ 17.310184308803123, 52.948111361122848 ], [ 17.310261190115856, 52.947999229101192 ], [ 17.31031670306945, 52.947919618628632 ], [ 17.310390748846675, 52.947830558923144 ], [ 17.310081393108995, 52.947753134179059 ], [ 17.310026929184922, 52.947752359566174 ], [ 17.309812788478961, 52.947852556535047 ], [ 17.309235531042901, 52.947726018627549 ], [ 17.309123071045292, 52.947865777589612 ], [ 17.309566956834242, 52.9479674109797 ], [ 17.309856562155719, 52.948032055471465 ] ] ], [ [ [ 17.30109923101303, 52.950534286065249 ], [ 17.301120886705466, 52.950481785535196 ], [ 17.300830517444481, 52.950422794203874 ], [ 17.300801562638004, 52.950473911677705 ], [ 17.300617904353579, 52.950437560398072 ], [ 17.30055610260132, 52.950650446915866 ], [ 17.301041605758648, 52.950701456713404 ], [ 17.30109923101303, 52.950534286065249 ] ] ], [ [ [ 17.307708362027853, 52.949800779602427 ], [ 17.307333140124783, 52.950392394321959 ], [ 17.307742293768399, 52.950457847446096 ], [ 17.3083377224679, 52.950561474651863 ], [ 17.308508147203884, 52.950589891354944 ], [ 17.308496171597763, 52.950618229563034 ], [ 17.3083948323263, 52.95083793157341 ], [ 17.308325970130866, 52.950977066455579 ], [ 17.308734297551137, 52.951040975494735 ], [ 17.309122228906364, 52.951108639863989 ], [ 17.309332571820207, 52.950644342318057 ], [ 17.310209059232342, 52.950753667433823 ], [ 17.310340785686311, 52.950571628180576 ], [ 17.310261936419746, 52.950504945981834 ], [ 17.310041625510284, 52.950468987430533 ], [ 17.310296294668479, 52.949971144182285 ], [ 17.310234376713847, 52.949897957760975 ], [ 17.309916672325688, 52.949999919735717 ], [ 17.309804633656537, 52.9500283636565 ], [ 17.3097500404294, 52.950038468957288 ], [ 17.309706871276276, 52.950041991786257 ], [ 17.309676388456683, 52.950040928632212 ], [ 17.309645909143814, 52.950039775587491 ], [ 17.309504348477216, 52.950027239585367 ], [ 17.309473908246677, 52.950135805004983 ], [ 17.309461435627181, 52.950176906686792 ], [ 17.309448814166242, 52.95021800624955 ], [ 17.309399294851811, 52.950296532465735 ], [ 17.309353926115733, 52.950344990246222 ], [ 17.309191799049803, 52.950416877904942 ], [ 17.309100279332899, 52.9504231299521 ], [ 17.308698564729671, 52.950357787399817 ], [ 17.308851667770213, 52.950059231369224 ], [ 17.308911992345237, 52.94994038941222 ], [ 17.308925700675612, 52.949913424812991 ], [ 17.309106843090913, 52.949945680446234 ], [ 17.309266916998503, 52.949976017234036 ], [ 17.309288766492841, 52.949980824761838 ], [ 17.309479022698881, 52.949592324221669 ], [ 17.308761673538314, 52.949446317799463 ], [ 17.308921117338389, 52.949118713691703 ], [ 17.309001823535251, 52.948946831615324 ], [ 17.309012229220393, 52.948893829433032 ], [ 17.309015945279565, 52.948874906502049 ], [ 17.309011007637046, 52.948852622839595 ], [ 17.30977547599025, 52.948851538563204 ], [ 17.309830352350307, 52.948605004053157 ], [ 17.309572906517793, 52.948521211702044 ], [ 17.309455290940893, 52.948490400175622 ], [ 17.30912532978336, 52.948448742846672 ], [ 17.308916648735647, 52.948431743573408 ], [ 17.308880667822429, 52.948403712058173 ], [ 17.308841471868607, 52.948389394488544 ], [ 17.308756736398987, 52.948374518668274 ], [ 17.308620680415768, 52.948362239790455 ], [ 17.308576868307043, 52.948364550410368 ], [ 17.307994969602507, 52.94953873548085 ], [ 17.308432795426526, 52.949605673747563 ], [ 17.308634458604594, 52.949638581973147 ], [ 17.308670900252693, 52.949647194633314 ], [ 17.308582788763097, 52.949852336126121 ], [ 17.308512319295723, 52.949838112885423 ], [ 17.307822708309139, 52.949717676835192 ], [ 17.307742952749194, 52.949708481824374 ], [ 17.307708362027853, 52.949800779602427 ] ] ], [ [ [ 17.301607097351631, 52.949809312962749 ], [ 17.301194102767766, 52.949720670947244 ], [ 17.301509052005802, 52.949788306165722 ], [ 17.301607097351631, 52.949809312962749 ] ] ], [ [ [ 17.317708747011768, 52.939174494725627 ], [ 17.317700859462725, 52.939458390806514 ], [ 17.317696623884476, 52.939609777653551 ], [ 17.317859733399629, 52.939610917931404 ], [ 17.317862094680503, 52.939454108578488 ], [ 17.317876816992801, 52.939454496880572 ], [ 17.317885071878351, 52.939176451627056 ], [ 17.317708747011768, 52.939174494725627 ] ] ], [ [ [ 17.316394648969752, 52.940695350502061 ], [ 17.3175961617372, 52.940727704197883 ], [ 17.317609501337294, 52.940485568545242 ], [ 17.31762174863114, 52.940238966416018 ], [ 17.317616868264945, 52.940027105605473 ], [ 17.317592864779158, 52.939824686744046 ], [ 17.317271425866767, 52.939610951010501 ], [ 17.31691418042185, 52.939337981033326 ], [ 17.316798816639231, 52.939272674316349 ], [ 17.316650831357791, 52.939188738874954 ], [ 17.316601664775234, 52.939910742281171 ], [ 17.316492663619982, 52.939938426011103 ], [ 17.316178149416515, 52.939941343610123 ], [ 17.316006998848067, 52.939936399815792 ], [ 17.316000006786151, 52.940066613349266 ], [ 17.316001895331894, 52.940251811759076 ], [ 17.315231724260421, 52.94023118051426 ], [ 17.31493846717807, 52.940223334530842 ], [ 17.314917733618142, 52.94050021341053 ], [ 17.314875173869126, 52.940898192011076 ], [ 17.314864225266259, 52.941022863463644 ], [ 17.314861196743347, 52.941100792252442 ], [ 17.314904493493703, 52.94110140632079 ], [ 17.314896763916494, 52.941185383866561 ], [ 17.315323166902807, 52.941195747400243 ], [ 17.316071920209239, 52.941213933701881 ], [ 17.316112354711425, 52.940960968539429 ], [ 17.316120374599222, 52.940819617919018 ], [ 17.316127795373529, 52.940689860134903 ], [ 17.316394648969752, 52.940695350502061 ] ] ], [ [ [ 17.316997292305793, 52.943026492140071 ], [ 17.316965170495532, 52.943025587476129 ], [ 17.316891440305433, 52.943417729048903 ], [ 17.317225266862554, 52.943439544632895 ], [ 17.317250192961311, 52.942992931907817 ], [ 17.317186578066327, 52.943005610785114 ], [ 17.31709957701738, 52.943022455030579 ], [ 17.317042801985856, 52.943027676358817 ], [ 17.316997292305793, 52.943026492140071 ] ] ], [ [ [ 17.308918960339032, 52.945999898038018 ], [ 17.308663953423352, 52.945945526404486 ], [ 17.308484764460271, 52.946297181192868 ], [ 17.308790034708672, 52.946345315844937 ], [ 17.308918960339032, 52.945999898038018 ] ] ], [ [ [ 17.307528007461919, 52.944573819342025 ], [ 17.307608617110748, 52.944495196957114 ], [ 17.307812622643294, 52.944107488591676 ], [ 17.307732764688442, 52.944099642004097 ], [ 17.307363863941806, 52.94404573366149 ], [ 17.307030492527307, 52.943997006920775 ], [ 17.30683857221393, 52.944416776780933 ], [ 17.306816606679323, 52.944464577849068 ], [ 17.307162170153973, 52.94451761578209 ], [ 17.307528007461919, 52.944573819342025 ] ] ], [ [ [ 17.308233113404899, 52.94432557381176 ], [ 17.308092427320375, 52.944661178488346 ], [ 17.308332161074699, 52.944698406671598 ], [ 17.310264369258498, 52.945027833051128 ], [ 17.310029209644714, 52.945707475912961 ], [ 17.310118594076098, 52.945671750052647 ], [ 17.310609536045511, 52.945628158297048 ], [ 17.310640768503237, 52.945632829201195 ], [ 17.310833173678805, 52.945662105650534 ], [ 17.31107601582714, 52.945139495645684 ], [ 17.311187569910782, 52.945156498398063 ], [ 17.311303182946872, 52.944888608295528 ], [ 17.310994419214676, 52.944840422727175 ], [ 17.311040307407389, 52.94472874894916 ], [ 17.310421081043103, 52.944626415141592 ], [ 17.310038444380083, 52.944573309095276 ], [ 17.309913156496854, 52.944873251650279 ], [ 17.309887543736199, 52.944934491307322 ], [ 17.309750799997097, 52.94491339045463 ], [ 17.309646765684509, 52.944897251424301 ], [ 17.309672676357945, 52.944836016055071 ], [ 17.309914321237624, 52.944266671353127 ], [ 17.31000404096218, 52.944054177186167 ], [ 17.309694981232695, 52.944008052056851 ], [ 17.309648734887706, 52.944025740442157 ], [ 17.309455420245879, 52.944004643807432 ], [ 17.309413600384453, 52.943992807179882 ], [ 17.309363917002603, 52.943984096230906 ], [ 17.30915552601056, 52.944467937312218 ], [ 17.30905234857185, 52.944718600504451 ], [ 17.308730647539758, 52.944683139700949 ], [ 17.308843743448929, 52.944420961454568 ], [ 17.308531960887297, 52.944373985545916 ], [ 17.308233113404899, 52.94432557381176 ] ] ], [ [ [ 17.320687735075694, 52.945502124915265 ], [ 17.321413154836748, 52.946046575236856 ], [ 17.321953745107773, 52.945781445248237 ], [ 17.321281424690518, 52.945234420927243 ], [ 17.321090645598801, 52.945320578864042 ], [ 17.320687735075694, 52.945502124915265 ] ] ], [ [ [ 17.311163129007941, 52.948745723268885 ], [ 17.31093191651496, 52.949020329003076 ], [ 17.31127696113936, 52.949210045061889 ], [ 17.31144124990783, 52.949300334032841 ], [ 17.311455329500728, 52.949313484425012 ], [ 17.31148194608167, 52.949283825123274 ], [ 17.311548159039329, 52.94919708159258 ], [ 17.311627600164091, 52.949084175694708 ], [ 17.311642729925627, 52.94906271688432 ], [ 17.311765789548048, 52.94888882673601 ], [ 17.311163129007941, 52.948745723268885 ] ] ] ] } }
]
}
