{
"type": "FeatureCollection",
"name": "zabudowa_2000",
"crs": { "type": "name", "properties": { "name": "urn:ogc:def:crs:OGC:1.3:CRS84" } },
"features": [
{ "type": "Feature", "properties": { "TERYT": "3028", "LOKALNYID": "F50D9BBC-10C8-79F2-E043-CA2BA8C0F739", "WERSJAID": "2013-01-01T00:00:00", "PNAZW": "PL.PZGIK.308.BDOT10k", "GMLID": "OT_PTZB_A.14", "X_KOD": "PTZB02", "X_SKRKARTO": null, "X_SKRK_NIL": "inapplicable", "X_KATDOKG": "przyblizony", "X_DOKLGEOM": null, "X_ZRODLOG": "ortofotomapa", "X_ZRODLOA": "pomiarTerenowy", "X_KATIST": null, "X_KATI_NIL": "inapplicable", "X_RODZREPG": "zasiegUmowny", "X_UWAGI": null, "X_UZYTKOWN": "Uzytkownik30.xml", "X_AKTG": "2004-05-14", "X_AKTA": "2012-01-30", "POCZWERS": "2012-04-23", "KONIECWERS": null, "X_DATAUTW": "2012-04-23", "X_INFDOD": null, "KOD10K": null, "KOD10K_NIL": "inapplicable", "KOD25K": "0025_315", "KOD25K_NIL": null, "KOD50K": "0050_315", "KOD50K_NIL": null, "KOD100K": "0100_315", "KOD100_NIL": null, "KOD250K": null, "KOD250_NIL": "inapplicable", "KOD500K": null, "KOD500_NIL": "inapplicable", "KOD1000K": null, "KOD1000_NI": "inapplicable", "RODZAJ": "jednorodzinna", "CHARAKTER": "luzna", "ROSLINNOSC": "brak", "ROSLIN_NIL": null, "PRNG_LOKID": null, "PRNG_PNAZW": null, "PRNG_WERID": null, "area": 1879.41 }, "geometry": { "type": "MultiPolygon", "coordinates": [ [ [ [ 17.279312816093377, 52.937340020299168 ], [ 17.27967595434021, 52.937371809357053 ], [ 17.279932608974807, 52.937303578750523 ], [ 17.280113028664744, 52.937021911501233 ], [ 17.279613926705231, 52.936886620322078 ], [ 17.279341673402843, 52.936826559280462 ], [ 17.279276646289848, 52.936934796540392 ], [ 17.279161102800984, 52.937126929336237 ], [ 17.279004712563051, 52.937335557672284 ], [ 17.279024517899334, 52.937331617694625 ], [ 17.279312816093377, 52.937340020299168 ] ] ], [ [ [ 17.285372021426227, 52.938032061630992 ], [ 17.285024458754041, 52.938362765912501 ], [ 17.285342757291051, 52.938482294659536 ], [ 17.285972251663061, 52.937880551429359 ], [ 17.285840731652424, 52.937829820216429 ], [ 17.285658628080178, 52.937759562933664 ], [ 17.285372021426227, 52.938032061630992 ] ] ], [ [ [ 17.294592627956, 52.941878519634216 ], [ 17.294691132357098, 52.941718767349414 ], [ 17.295017273444046, 52.941760457940347 ], [ 17.295051972371802, 52.94169305478875 ], [ 17.295074583755735, 52.941610191183578 ], [ 17.295117627491489, 52.941480945509845 ], [ 17.295174881357589, 52.941440847504389 ], [ 17.295277172322749, 52.941413896359471 ], [ 17.29528499761404, 52.941267867429254 ], [ 17.294838813360368, 52.941192755972935 ], [ 17.294504007471279, 52.941219247216885 ], [ 17.29443633329225, 52.941149566916437 ], [ 17.29431933157781, 52.941190965241368 ], [ 17.294387002094883, 52.941260735489301 ], [ 17.294219261362326, 52.941358243025711 ], [ 17.293936374184671, 52.941245632132279 ], [ 17.293962193795799, 52.941221271283624 ], [ 17.29398648662945, 52.941197877770612 ], [ 17.29401176434855, 52.941175937323315 ], [ 17.293902298028893, 52.941071212264937 ], [ 17.293768883655606, 52.940943300193474 ], [ 17.293585390920494, 52.94112709624946 ], [ 17.292757406659881, 52.940840198383789 ], [ 17.292831947142922, 52.94074562769935 ], [ 17.291941384529689, 52.940388621502663 ], [ 17.291827612213464, 52.940502107235538 ], [ 17.291623191689109, 52.940427098374833 ], [ 17.291553122183661, 52.940403247831597 ], [ 17.291135480476257, 52.940253978224305 ], [ 17.291326351340345, 52.940053114769043 ], [ 17.291592570831206, 52.940150113762634 ], [ 17.291755313144368, 52.940190855170513 ], [ 17.291834823058927, 52.940220686974008 ], [ 17.292078269465449, 52.93998505462082 ], [ 17.292251515914753, 52.939815772673001 ], [ 17.292410352842122, 52.939713733212358 ], [ 17.292245464829474, 52.939667026264935 ], [ 17.291967352045546, 52.939592341020251 ], [ 17.291964213605663, 52.939596432825425 ], [ 17.291627652700992, 52.939505258149858 ], [ 17.291180109827046, 52.939858104988311 ], [ 17.291159691625182, 52.939881373798528 ], [ 17.290699532313067, 52.940406798922602 ], [ 17.291057143784951, 52.940538119337504 ], [ 17.290536884901773, 52.941067167183071 ], [ 17.291054745099778, 52.941275220869862 ], [ 17.291600989189117, 52.940737800808002 ], [ 17.292052952549621, 52.940903717073347 ], [ 17.292511973423586, 52.941072284138784 ], [ 17.293323321005282, 52.941389623915519 ], [ 17.293476970001123, 52.941449747774953 ], [ 17.293630180142447, 52.941509685263597 ], [ 17.294252703456728, 52.941753169542601 ], [ 17.294498845766611, 52.941838721955349 ], [ 17.294592627956, 52.941878519634216 ] ] ], [ [ [ 17.295463452090562, 52.941905085216781 ], [ 17.295205051645624, 52.941834905324242 ], [ 17.295081513355111, 52.941977843942226 ], [ 17.294948092001363, 52.941933175674841 ], [ 17.294890188011781, 52.942008196772676 ], [ 17.294957340032553, 52.94204009742846 ], [ 17.295305230916163, 52.942192129826992 ], [ 17.295549607665944, 52.942288626526981 ], [ 17.295603800518805, 52.942307480473609 ], [ 17.295786360297306, 52.942370803941813 ], [ 17.295846870034477, 52.942391816841159 ], [ 17.296086936458568, 52.942476829101658 ], [ 17.296186214764031, 52.942511438082825 ], [ 17.296358076611291, 52.942566693145061 ], [ 17.296506613728145, 52.94261693702682 ], [ 17.29660593153735, 52.942650556955577 ], [ 17.296894616988229, 52.942714500788718 ], [ 17.297155839547258, 52.942768877157469 ], [ 17.297411812746223, 52.942824256921796 ], [ 17.297456982687709, 52.94283407734946 ], [ 17.297560086876093, 52.942854710442738 ], [ 17.29768761050817, 52.942875243648878 ], [ 17.297969038293019, 52.942926939912084 ], [ 17.298024790280166, 52.942936462044123 ], [ 17.298244932015802, 52.942971721334551 ], [ 17.298466296838253, 52.943009965518677 ], [ 17.298510659125469, 52.943017615584807 ], [ 17.298791007178014, 52.943062729317781 ], [ 17.298997513573866, 52.943092665793436 ], [ 17.299038343829896, 52.943099275832957 ], [ 17.299098847042053, 52.943109135274767 ], [ 17.299308968628157, 52.943145598133029 ], [ 17.299395479554253, 52.943160416266736 ], [ 17.299498847074307, 52.943178173579504 ], [ 17.299561765691564, 52.943183390839025 ], [ 17.299614517646503, 52.943102396717869 ], [ 17.299662513093409, 52.943028798941285 ], [ 17.299767088047748, 52.942867696623551 ], [ 17.299949952986474, 52.94256274248589 ], [ 17.30004057865985, 52.942419426932062 ], [ 17.300188014324984, 52.942099126574838 ], [ 17.300274453239581, 52.941933447567003 ], [ 17.300312410522974, 52.9418614146526 ], [ 17.300234743931426, 52.941712183958359 ], [ 17.300161234903936, 52.941570836857352 ], [ 17.300143865552652, 52.941535424561003 ], [ 17.300104030598181, 52.941454094820195 ], [ 17.300018123822952, 52.941450527446968 ], [ 17.299969668878333, 52.941448575086078 ], [ 17.299871969258106, 52.941445828133475 ], [ 17.299286991043878, 52.941432419906441 ], [ 17.299279312971279, 52.941518106080935 ], [ 17.299302973565304, 52.94172331212134 ], [ 17.299311968776738, 52.941801412782169 ], [ 17.299312985176915, 52.94187418312093 ], [ 17.299251625948422, 52.942406157777036 ], [ 17.299306522890575, 52.942699974532644 ], [ 17.297389058853259, 52.942243593173281 ], [ 17.297160393447189, 52.942175294622558 ], [ 17.297048019800858, 52.942383138034749 ], [ 17.296788548400102, 52.942291824043245 ], [ 17.296504998143838, 52.942191980346387 ], [ 17.296239272356583, 52.942066670715015 ], [ 17.296009969961531, 52.94201086148788 ], [ 17.295750587534087, 52.941947695512681 ], [ 17.295463452090562, 52.941905085216781 ] ] ], [ [ [ 17.289762540138991, 52.940147078224427 ], [ 17.289088633985696, 52.939894106626397 ], [ 17.288785174645096, 52.939779028656659 ], [ 17.287993685361773, 52.94068341574706 ], [ 17.289316724700306, 52.941146112569484 ], [ 17.290078516407718, 52.940265751259197 ], [ 17.289762540138991, 52.940147078224427 ] ] ], [ [ [ 17.292432687130798, 52.941229516844288 ], [ 17.292360794953495, 52.941202762737255 ], [ 17.292298432269437, 52.941179742877061 ], [ 17.292219781131813, 52.941150733142692 ], [ 17.292147733353538, 52.941124156534386 ], [ 17.292075076365592, 52.941097930856778 ], [ 17.291740483309553, 52.940971621040802 ], [ 17.291308623691712, 52.94147767006136 ], [ 17.291562421043089, 52.941569004482318 ], [ 17.291785526825272, 52.94164964472548 ], [ 17.291940672965982, 52.941705745113225 ], [ 17.292084079441835, 52.941757539620014 ], [ 17.292258749499755, 52.941820665216085 ], [ 17.292470259452784, 52.941897180428846 ], [ 17.292863505134072, 52.942020014066635 ], [ 17.293133689442573, 52.9421036664206 ], [ 17.293441780200805, 52.942184984758029 ], [ 17.293916527310984, 52.942291088784145 ], [ 17.294028357183759, 52.94232042536084 ], [ 17.294201138120982, 52.942112154003063 ], [ 17.294636611469304, 52.942232727781288 ], [ 17.294577677878415, 52.942317398000263 ], [ 17.294487369442159, 52.942440838848604 ], [ 17.29442742447511, 52.942522806696999 ], [ 17.294509827187508, 52.942679843508415 ], [ 17.294517023336233, 52.94269370655789 ], [ 17.294649977285371, 52.942947067685182 ], [ 17.294731956415426, 52.943103558644438 ], [ 17.294761180896565, 52.943159196957701 ], [ 17.295328732744306, 52.943279397616855 ], [ 17.295605096575507, 52.943422039039596 ], [ 17.295768081651165, 52.943297931094904 ], [ 17.29610195648355, 52.943481146632308 ], [ 17.295687641468916, 52.943594545493163 ], [ 17.295679213655941, 52.943596852795054 ], [ 17.295640245896838, 52.943546650805608 ], [ 17.295354908379931, 52.943628443476598 ], [ 17.295394471051633, 52.943678654095557 ], [ 17.295189007187457, 52.943735781480456 ], [ 17.295451564486349, 52.944025175675947 ], [ 17.295474736327996, 52.944049250411553 ], [ 17.296049994535522, 52.943871430172784 ], [ 17.296135027538185, 52.943848097888974 ], [ 17.296481887086173, 52.943761609580172 ], [ 17.296533537828914, 52.943746701762215 ], [ 17.296701437933088, 52.94369829667086 ], [ 17.296892371373712, 52.94353726565879 ], [ 17.296962907731853, 52.94346983768969 ], [ 17.297231231564787, 52.94302887475574 ], [ 17.297297125269218, 52.942909039049248 ], [ 17.297027707604645, 52.942854815338428 ], [ 17.296959995184494, 52.942839005857856 ], [ 17.296812029220046, 52.942804509016824 ], [ 17.296756539458706, 52.942792112215372 ], [ 17.296672715011976, 52.942773373609249 ], [ 17.296452442616928, 52.942722551104573 ], [ 17.296420247617043, 52.942753835850745 ], [ 17.296298088830639, 52.942706668098246 ], [ 17.296021208715295, 52.942615102811082 ], [ 17.295634140276288, 52.942452168274173 ], [ 17.295464841806854, 52.942403693907018 ], [ 17.295188777524913, 52.942283899382495 ], [ 17.295129203050649, 52.942258043180551 ], [ 17.294911100318739, 52.942174873023113 ], [ 17.294731865172892, 52.942106559660445 ], [ 17.294474018797505, 52.94200815918046 ], [ 17.294285978015012, 52.941936661009713 ], [ 17.294246998150211, 52.941920902717563 ], [ 17.294156823541613, 52.94188579326714 ], [ 17.294096247890003, 52.941862710089005 ], [ 17.293934696465112, 52.941799056121049 ], [ 17.293868980714418, 52.941774190289784 ], [ 17.293792874490958, 52.941744768491638 ], [ 17.293725401761947, 52.941719157884464 ], [ 17.29359735399915, 52.941670463810659 ], [ 17.29353916703942, 52.941654789161817 ], [ 17.293496152998777, 52.94164319953282 ], [ 17.293428609853628, 52.941619386404561 ], [ 17.293438053720337, 52.941610169010836 ], [ 17.293351068808317, 52.941577263147202 ], [ 17.293294316465403, 52.941555403601726 ], [ 17.293217183671828, 52.941525606950464 ], [ 17.292994660156769, 52.941441470382948 ], [ 17.292885251465524, 52.941399608431453 ], [ 17.292797403000151, 52.941365970283911 ], [ 17.292725655614674, 52.941339308414612 ], [ 17.292654057103135, 52.941312648640597 ], [ 17.292614745436882, 52.941297784367016 ], [ 17.29256809718898, 52.941280206589305 ], [ 17.292504140121668, 52.941256084729353 ], [ 17.292432687130798, 52.941229516844288 ] ] ], [ [ [ 17.286865424499993, 52.942691638154201 ], [ 17.286842278621137, 52.942712258844502 ], [ 17.28678286303148, 52.942772916401807 ], [ 17.286783086028969, 52.942774808213187 ], [ 17.286323622201699, 52.942587416608767 ], [ 17.286128189613933, 52.942507345132512 ], [ 17.285316062367023, 52.943321034137981 ], [ 17.28633285551707, 52.943577983454794 ], [ 17.286430128977344, 52.94372345925207 ], [ 17.286624360059392, 52.943969709268657 ], [ 17.286681890432579, 52.944002015455624 ], [ 17.286610889390076, 52.944084539481267 ], [ 17.286960936703405, 52.944513261707904 ], [ 17.28704648602525, 52.944488324543059 ], [ 17.287455996188424, 52.944369220608792 ], [ 17.28757485052844, 52.944515006465423 ], [ 17.287684314426041, 52.944563079451285 ], [ 17.287713286132607, 52.944575907736684 ], [ 17.287789559541999, 52.944559649806365 ], [ 17.287871837969888, 52.944542129361864 ], [ 17.288278306094966, 52.944541510589559 ], [ 17.288448942361743, 52.94461267759236 ], [ 17.289429404678387, 52.944486051720673 ], [ 17.290180417937698, 52.944405219617714 ], [ 17.291136401171176, 52.944408360585797 ], [ 17.290306513108938, 52.944129770438778 ], [ 17.290187951390511, 52.944165116785328 ], [ 17.29015159519372, 52.944196070179608 ], [ 17.289875842687028, 52.94407977519613 ], [ 17.289482974933325, 52.943913139795491 ], [ 17.288810533653852, 52.943632938477194 ], [ 17.2883443039646, 52.943431697616795 ], [ 17.288309756794867, 52.943416810629792 ], [ 17.288246624599818, 52.943390629911754 ], [ 17.287899326276015, 52.943246589359262 ], [ 17.287429154163089, 52.943054910877954 ], [ 17.287498652126487, 52.942987743270749 ], [ 17.287525794195876, 52.942963942458597 ], [ 17.287554154957107, 52.942939439739959 ], [ 17.287579394031987, 52.942922356473076 ], [ 17.286919227401469, 52.942641152010175 ], [ 17.286902553727476, 52.942663754624341 ], [ 17.286865424499993, 52.942691638154201 ] ] ], [ [ [ 17.299164743231081, 52.944514741584982 ], [ 17.299939974040939, 52.944687222696146 ], [ 17.299748467520999, 52.945020840234918 ], [ 17.299464829001337, 52.944952693513351 ], [ 17.299444018086728, 52.945023982289449 ], [ 17.299331791237549, 52.945410346741802 ], [ 17.299224390320013, 52.945392801386731 ], [ 17.299167729130634, 52.945580939435992 ], [ 17.299283855398286, 52.945592404356844 ], [ 17.299408506378366, 52.945606689161728 ], [ 17.299324392183017, 52.945758371246498 ], [ 17.299312278660295, 52.945755949539972 ], [ 17.299294206812906, 52.945795351297235 ], [ 17.299276006594656, 52.945849410282904 ], [ 17.299237237180964, 52.945964778903978 ], [ 17.299307130215158, 52.945978279998968 ], [ 17.299569983375914, 52.946029616511069 ], [ 17.299652801233222, 52.946043841965626 ], [ 17.299764067764105, 52.946053977802258 ], [ 17.300017731363539, 52.946138457001034 ], [ 17.300844190706712, 52.946328525508143 ], [ 17.301083787933646, 52.946376918021109 ], [ 17.301107378322598, 52.946306837854031 ], [ 17.301163448198928, 52.946198191182759 ], [ 17.301203813357422, 52.946155960236368 ], [ 17.301230087150653, 52.946078184179662 ], [ 17.301238842712124, 52.946052318747455 ], [ 17.301252933120498, 52.946023292001499 ], [ 17.301318910288682, 52.945893562732792 ], [ 17.301348903806051, 52.945846237150889 ], [ 17.301409836271144, 52.945750250486356 ], [ 17.301439296873845, 52.945697521288821 ], [ 17.301495354623214, 52.945604342748027 ], [ 17.301509550348808, 52.945572619489731 ], [ 17.301542169711258, 52.945500060246815 ], [ 17.301588069975807, 52.945422924389973 ], [ 17.301634686818865, 52.945350295403713 ], [ 17.301705689593636, 52.945251844475827 ], [ 17.301731700786323, 52.945207339731027 ], [ 17.301795867987259, 52.94510474406794 ], [ 17.301859607957535, 52.94500924696473 ], [ 17.30193104642353, 52.944914849111562 ], [ 17.301687904228004, 52.944843114957365 ], [ 17.301565520784038, 52.94480898977146 ], [ 17.301527855421003, 52.944786147997029 ], [ 17.301329727187596, 52.944720722327979 ], [ 17.301167866443222, 52.944668225618024 ], [ 17.300950932804241, 52.944596414992873 ], [ 17.300934620637136, 52.94459096562413 ], [ 17.300906878434734, 52.9445808561577 ], [ 17.300879132722827, 52.944570836567479 ], [ 17.300807382888628, 52.944547776938784 ], [ 17.300594673959225, 52.944478364327473 ], [ 17.300459143043508, 52.944434067387498 ], [ 17.300421516260144, 52.944421658028411 ], [ 17.300323778821742, 52.944389323010746 ], [ 17.300194842096122, 52.944347728149801 ], [ 17.300017100972784, 52.944290236219366 ], [ 17.299837093143541, 52.944233610914722 ], [ 17.299647597385452, 52.944172173042283 ], [ 17.299483490476788, 52.944116314343923 ], [ 17.29944011059694, 52.944102563269816 ], [ 17.299386488558934, 52.9440880360549 ], [ 17.299451827708847, 52.943925293239914 ], [ 17.299495107188317, 52.94382392868431 ], [ 17.29953492894872, 52.943723413956533 ], [ 17.299572300797305, 52.94363221718168 ], [ 17.299607668605553, 52.943421290938332 ], [ 17.29958868532729, 52.943286569479753 ], [ 17.299447839469508, 52.943267826181298 ], [ 17.299369441376388, 52.943254922867062 ], [ 17.299266194316157, 52.943237886630691 ], [ 17.299021364290049, 52.943198138894658 ], [ 17.299006420921888, 52.943195766572181 ], [ 17.298925511264514, 52.943182377342239 ], [ 17.29889089847314, 52.943176665677775 ], [ 17.298661019533974, 52.943139109776183 ], [ 17.298571547186327, 52.943123888966674 ], [ 17.298321145524991, 52.943081991534875 ], [ 17.298103723749836, 52.943045692154435 ], [ 17.298045183984406, 52.943038918050377 ], [ 17.297866112598598, 52.943007934017153 ], [ 17.297719650174923, 52.943014739100214 ], [ 17.297524745011586, 52.943136773525396 ], [ 17.297271059702723, 52.943413549368529 ], [ 17.297132040813349, 52.943560576015344 ], [ 17.297646168266116, 52.943661803982238 ], [ 17.297537377173263, 52.944107961013884 ], [ 17.297714602195715, 52.944083700208303 ], [ 17.297918732426332, 52.944049122540982 ], [ 17.298024253826121, 52.944034805907243 ], [ 17.298165147217215, 52.94402962938937 ], [ 17.298281987080635, 52.944034180701557 ], [ 17.298323147445174, 52.944039986312312 ], [ 17.298366380366843, 52.944046091389694 ], [ 17.29848032457523, 52.944063731250196 ], [ 17.298696947171468, 52.94409777013486 ], [ 17.298750918810978, 52.944107176488927 ], [ 17.298721645659494, 52.944170250021223 ], [ 17.298677593368065, 52.944260901214157 ], [ 17.298646918982545, 52.944253447218451 ], [ 17.298632335197837, 52.944283635734209 ], [ 17.298529124155429, 52.944261832941535 ], [ 17.298503790765455, 52.94430796550791 ], [ 17.298528449837054, 52.944316952194377 ], [ 17.298885161418873, 52.944430878668534 ], [ 17.299164743231081, 52.944514741584982 ] ] ], [ [ [ 17.295786833137914, 52.944676783114076 ], [ 17.295421916364106, 52.944783065443403 ], [ 17.295594159784809, 52.944991662774974 ], [ 17.29585188375388, 52.944919456012101 ], [ 17.295856148778675, 52.944947306477893 ], [ 17.295940774619112, 52.944938177896383 ], [ 17.295984749950527, 52.944925408555655 ], [ 17.296177064234612, 52.944869620076147 ], [ 17.296275104120344, 52.944841168152706 ], [ 17.296668466892523, 52.944727017173584 ], [ 17.296684128949437, 52.944722475250096 ], [ 17.296965659558715, 52.944642963063416 ], [ 17.296980715775575, 52.944638682216507 ], [ 17.296981615663199, 52.944665045478423 ], [ 17.297057010598198, 52.945372279820702 ], [ 17.297067347680567, 52.945469195850492 ], [ 17.297123100229641, 52.945486362693558 ], [ 17.29743439213139, 52.945339106717995 ], [ 17.297516725519493, 52.945301165613543 ], [ 17.297656827633464, 52.945236622579266 ], [ 17.297906742776572, 52.945128146441903 ], [ 17.297960785449291, 52.945109225280845 ], [ 17.29745492610736, 52.944584953248643 ], [ 17.297393825451191, 52.944522023963643 ], [ 17.297372214378214, 52.944496083385154 ], [ 17.297183523489178, 52.944270165675754 ], [ 17.296765754062385, 52.944391792640943 ], [ 17.296470121814757, 52.944477847144022 ], [ 17.296075992100082, 52.944592615992512 ], [ 17.295916051782555, 52.944639155852244 ], [ 17.295786833137914, 52.944676783114076 ] ] ], [ [ [ 17.280420989471008, 52.948212443302474 ], [ 17.28052024876196, 52.948382684247029 ], [ 17.279991683505443, 52.948517578184557 ], [ 17.280172461566583, 52.948839817292956 ], [ 17.280525092840453, 52.948868663091147 ], [ 17.281181615057928, 52.948784991086789 ], [ 17.280871089818639, 52.948103662001493 ], [ 17.280420989471008, 52.948212443302474 ] ] ], [ [ [ 17.281139800251083, 52.953921094644166 ], [ 17.281355322358735, 52.953976283232002 ], [ 17.281571599853265, 52.954031212549779 ], [ 17.28204640674026, 52.954138353330634 ], [ 17.282055903877247, 52.95408659926894 ], [ 17.282089395863316, 52.953944179863782 ], [ 17.282148076023688, 52.953511910641723 ], [ 17.282174492448057, 52.95337892181869 ], [ 17.281280393980229, 52.953274710902747 ], [ 17.281108253280543, 52.953901752368381 ], [ 17.281139800251083, 52.953921094644166 ] ] ], [ [ [ 17.288966678882137, 52.959702704629137 ], [ 17.289057390111264, 52.959721277797492 ], [ 17.28913043503956, 52.959730873067706 ], [ 17.289233065864796, 52.9597304620046 ], [ 17.289298779389409, 52.959718277805202 ], [ 17.2893700366456, 52.9596863881399 ], [ 17.289409061598125, 52.95964477137921 ], [ 17.289473887918355, 52.959655057530455 ], [ 17.289515448896893, 52.959485053099364 ], [ 17.289475707272349, 52.959393918658542 ], [ 17.289229620706809, 52.959323556081408 ], [ 17.288949374812567, 52.959250812558359 ], [ 17.288734894057889, 52.959590728167591 ], [ 17.288873480361115, 52.959675462019909 ], [ 17.288966678882137, 52.959702704629137 ] ] ], [ [ [ 17.277740136519238, 52.960770544149675 ], [ 17.278336768216441, 52.960958156125429 ], [ 17.278673193507704, 52.960580094977473 ], [ 17.278037564761306, 52.960433198836199 ], [ 17.277821753154168, 52.960658141582158 ], [ 17.277740136519238, 52.960770544149675 ] ] ], [ [ [ 17.294059958841949, 52.961697883952489 ], [ 17.294036284562438, 52.962257555518818 ], [ 17.294650659599949, 52.962253962735829 ], [ 17.294808224455586, 52.962250557940386 ], [ 17.294811463076385, 52.962240172209803 ], [ 17.294935043687634, 52.961715119220145 ], [ 17.294719671306222, 52.961711489309309 ], [ 17.294059958841949, 52.961697883952489 ] ] ], [ [ [ 17.277173358649403, 52.962596602125579 ], [ 17.277212888615352, 52.962550140241028 ], [ 17.276915590152765, 52.962460483555461 ], [ 17.276494451932287, 52.962439987273932 ], [ 17.276310845160975, 52.96247644514623 ], [ 17.276098778861293, 52.962400883040615 ], [ 17.275885810594868, 52.962666153557066 ], [ 17.276340999654543, 52.96278921982023 ], [ 17.276220716499225, 52.963045942578056 ], [ 17.276747112814306, 52.963165093783807 ], [ 17.276801878301725, 52.96317748926537 ], [ 17.276834532633973, 52.963101699586275 ], [ 17.276872334086391, 52.9630125845149 ], [ 17.276884905341731, 52.96299235200577 ], [ 17.276980850680069, 52.96283815906952 ], [ 17.277085776393957, 52.962705320438715 ], [ 17.27714929813223, 52.962624852002712 ], [ 17.277173358649403, 52.962596602125579 ] ] ], [ [ [ 17.283838847273582, 52.963277070305956 ], [ 17.28438772731494, 52.963359369907593 ], [ 17.284592650116398, 52.963390117331016 ], [ 17.284691830557168, 52.963006816052086 ], [ 17.284008210894218, 52.962870591100625 ], [ 17.283838847273582, 52.963277070305956 ] ] ], [ [ [ 17.287430367703578, 52.965714709137963 ], [ 17.287558897018918, 52.965764135684239 ], [ 17.287571745207739, 52.965770706046619 ], [ 17.287598249612273, 52.965784404800687 ], [ 17.287647733553221, 52.965755073451469 ], [ 17.287915104075484, 52.965562872057738 ], [ 17.288335535081668, 52.965260558833322 ], [ 17.287192728325959, 52.964759255567813 ], [ 17.287137387332557, 52.964814036438753 ], [ 17.28650823717059, 52.965435036253929 ], [ 17.286919940548628, 52.965574431872263 ], [ 17.287142391655482, 52.965648145563293 ], [ 17.287430367703578, 52.965714709137963 ] ] ], [ [ [ 17.273056279189134, 52.967902697277019 ], [ 17.27311417224491, 52.967799396136662 ], [ 17.273274277978555, 52.967822496981668 ], [ 17.273437149543224, 52.967514594544717 ], [ 17.27349773636276, 52.967399731002097 ], [ 17.273558468145442, 52.967284959467371 ], [ 17.27310251807036, 52.967250995394963 ], [ 17.273030928571309, 52.967413902934695 ], [ 17.272936187550307, 52.967488699408214 ], [ 17.27287877811165, 52.967490203367518 ], [ 17.272829153041673, 52.967621503780634 ], [ 17.272782514126323, 52.967707791151611 ], [ 17.272717663583819, 52.967832395063873 ], [ 17.273056279189134, 52.967902697277019 ] ] ], [ [ [ 17.299890291119578, 52.938780116206374 ], [ 17.29896575396306, 52.939044866075399 ], [ 17.299133293675052, 52.939433976672511 ], [ 17.299148298553288, 52.939468905624594 ], [ 17.299169313172069, 52.939513813238904 ], [ 17.299254885268873, 52.939696612975879 ], [ 17.299277583234403, 52.939744152722085 ], [ 17.299132209466602, 52.939772828789387 ], [ 17.298675981161711, 52.939862884795808 ], [ 17.298794127448406, 52.940103258771828 ], [ 17.298822005615275, 52.940159146614 ], [ 17.299099997417979, 52.940108267481996 ], [ 17.29918336507788, 52.940093003188451 ], [ 17.299304978625347, 52.940070462126535 ], [ 17.299422695535753, 52.940048584631946 ], [ 17.299462726840918, 52.940132435569382 ], [ 17.299559327555727, 52.940326364730993 ], [ 17.299658945801646, 52.940530679282688 ], [ 17.299786276365175, 52.940798972935589 ], [ 17.300141658304359, 52.940741104807607 ], [ 17.300247432470226, 52.940723912005851 ], [ 17.300318530211946, 52.940710270036917 ], [ 17.300343243475577, 52.940698842347444 ], [ 17.300353604941545, 52.940681363703796 ], [ 17.300354527999513, 52.940657814463741 ], [ 17.300353986532784, 52.940610861694523 ], [ 17.300331906552962, 52.940429780509938 ], [ 17.300333632887995, 52.940385738036603 ], [ 17.300341842762986, 52.940362382969255 ], [ 17.3003813958296, 52.94032175946942 ], [ 17.300666292092075, 52.940641679245275 ], [ 17.300866687876191, 52.9407174411635 ], [ 17.301006158196717, 52.940702388102267 ], [ 17.301023712055681, 52.940691307559703 ], [ 17.301065615360844, 52.940674279885719 ], [ 17.301106057204951, 52.940664156139775 ], [ 17.301149029231496, 52.940657845743338 ], [ 17.30119348205864, 52.940666935044419 ], [ 17.301223065365786, 52.940683186231695 ], [ 17.301342815577765, 52.940613221758092 ], [ 17.301704851919954, 52.940461374213591 ], [ 17.301649168597553, 52.94040455002402 ], [ 17.301722040013942, 52.940376003698766 ], [ 17.302006869199332, 52.940264510747859 ], [ 17.302318030900427, 52.940138194709029 ], [ 17.30234373651113, 52.940131817033588 ], [ 17.302380403691867, 52.94013063222102 ], [ 17.302408058970268, 52.940142898514999 ], [ 17.302439351351818, 52.940164929529686 ], [ 17.302523173406087, 52.940130423734303 ], [ 17.30316407401174, 52.939866991728948 ], [ 17.303206861340598, 52.939850155798652 ], [ 17.303149562374312, 52.939796546827843 ], [ 17.302944905905626, 52.939620772614937 ], [ 17.302749243910309, 52.939702065044713 ], [ 17.302270146821485, 52.939901166627031 ], [ 17.302128527177771, 52.939769369619988 ], [ 17.301621542020275, 52.939973466051569 ], [ 17.301474382342334, 52.939850132696634 ], [ 17.301247044783988, 52.939949496034806 ], [ 17.30107342801492, 52.939764359657211 ], [ 17.301501802235403, 52.939579556576255 ], [ 17.302001810835655, 52.939371044179275 ], [ 17.302164040047664, 52.939303394701916 ], [ 17.302091007388615, 52.939233462359972 ], [ 17.301743978953937, 52.938933971975914 ], [ 17.301540040910716, 52.938759104858022 ], [ 17.301414947717184, 52.938653983497872 ], [ 17.301338020993597, 52.938584714464113 ], [ 17.301323803635029, 52.93859044677346 ], [ 17.301263246132308, 52.93853652047023 ], [ 17.300102984837032, 52.938982091375692 ], [ 17.299890291119578, 52.938780116206374 ] ] ], [ [ [ 17.301307843437669, 52.94080293001732 ], [ 17.301212738004413, 52.940874595823914 ], [ 17.301074212662989, 52.940979185700222 ], [ 17.301519215388819, 52.941213887819337 ], [ 17.301175742154836, 52.94139711705197 ], [ 17.301134888490925, 52.941421534279137 ], [ 17.300885932239694, 52.941145387453666 ], [ 17.300752660932954, 52.941370382424701 ], [ 17.300733117545342, 52.941420825119209 ], [ 17.300626842199453, 52.941693870516957 ], [ 17.300547253702408, 52.941863335012613 ], [ 17.300494288845826, 52.941976432570328 ], [ 17.300460508150643, 52.942063454156447 ], [ 17.300285198514764, 52.9424530541446 ], [ 17.301100775156296, 52.942573357605944 ], [ 17.301408504106263, 52.942618766738043 ], [ 17.301530124994972, 52.942117330483434 ], [ 17.301552374654989, 52.942024388062734 ], [ 17.301618458673826, 52.942028570295967 ], [ 17.301900385382861, 52.942051866987931 ], [ 17.301927847666093, 52.942798947206569 ], [ 17.302226009598275, 52.942827317087222 ], [ 17.302216877881225, 52.942063922822733 ], [ 17.302273481804743, 52.942066890030986 ], [ 17.302418052370665, 52.942074081865456 ], [ 17.302468895799688, 52.942075887481181 ], [ 17.302475041260063, 52.942112847790959 ], [ 17.302433938314135, 52.942411223639986 ], [ 17.302425837829674, 52.942561699679104 ], [ 17.302791621573288, 52.942557841645339 ], [ 17.302814487095997, 52.942342662403874 ], [ 17.303198959061184, 52.942340298221382 ], [ 17.303440492020762, 52.942040121898955 ], [ 17.303827666314348, 52.94160731661006 ], [ 17.303879945375222, 52.941541962215581 ], [ 17.303921742569827, 52.941466745412541 ], [ 17.303963134181927, 52.941398087909775 ], [ 17.304024101005659, 52.941327551424067 ], [ 17.304098205135492, 52.94127509907949 ], [ 17.30422858968279, 52.94126050233443 ], [ 17.304379293338037, 52.941255458519173 ], [ 17.304625941610592, 52.94127138897781 ], [ 17.304746911633842, 52.941284356669968 ], [ 17.305258135785582, 52.940910873763656 ], [ 17.305461226805953, 52.940753779774326 ], [ 17.305634451659067, 52.940633311899532 ], [ 17.305757707029549, 52.94052679030311 ], [ 17.305833218485049, 52.940445848220619 ], [ 17.305861349228785, 52.940415492274603 ], [ 17.306003416530217, 52.940235133929171 ], [ 17.306059844690413, 52.940166330363802 ], [ 17.306401842041208, 52.94019162057554 ], [ 17.307034108020673, 52.940232647539951 ], [ 17.307182896858205, 52.940242231971119 ], [ 17.307538340490396, 52.940094679561653 ], [ 17.307704054875092, 52.939258595443071 ], [ 17.307113556389851, 52.93841875323178 ], [ 17.306807329080538, 52.938541374844114 ], [ 17.30664915353864, 52.938604591737715 ], [ 17.306707394985114, 52.938660820500751 ], [ 17.306859469647044, 52.93880724020223 ], [ 17.306821616843944, 52.938827385343892 ], [ 17.306728483839414, 52.938860322519311 ], [ 17.306879140921204, 52.939012567624118 ], [ 17.306764810681766, 52.939066067197686 ], [ 17.306730633912853, 52.939045435146994 ], [ 17.306681011531726, 52.939031507790176 ], [ 17.306621872242815, 52.939021132022155 ], [ 17.306556185940238, 52.939018307208514 ], [ 17.306505901578316, 52.939025144851634 ], [ 17.306448995074213, 52.939037643789206 ], [ 17.306334101565024, 52.939082681226253 ], [ 17.306289807339851, 52.93910003638927 ], [ 17.306084617956753, 52.939212045449409 ], [ 17.305923287761644, 52.939279713061978 ], [ 17.305644091652638, 52.939030304801214 ], [ 17.305629949104439, 52.939015084312437 ], [ 17.304953631469811, 52.939290345027302 ], [ 17.304180931869396, 52.93961279009789 ], [ 17.303797510264605, 52.939759933097037 ], [ 17.303525322585738, 52.939864326235856 ], [ 17.302584880243302, 52.940269172571455 ], [ 17.302189442202533, 52.940430168304445 ], [ 17.301818468348866, 52.940574605001231 ], [ 17.301605356138609, 52.940652768303721 ], [ 17.301581188155158, 52.940661685924994 ], [ 17.301364519427857, 52.940773612760303 ], [ 17.301307843437669, 52.94080293001732 ] ] ], [ [ [ 17.300109513496221, 52.941195021316972 ], [ 17.300282133562121, 52.941533107050738 ], [ 17.300482215911234, 52.941528378597134 ], [ 17.300733299643454, 52.941180835843809 ], [ 17.300109513496221, 52.941195021316972 ] ] ], [ [ [ 17.301838722742513, 52.944778450407306 ], [ 17.301972636051367, 52.944818495791246 ], [ 17.302052084784581, 52.944838876807964 ], [ 17.302119819187869, 52.944865655479745 ], [ 17.302299775992498, 52.944908516820568 ], [ 17.302364435750587, 52.944922570879477 ], [ 17.30240168400956, 52.944933265482696 ], [ 17.302523735691036, 52.944968284389631 ], [ 17.302739340684088, 52.945036116083934 ], [ 17.302790226851446, 52.945052131549041 ], [ 17.302965159859287, 52.945128285217251 ], [ 17.303082084965283, 52.945210624959266 ], [ 17.303308409970228, 52.945369800656195 ], [ 17.30333608044057, 52.945385574301774 ], [ 17.3036435184504, 52.945560746486528 ], [ 17.30396782736662, 52.945654859350263 ], [ 17.304244673998376, 52.945702518127042 ], [ 17.304539151267509, 52.945752406354451 ], [ 17.304595825777927, 52.945624251305219 ], [ 17.304660613629927, 52.945475167699556 ], [ 17.304688974571516, 52.94540857236634 ], [ 17.304396159650096, 52.945365722981514 ], [ 17.304550501705446, 52.945028159002433 ], [ 17.304268156979475, 52.944980332509765 ], [ 17.304227781474655, 52.945068609969425 ], [ 17.303890012488488, 52.945006591551859 ], [ 17.303505350811555, 52.944940665056379 ], [ 17.30322405614001, 52.944866051059222 ], [ 17.303222102079072, 52.944820876838513 ], [ 17.30326499518582, 52.944683532293631 ], [ 17.303310526272693, 52.944554858960409 ], [ 17.30340182709832, 52.944367483446619 ], [ 17.303369527598349, 52.944329250417532 ], [ 17.303041070219951, 52.944246318197621 ], [ 17.30301380574134, 52.9441707448876 ], [ 17.303013679857663, 52.944086475950478 ], [ 17.302569708319609, 52.943953778429623 ], [ 17.302665789063045, 52.943842105325707 ], [ 17.302845872562546, 52.94364057908885 ], [ 17.302173273867378, 52.943439813361884 ], [ 17.301993878197116, 52.943363774547329 ], [ 17.301992120843408, 52.943363029969454 ], [ 17.301804039009191, 52.943314925806014 ], [ 17.301610207503256, 52.943265390160583 ], [ 17.301448216283998, 52.943223953676871 ], [ 17.301467382132913, 52.943194549791038 ], [ 17.301497145486035, 52.94314164503146 ], [ 17.301512749116576, 52.943119564717165 ], [ 17.30138349542969, 52.94308992767332 ], [ 17.301284445601897, 52.943068460321641 ], [ 17.301319754251764, 52.942928975673446 ], [ 17.300932483002001, 52.942882748706339 ], [ 17.300895757555541, 52.942949943042763 ], [ 17.300883781026915, 52.942970636219933 ], [ 17.300859970025233, 52.942966608459344 ], [ 17.300757990018628, 52.942943835928709 ], [ 17.300578213011637, 52.943386612721007 ], [ 17.300435939424734, 52.943354899832805 ], [ 17.300299568422695, 52.943324530272363 ], [ 17.300233887801564, 52.943310010798093 ], [ 17.299828315531077, 52.943219761003455 ], [ 17.299800795808064, 52.943253361874611 ], [ 17.299765133507155, 52.943350338894746 ], [ 17.299753001728046, 52.943466088881998 ], [ 17.299739904873334, 52.943557093491577 ], [ 17.300242544842945, 52.943639828864406 ], [ 17.300716489833523, 52.943717834932187 ], [ 17.300759525366235, 52.943744171228744 ], [ 17.300827760718178, 52.943788494745839 ], [ 17.300980855422623, 52.943882235753179 ], [ 17.300953275149762, 52.943959183697032 ], [ 17.300906303489654, 52.944090263766647 ], [ 17.300884239061396, 52.944151822104743 ], [ 17.300861179641338, 52.944215974264971 ], [ 17.300801974973599, 52.944381863266756 ], [ 17.300784385697124, 52.944431794302083 ], [ 17.30089830877349, 52.944488012756473 ], [ 17.301072161181771, 52.944542210165707 ], [ 17.30116498483757, 52.944570787054928 ], [ 17.301293557783449, 52.944610307193329 ], [ 17.301481863031249, 52.944668038141195 ], [ 17.301628502738264, 52.944713841683786 ], [ 17.301838722742513, 52.944778450407306 ] ] ], [ [ [ 17.302068385460181, 52.944966274888706 ], [ 17.301831239671714, 52.945349597332743 ], [ 17.301798346831042, 52.945402547369966 ], [ 17.30177706271602, 52.945436597539782 ], [ 17.301745268599962, 52.945491901521599 ], [ 17.301527719139976, 52.945872715526988 ], [ 17.301490440828434, 52.945946377292465 ], [ 17.301483988714814, 52.945959055532924 ], [ 17.301455997938543, 52.946028838722761 ], [ 17.302249661228537, 52.946214885636422 ], [ 17.302249661228551, 52.946214885636394 ], [ 17.302203521995146, 52.946298133688401 ], [ 17.302159461257567, 52.946377724245025 ], [ 17.302748618205538, 52.946514295707885 ], [ 17.303190331594472, 52.946610267482797 ], [ 17.303756352093053, 52.946733283370698 ], [ 17.304416745107133, 52.946875989584356 ], [ 17.304467946113363, 52.946777434342586 ], [ 17.305177505913178, 52.945982478502373 ], [ 17.304641755180501, 52.945907925391722 ], [ 17.304578356249195, 52.945899646282321 ], [ 17.304010438689751, 52.945802507833882 ], [ 17.303702533817845, 52.945726705795039 ], [ 17.303570269662263, 52.945671037617799 ], [ 17.303489180005059, 52.945631658364839 ], [ 17.303389393628731, 52.945575464436352 ], [ 17.303360840768633, 52.945559408406076 ], [ 17.30322325207981, 52.945476234273279 ], [ 17.302935966195683, 52.945307374318737 ], [ 17.302581762817784, 52.945087105341088 ], [ 17.302068385460181, 52.944966274888706 ] ], [ [ 17.30464656996968, 52.946272132259864 ], [ 17.304431989912676, 52.946619448817728 ], [ 17.303863266927287, 52.94650080428309 ], [ 17.304059800086304, 52.94615440026363 ], [ 17.30464656996968, 52.946272132259864 ] ] ], [ [ [ 17.298406301188745, 52.946970203516493 ], [ 17.298411183872432, 52.94684580626096 ], [ 17.298405275267481, 52.946745986021483 ], [ 17.297717571635594, 52.947052879429869 ], [ 17.29788720004461, 52.947176898816913 ], [ 17.297984434764228, 52.947138721176529 ], [ 17.298106874387869, 52.947080489698813 ], [ 17.298406301188745, 52.946970203516493 ] ] ], [ [ [ 17.299781315854236, 52.949528152785859 ], [ 17.300249682871058, 52.949586744873969 ], [ 17.300514118177492, 52.949605905792374 ], [ 17.300506485041431, 52.949584122797368 ], [ 17.300500769300498, 52.949448871943751 ], [ 17.300522841225852, 52.949356826571147 ], [ 17.300527652056136, 52.949336660481919 ], [ 17.300526649719874, 52.949255886426471 ], [ 17.30052582544841, 52.94921234712659 ], [ 17.30052500470147, 52.949168717943934 ], [ 17.300526085740419, 52.949087973683874 ], [ 17.300559104899158, 52.94871288624001 ], [ 17.300580537801636, 52.948470014266199 ], [ 17.30058140002274, 52.948459414517586 ], [ 17.300592726518868, 52.948341404700642 ], [ 17.300640233238923, 52.948151246552804 ], [ 17.300678765600271, 52.947996303662599 ], [ 17.300718504925168, 52.947837151172912 ], [ 17.300761263395074, 52.947665541171972 ], [ 17.300773111335673, 52.947617776374301 ], [ 17.300799179854678, 52.947389539752187 ], [ 17.300805516633346, 52.947334231707146 ], [ 17.300862375165831, 52.947019380324392 ], [ 17.300855615957332, 52.946975306479246 ], [ 17.300924217946339, 52.946736886088942 ], [ 17.300963058127003, 52.946669002539444 ], [ 17.301021560917054, 52.946536288706525 ], [ 17.300827200829712, 52.946496097355137 ], [ 17.300686465455481, 52.946481853827486 ], [ 17.300163362248615, 52.946342979490126 ], [ 17.300082169127286, 52.946325270257461 ], [ 17.300052201808938, 52.946318726082538 ], [ 17.299940896217606, 52.946294380560303 ], [ 17.299867526376296, 52.946278401906511 ], [ 17.299656281877873, 52.94623221132494 ], [ 17.299601420897304, 52.946218835626887 ], [ 17.299502437074366, 52.946483890315463 ], [ 17.299783628612282, 52.946519480719374 ], [ 17.299754496160698, 52.946632109535592 ], [ 17.299706409041228, 52.946818032234944 ], [ 17.299698340765158, 52.946849123501813 ], [ 17.299997740351355, 52.946876070575534 ], [ 17.299926005074035, 52.947099336898596 ], [ 17.299917718925904, 52.947173952589573 ], [ 17.29973381560832, 52.947383382973719 ], [ 17.299732916464208, 52.947387327155454 ], [ 17.299721415160089, 52.947437614939382 ], [ 17.299670269641936, 52.947697688490628 ], [ 17.299754665422771, 52.947702133744116 ], [ 17.299735052696441, 52.947997192752005 ], [ 17.299924210328179, 52.948003136909463 ], [ 17.299911549891352, 52.948120947727837 ], [ 17.299867101821576, 52.948119142635477 ], [ 17.299387765472613, 52.948086292605808 ], [ 17.299347813806328, 52.948349404070449 ], [ 17.299992221539547, 52.94839882545245 ], [ 17.299935340492116, 52.94866088547375 ], [ 17.299498120672556, 52.948620814345546 ], [ 17.299488016681664, 52.949034001317258 ], [ 17.299470253408472, 52.949137619587361 ], [ 17.299450738176976, 52.949251734928161 ], [ 17.299851790652799, 52.949284004141106 ], [ 17.299781315854236, 52.949528152785859 ] ] ], [ [ [ 17.301354178032625, 52.951092097063039 ], [ 17.301238845557247, 52.951424728649734 ], [ 17.301662221023811, 52.951514867749033 ], [ 17.301790447312751, 52.951149504632227 ], [ 17.301354178032625, 52.951092097063039 ] ] ], [ [ [ 17.300044954023132, 52.951401449168813 ], [ 17.300111358828037, 52.951397812579103 ], [ 17.300125372713531, 52.951363209044239 ], [ 17.300253881667064, 52.951002348187124 ], [ 17.299574105613797, 52.950938752563587 ], [ 17.29954047324641, 52.951090077939767 ], [ 17.299165824890121, 52.951086514582272 ], [ 17.299182994203633, 52.951407910589765 ], [ 17.299184192430388, 52.951430500888478 ], [ 17.299371330819461, 52.951397206203211 ], [ 17.299465651061968, 52.95138038963325 ], [ 17.299514483799513, 52.951372994518152 ], [ 17.299586535262272, 52.951362064535303 ], [ 17.299659495176218, 52.951358342136849 ], [ 17.299741197419745, 52.951359511227643 ], [ 17.299909156408273, 52.951386196273688 ], [ 17.300044954023132, 52.951401449168813 ] ] ], [ [ [ 17.302291346741136, 52.952332084133047 ], [ 17.302333071363286, 52.952183032060823 ], [ 17.302360924747155, 52.95201174826056 ], [ 17.300266052460678, 52.951683044140871 ], [ 17.300101739370387, 52.952167050441197 ], [ 17.300067275112507, 52.952248486217336 ], [ 17.299675664657624, 52.953288172556896 ], [ 17.299591727828027, 52.95346153108602 ], [ 17.299560135752277, 52.953526640036834 ], [ 17.300978601336602, 52.953721939093995 ], [ 17.300949939552495, 52.953841499644305 ], [ 17.300804320683397, 52.954209490940663 ], [ 17.300987489652663, 52.954235942207873 ], [ 17.301364389059771, 52.954292951907178 ], [ 17.301320801407233, 52.954515991677837 ], [ 17.301960377256652, 52.954607511160908 ], [ 17.302287345825413, 52.954654361454359 ], [ 17.302497329432093, 52.954684431049415 ], [ 17.302692358761075, 52.954712308152089 ], [ 17.30287295622767, 52.954264504261637 ], [ 17.303254140835119, 52.95431482419167 ], [ 17.303353872973197, 52.954053374723713 ], [ 17.303064223264901, 52.954027115285875 ], [ 17.303319294467439, 52.953411300586851 ], [ 17.303333816679327, 52.953363663700898 ], [ 17.303328987437823, 52.953327261904178 ], [ 17.303304584070567, 52.953303980603174 ], [ 17.303270430606219, 52.953286315775465 ], [ 17.30320762953853, 52.953273907637161 ], [ 17.302605469641144, 52.953200825843474 ], [ 17.302869637552092, 52.952516253440152 ], [ 17.302898231808438, 52.952432484729641 ], [ 17.302899576198651, 52.95239814960108 ], [ 17.302881202456824, 52.952380620086984 ], [ 17.302859474667446, 52.952368888298054 ], [ 17.302733798027678, 52.952346048989703 ], [ 17.302488020843782, 52.95232149390565 ], [ 17.302291346741136, 52.952332084133047 ] ], [ [ 17.301595266943831, 52.952501553024042 ], [ 17.301450705361937, 52.952877024662811 ], [ 17.300844586205802, 52.952791196764153 ], [ 17.300777774520288, 52.952774772938263 ], [ 17.300735979346641, 52.952773545734878 ], [ 17.300873021632867, 52.952419101618645 ], [ 17.300879031980486, 52.952406327167338 ], [ 17.30092907668331, 52.952299662957437 ], [ 17.301720593844752, 52.95241170272385 ], [ 17.301774370899444, 52.95227433449061 ], [ 17.301950011299756, 52.952321721010954 ], [ 17.301916793420236, 52.952371428829416 ], [ 17.301887157050441, 52.952432339489299 ], [ 17.301823442909601, 52.952534491961487 ], [ 17.301595266943831, 52.952501553024042 ] ] ], [ [ [ 17.30367961031369, 52.9390127680254 ], [ 17.30418177777813, 52.939485638317372 ], [ 17.30523319090679, 52.939050597838921 ], [ 17.304691791609194, 52.938582451568799 ], [ 17.30367961031369, 52.9390127680254 ] ] ], [ [ [ 17.305171982679411, 52.941073592585774 ], [ 17.305109110988159, 52.941074854122135 ], [ 17.305083714341517, 52.941412279905897 ], [ 17.305141089680429, 52.941414537292879 ], [ 17.305541215046691, 52.941419255055045 ], [ 17.305617957335748, 52.941379250139768 ], [ 17.305694054525603, 52.941359560815684 ], [ 17.305771202740562, 52.941347260929398 ], [ 17.305795925290891, 52.941095531488919 ], [ 17.305310676369235, 52.941078718562224 ], [ 17.305171982679411, 52.941073592585774 ] ] ], [ [ [ 17.305736218707679, 52.942775975826272 ], [ 17.305830461488419, 52.942177647073756 ], [ 17.305516676621682, 52.942153836869061 ], [ 17.305478078862176, 52.942341515976132 ], [ 17.30545980532403, 52.94242435336615 ], [ 17.305397611152518, 52.942712960358293 ], [ 17.305736218707679, 52.942775975826272 ] ] ], [ [ [ 17.309889796676991, 52.942841066963716 ], [ 17.30992192759734, 52.942635487861658 ], [ 17.30955444199909, 52.942629540590083 ], [ 17.30962126999594, 52.942141166708346 ], [ 17.309187243941899, 52.942116105150255 ], [ 17.308706544254292, 52.942089208501919 ], [ 17.308621253773158, 52.942615540584448 ], [ 17.308339643921663, 52.942606405277509 ], [ 17.30818179352152, 52.942592286612239 ], [ 17.308105117060329, 52.94291675177066 ], [ 17.309040586763356, 52.943009839238862 ], [ 17.309015003196844, 52.943116135499992 ], [ 17.309839192250887, 52.943165364416451 ], [ 17.309889796676991, 52.942841066963716 ] ] ], [ [ [ 17.305650399870572, 52.943855835332776 ], [ 17.305663720953337, 52.943804493750406 ], [ 17.305520277636251, 52.943775917956231 ], [ 17.305394857449144, 52.943750926557115 ], [ 17.304993182317549, 52.943697712497254 ], [ 17.304974477089647, 52.943764895322744 ], [ 17.304904986779484, 52.944076240897118 ], [ 17.305576289235695, 52.944140765046591 ], [ 17.305650399870572, 52.943855835332776 ] ] ], [ [ [ 17.306304158657436, 52.943804884526429 ], [ 17.306190386341214, 52.944239877204687 ], [ 17.3064787403151, 52.94428006652489 ], [ 17.306610166956258, 52.943845074250731 ], [ 17.306304158657436, 52.943804884526429 ] ] ], [ [ [ 17.305577320857637, 52.945897971837212 ], [ 17.30590210384144, 52.945937413185383 ], [ 17.306045792974395, 52.945948455062585 ], [ 17.306634300563459, 52.946033196648457 ], [ 17.306812874129697, 52.945467455834226 ], [ 17.30611114247424, 52.945438118438716 ], [ 17.306116671455506, 52.945403303312034 ], [ 17.306151460038432, 52.945172132213578 ], [ 17.306190426464628, 52.944914040797563 ], [ 17.306204095357209, 52.944834735002956 ], [ 17.306135182913607, 52.94483042509713 ], [ 17.305821556024792, 52.944817319676801 ], [ 17.305734199502549, 52.94514459185811 ], [ 17.305577320857637, 52.945897971837212 ] ] ], [ [ [ 17.30520785313248, 52.946470617241943 ], [ 17.3051749853134, 52.946667730902035 ], [ 17.305225601131269, 52.946671690444539 ], [ 17.305097391105164, 52.946953959545752 ], [ 17.305073443364794, 52.947006678324058 ], [ 17.304771965439237, 52.94695282449549 ], [ 17.304620635056633, 52.946920088184733 ], [ 17.30458492879087, 52.946965084733122 ], [ 17.304539506677841, 52.947041509066977 ], [ 17.304498937623148, 52.947104242907223 ], [ 17.304775290287456, 52.947160976545426 ], [ 17.30510511096659, 52.947228724572803 ], [ 17.305712616575214, 52.947353491916658 ], [ 17.305821221608692, 52.947378512947417 ], [ 17.306432875280876, 52.947519163899585 ], [ 17.306634298161352, 52.947565562098113 ], [ 17.306540671732719, 52.947469618433509 ], [ 17.306558333224306, 52.94731860313879 ], [ 17.30667787448516, 52.947200875991555 ], [ 17.306753568137275, 52.946829632782105 ], [ 17.306841910597932, 52.946835927904786 ], [ 17.306900039943187, 52.946689446244633 ], [ 17.307157016404421, 52.946716220413265 ], [ 17.307479816190774, 52.946740705552784 ], [ 17.30759609135696, 52.946315619035907 ], [ 17.307323600699991, 52.946274415406336 ], [ 17.307069757976183, 52.946236084894622 ], [ 17.306794664974603, 52.946196731556718 ], [ 17.306537244907915, 52.946158528788779 ], [ 17.306214703737748, 52.946121825359334 ], [ 17.306010531734856, 52.946096431487838 ], [ 17.305907155775753, 52.946082456968256 ], [ 17.305693151387093, 52.946053414980376 ], [ 17.305513473933889, 52.946033675565481 ], [ 17.305428499171882, 52.946253608599989 ], [ 17.305414025001337, 52.946292522964157 ], [ 17.305258905177119, 52.946280597830089 ], [ 17.30520785313248, 52.946470617241943 ] ] ], [ [ [ 17.30882616329006, 52.946503285940636 ], [ 17.308621153430192, 52.946957226506854 ], [ 17.308772311752172, 52.946994451892337 ], [ 17.308955030821629, 52.947039410812316 ], [ 17.309003740346277, 52.946954847737707 ], [ 17.309066682832594, 52.94696725488209 ], [ 17.30919287707782, 52.946713101936368 ], [ 17.309239932092311, 52.946613676310328 ], [ 17.309257000807609, 52.946576866875333 ], [ 17.309114284467476, 52.94655226289197 ], [ 17.308885493657424, 52.946512853857861 ], [ 17.30882616329006, 52.946503285940636 ] ] ], [ [ [ 17.307654121480713, 52.947491237933377 ], [ 17.307631540209641, 52.947524281383423 ], [ 17.308124134683826, 52.947637057321693 ], [ 17.309566956834242, 52.9479674109797 ], [ 17.309856562155719, 52.948032055471465 ], [ 17.309824357412193, 52.948101924810388 ], [ 17.309731200817847, 52.948245751171868 ], [ 17.309812114499998, 52.948263179984274 ], [ 17.310203728333331, 52.948361830243684 ], [ 17.310981609601392, 52.948539805246881 ], [ 17.311100246364056, 52.94834570796133 ], [ 17.310435767822181, 52.948192099252957 ], [ 17.31021607625955, 52.94814436855583 ], [ 17.310166671574233, 52.948136021672674 ], [ 17.310184308803123, 52.948111361122848 ], [ 17.310261190115856, 52.947999229101192 ], [ 17.31031670306945, 52.947919618628632 ], [ 17.310390748846675, 52.947830558923144 ], [ 17.310081393108995, 52.947753134179059 ], [ 17.310026929184922, 52.947752359566174 ], [ 17.309812788478961, 52.947852556535047 ], [ 17.308560601439339, 52.947578069990833 ], [ 17.307719244763462, 52.947386764199898 ], [ 17.307654121480713, 52.947491237933377 ] ] ], [ [ [ 17.303282754278062, 52.950175626131511 ], [ 17.303422818730439, 52.949962300241054 ], [ 17.303666834209945, 52.949473788181798 ], [ 17.303690804843701, 52.949428174708778 ], [ 17.30375272678226, 52.949310707075369 ], [ 17.303897643149547, 52.949035692663109 ], [ 17.30411148329198, 52.948658239040498 ], [ 17.304135471697705, 52.948615953246183 ], [ 17.304296268219115, 52.94865044401373 ], [ 17.304536942649175, 52.948702172328822 ], [ 17.304514846947018, 52.948745564402472 ], [ 17.304325893469116, 52.949060851684507 ], [ 17.304729981350896, 52.949164859433111 ], [ 17.30445535851862, 52.949644710125611 ], [ 17.304136208283708, 52.950351667262552 ], [ 17.304112134482544, 52.950396110220247 ], [ 17.303969638213946, 52.950658658738163 ], [ 17.304393068467391, 52.950735928516949 ], [ 17.304524991690489, 52.95048096286687 ], [ 17.304547060180532, 52.950438289871791 ], [ 17.304769560940787, 52.950490477789046 ], [ 17.304568404168897, 52.950831521359646 ], [ 17.30497585198481, 52.950908448563226 ], [ 17.305178205045038, 52.950576917159829 ], [ 17.305385884465267, 52.950626973598588 ], [ 17.30557927169431, 52.950281241842724 ], [ 17.305597526264375, 52.950248496812456 ], [ 17.305870719978596, 52.950298977334867 ], [ 17.306053936492162, 52.949984756155978 ], [ 17.306196983583089, 52.950016383217253 ], [ 17.306917446208885, 52.950178007843455 ], [ 17.30677661918925, 52.950451645145044 ], [ 17.306003002420166, 52.950358420243973 ], [ 17.305810733993123, 52.950713701493939 ], [ 17.305699457712933, 52.950916801906672 ], [ 17.305597645885477, 52.951102500281579 ], [ 17.305571661266118, 52.95117299678283 ], [ 17.305532665741879, 52.95123350506919 ], [ 17.30541336628951, 52.951474172637681 ], [ 17.306016812001836, 52.951601488126286 ], [ 17.306416927114203, 52.951692717528928 ], [ 17.306475967681592, 52.951706059647535 ], [ 17.306536567919586, 52.951549900704798 ], [ 17.306607068311717, 52.951365194265129 ], [ 17.306645478872515, 52.951277697469493 ], [ 17.306660453350176, 52.951248862581394 ], [ 17.306736614306359, 52.951102188357169 ], [ 17.306755163304768, 52.951061892999419 ], [ 17.30721318863926, 52.951119051031121 ], [ 17.30733468838763, 52.950821755410445 ], [ 17.307093157024106, 52.950783960243847 ], [ 17.306961459671431, 52.95076283826652 ], [ 17.30703274452847, 52.950668525183019 ], [ 17.307088475280324, 52.950606456188353 ], [ 17.30714138812132, 52.950551721509484 ], [ 17.307197360696179, 52.950502516295913 ], [ 17.307306400001497, 52.950413687202904 ], [ 17.307333140124783, 52.950392394321959 ], [ 17.307742293768399, 52.950457847446096 ], [ 17.3083377224679, 52.950561474651863 ], [ 17.308508147203884, 52.950589891354944 ], [ 17.308496171597763, 52.950618229563034 ], [ 17.3083948323263, 52.95083793157341 ], [ 17.308325970130866, 52.950977066455579 ], [ 17.308734297551137, 52.951040975494735 ], [ 17.309122228906364, 52.951108639863989 ], [ 17.309332571820207, 52.950644342318057 ], [ 17.310209059232342, 52.950753667433823 ], [ 17.310340785686311, 52.950571628180576 ], [ 17.310261936419746, 52.950504945981834 ], [ 17.310041625510284, 52.950468987430533 ], [ 17.310296294668479, 52.949971144182285 ], [ 17.310234376713847, 52.949897957760975 ], [ 17.309916672325688, 52.949999919735717 ], [ 17.309804633656537, 52.9500283636565 ], [ 17.3097500404294, 52.950038468957288 ], [ 17.309706871276276, 52.950041991786257 ], [ 17.309676388456683, 52.950040928632212 ], [ 17.309645909143814, 52.950039775587491 ], [ 17.309504348477216, 52.950027239585367 ], [ 17.309473908246677, 52.950135805004983 ], [ 17.309461435627181, 52.950176906686792 ], [ 17.309448814166242, 52.95021800624955 ], [ 17.309399294851811, 52.950296532465735 ], [ 17.309353926115733, 52.950344990246222 ], [ 17.309191799049803, 52.950416877904942 ], [ 17.309100279332899, 52.9504231299521 ], [ 17.308698564729671, 52.950357787399817 ], [ 17.308851667770213, 52.950059231369224 ], [ 17.308911992345237, 52.94994038941222 ], [ 17.308925700675612, 52.949913424812991 ], [ 17.309106843090913, 52.949945680446234 ], [ 17.309266916998503, 52.949976017234036 ], [ 17.309288766492841, 52.949980824761838 ], [ 17.309479022698881, 52.949592324221669 ], [ 17.308761673538314, 52.949446317799463 ], [ 17.308921117338389, 52.949118713691703 ], [ 17.309001823535251, 52.948946831615324 ], [ 17.309012229220393, 52.948893829433032 ], [ 17.309015945279565, 52.948874906502049 ], [ 17.309011007637046, 52.948852622839595 ], [ 17.30977547599025, 52.948851538563204 ], [ 17.309830352350307, 52.948605004053157 ], [ 17.309572906517793, 52.948521211702044 ], [ 17.309455290940893, 52.948490400175622 ], [ 17.30912532978336, 52.948448742846672 ], [ 17.308916648735647, 52.948431743573408 ], [ 17.308880667822429, 52.948403712058173 ], [ 17.308841471868607, 52.948389394488544 ], [ 17.308756736398987, 52.948374518668274 ], [ 17.308620680415768, 52.948362239790455 ], [ 17.308570996752863, 52.948364860071997 ], [ 17.308599599279411, 52.948318682040842 ], [ 17.307701779686347, 52.948154541591386 ], [ 17.307508558709127, 52.948466194593621 ], [ 17.30690110104689, 52.948335861432881 ], [ 17.306591368953324, 52.948268134970093 ], [ 17.306241726105522, 52.948193003896556 ], [ 17.305895365323266, 52.948117738713826 ], [ 17.305706860278502, 52.948076020115174 ], [ 17.305735019215806, 52.948029836429072 ], [ 17.305895561355719, 52.947766014237587 ], [ 17.305332143461502, 52.947644484727441 ], [ 17.304825867335573, 52.947535279156909 ], [ 17.304475650022596, 52.947463642006753 ], [ 17.304329252494487, 52.947719660168644 ], [ 17.304302240550779, 52.947766939094414 ], [ 17.304011069587254, 52.947704506970531 ], [ 17.303665422056923, 52.947630234674044 ], [ 17.303470228528283, 52.947588327076602 ], [ 17.30350777736469, 52.947538141059169 ], [ 17.303577412203968, 52.947440388981725 ], [ 17.303660951108927, 52.947459118551293 ], [ 17.303730954992322, 52.947340507230912 ], [ 17.303745229247557, 52.947314360678803 ], [ 17.303658084055812, 52.947296479010383 ], [ 17.303136091120944, 52.947182005559242 ], [ 17.302983348257985, 52.947424981166563 ], [ 17.302961526723486, 52.947476560771946 ], [ 17.302608133363165, 52.947398667363686 ], [ 17.30247158876103, 52.947368567722037 ], [ 17.302499069970644, 52.9473207563057 ], [ 17.302609558738776, 52.9471341052095 ], [ 17.302609562258045, 52.947134015326888 ], [ 17.302645252628746, 52.947074270141279 ], [ 17.302444892319926, 52.947000900451343 ], [ 17.302303982150431, 52.946949244278329 ], [ 17.302106117485927, 52.946876808994723 ], [ 17.301650170800524, 52.946703287463748 ], [ 17.301416301314553, 52.94663024644413 ], [ 17.301292879393859, 52.946630100807127 ], [ 17.301177071481902, 52.946876390114731 ], [ 17.301129550102846, 52.947078419424358 ], [ 17.301112018128837, 52.947134466747976 ], [ 17.301030196331265, 52.947398688812406 ], [ 17.300969528942453, 52.947647385116163 ], [ 17.300914924330602, 52.947870537205226 ], [ 17.300903558124912, 52.947917409574352 ], [ 17.30110139388151, 52.9479602585007 ], [ 17.301385011697075, 52.948021600532734 ], [ 17.301358367941276, 52.948066995480659 ], [ 17.301140299803475, 52.948437818760951 ], [ 17.300789138546335, 52.948363639142009 ], [ 17.300763297132278, 52.948468311201864 ], [ 17.300707507718407, 52.948695043551886 ], [ 17.300765752471971, 52.948853888564123 ], [ 17.300763952693725, 52.948918794362228 ], [ 17.300747116115346, 52.949162181742317 ], [ 17.300732161891496, 52.949217006803302 ], [ 17.300730252798697, 52.94934927075375 ], [ 17.300728969643824, 52.949363012132594 ], [ 17.300724494864106, 52.949412591083188 ], [ 17.30072366393917, 52.949452779192356 ], [ 17.300719106161008, 52.949641213300723 ], [ 17.300804033325292, 52.949643596926713 ], [ 17.300892679861164, 52.94965745515028 ], [ 17.301036107672761, 52.949686845580487 ], [ 17.301194102767766, 52.949720670947244 ], [ 17.301509052005802, 52.949788306165722 ], [ 17.301486891940801, 52.949829448449506 ], [ 17.301377351942602, 52.95003337916588 ], [ 17.301530759933758, 52.950066508969911 ], [ 17.301495343765815, 52.950134351693443 ], [ 17.301340651628909, 52.950430357714069 ], [ 17.301293326803073, 52.950517095900011 ], [ 17.301256701901707, 52.950509377681804 ], [ 17.300830517444481, 52.950422794203874 ], [ 17.300801562638004, 52.950473911677705 ], [ 17.300617904353579, 52.950437560398072 ], [ 17.30055610260132, 52.950650446915866 ], [ 17.301041605758648, 52.950701456713404 ], [ 17.30109923101303, 52.950534286065249 ], [ 17.30122819751044, 52.950560411762602 ], [ 17.30151468552814, 52.950624942037848 ], [ 17.301625588344486, 52.950648470842964 ], [ 17.301808676396952, 52.950300349513917 ], [ 17.302246770566537, 52.950387009711406 ], [ 17.302054330519685, 52.950745879930196 ], [ 17.302393993397907, 52.95081764305742 ], [ 17.30281711105853, 52.950910472372001 ], [ 17.302881361597244, 52.950923800773175 ], [ 17.30325979178923, 52.950218286134508 ], [ 17.303282754278062, 52.950175626131511 ] ], [ [ 17.305426220489537, 52.949758977878737 ], [ 17.304939868937911, 52.949664565877889 ], [ 17.305275893088098, 52.949161390145711 ], [ 17.305807107737287, 52.949287928972467 ], [ 17.305677265206455, 52.949488442624833 ], [ 17.305762360355892, 52.949505574080987 ], [ 17.305641286627218, 52.949719416632625 ], [ 17.305602194420064, 52.949793863152365 ], [ 17.305511830512341, 52.949778185308176 ], [ 17.305426220489537, 52.949758977878737 ] ], [ [ 17.308634458604594, 52.949638581973147 ], [ 17.308670900252693, 52.949647194633314 ], [ 17.308582788763097, 52.949852336126121 ], [ 17.308512319295723, 52.949838112885423 ], [ 17.307822708309139, 52.949717676835192 ], [ 17.307909757686808, 52.949524571748775 ], [ 17.307994969602507, 52.94953873548085 ], [ 17.308432795426526, 52.949605673747563 ], [ 17.308634458604594, 52.949638581973147 ] ], [ [ 17.301866057528599, 52.949351599990493 ], [ 17.302289761326971, 52.949429605301063 ], [ 17.302412783805391, 52.949197231820733 ], [ 17.302647819099484, 52.94925230083814 ], [ 17.302830829636381, 52.949289898814179 ], [ 17.302441489681375, 52.94998887108958 ], [ 17.302029536851602, 52.949900156952147 ], [ 17.301607097351631, 52.949809312962749 ], [ 17.301777691614046, 52.949502562056601 ], [ 17.301866057528599, 52.949351599990493 ] ] ], [ [ [ 17.302625752753926, 52.951386271586166 ], [ 17.302201784325746, 52.951322657634435 ], [ 17.302094460652238, 52.95160684071093 ], [ 17.302513645553727, 52.951701413513042 ], [ 17.302907743751057, 52.95179023056685 ], [ 17.302974150961365, 52.951649624742934 ], [ 17.303003684672852, 52.9515836761137 ], [ 17.303024577723868, 52.951536849700048 ], [ 17.30303913931856, 52.951492001317725 ], [ 17.303049722458312, 52.951449884034609 ], [ 17.302625752753926, 52.951386271586166 ] ] ], [ [ [ 17.305007671560823, 52.952268248459198 ], [ 17.305022373240906, 52.952235003176064 ], [ 17.30541336628951, 52.951474172637681 ], [ 17.304971609013048, 52.951377939110976 ], [ 17.304591065443855, 52.952137928080433 ], [ 17.304574061960601, 52.95217671630283 ], [ 17.304848459485228, 52.95223477062342 ], [ 17.305007671560823, 52.952268248459198 ] ] ], [ [ [ 17.306160917187849, 52.952501610961185 ], [ 17.306122728920666, 52.952644329476733 ], [ 17.306075508052125, 52.952797171550344 ], [ 17.306058388159954, 52.952865636123697 ], [ 17.30713900048935, 52.953022410041036 ], [ 17.307285175940095, 52.952600549482774 ], [ 17.307418449968104, 52.952215377391944 ], [ 17.307442795891856, 52.952137212887962 ], [ 17.306373642247252, 52.951969723040278 ], [ 17.306351445212648, 52.952027143498988 ], [ 17.306182202007307, 52.952448494308491 ], [ 17.306160917187849, 52.952501610961185 ] ] ], [ [ [ 17.312989623947548, 52.933631522068637 ], [ 17.313225765768564, 52.934494409598074 ], [ 17.313373643528202, 52.93487908363786 ], [ 17.313598936246262, 52.934853862965802 ], [ 17.313830508270158, 52.934827921591179 ], [ 17.314137278875346, 52.934793513967499 ], [ 17.314214138559297, 52.934784442160563 ], [ 17.314215228578838, 52.934756398562051 ], [ 17.314137254846404, 52.934510764577361 ], [ 17.31411177327675, 52.934423437870514 ], [ 17.313869216575981, 52.933560039032663 ], [ 17.312989623947548, 52.933631522068637 ] ] ], [ [ [ 17.320872319802216, 52.936895473531777 ], [ 17.320517510610976, 52.936882454486486 ], [ 17.320379301389874, 52.936880500690378 ], [ 17.320379383267426, 52.936943724601818 ], [ 17.320375090186143, 52.937189090498222 ], [ 17.320891285934273, 52.937174533212456 ], [ 17.320915809981372, 52.936894829108802 ], [ 17.320872319802216, 52.936895473531777 ] ] ], [ [ [ 17.318601273241793, 52.937152399313241 ], [ 17.317976148382584, 52.937116211305181 ], [ 17.317935977385627, 52.937276892132616 ], [ 17.318114188023106, 52.937287598922509 ], [ 17.31813028648174, 52.937455911245188 ], [ 17.318175503269227, 52.93745682112165 ], [ 17.318569511130367, 52.937464826059724 ], [ 17.318601273241793, 52.937152399313241 ] ] ], [ [ [ 17.317708747011768, 52.939174494725627 ], [ 17.317700859462725, 52.939458390806514 ], [ 17.317696623884476, 52.939609777653551 ], [ 17.317859733399629, 52.939610917931404 ], [ 17.317862094680503, 52.939454108578488 ], [ 17.317876816992801, 52.939454496880572 ], [ 17.317885071878351, 52.939176451627056 ], [ 17.317708747011768, 52.939174494725627 ] ] ], [ [ [ 17.31691418042185, 52.939337981033326 ], [ 17.316798816639231, 52.939272674316349 ], [ 17.316650831357791, 52.939188738874954 ], [ 17.316601664775234, 52.939910742281171 ], [ 17.316492663619982, 52.939938426011103 ], [ 17.316178149416515, 52.939941343610123 ], [ 17.316006998848067, 52.939936399815792 ], [ 17.316000006786151, 52.940066613349266 ], [ 17.316001895331894, 52.940251811759076 ], [ 17.315231724260421, 52.94023118051426 ], [ 17.31493846717807, 52.940223334530842 ], [ 17.314917733618142, 52.94050021341053 ], [ 17.314875173869126, 52.940898192011076 ], [ 17.314864225266259, 52.941022863463644 ], [ 17.314861196743347, 52.941100792252442 ], [ 17.314904493493703, 52.94110140632079 ], [ 17.314896763916494, 52.941185383866561 ], [ 17.315323166902807, 52.941195747400243 ], [ 17.316434612270101, 52.9412227430455 ], [ 17.316599867589044, 52.94123012078385 ], [ 17.316650319824355, 52.941199808786351 ], [ 17.316800458181557, 52.941205443212418 ], [ 17.316720483526325, 52.941781498770908 ], [ 17.316454676457393, 52.941771887098682 ], [ 17.314987288949691, 52.941698385340345 ], [ 17.314838621009468, 52.941689352040456 ], [ 17.314831699539475, 52.941748699451111 ], [ 17.314979455402106, 52.941754392309981 ], [ 17.31631594344331, 52.941821362795601 ], [ 17.316283081315241, 52.94205040555714 ], [ 17.316275789070179, 52.942096347799534 ], [ 17.316260802744768, 52.942210080251527 ], [ 17.31625250262454, 52.942289643065429 ], [ 17.317284878371698, 52.942317848299851 ], [ 17.317463329254032, 52.942322893571998 ], [ 17.317507806135513, 52.941874938800652 ], [ 17.31756379748883, 52.941233791584203 ], [ 17.317582822137112, 52.940969838495512 ], [ 17.317609501337294, 52.940485568545242 ], [ 17.31762174863114, 52.940238966416018 ], [ 17.317616868264945, 52.940027105605473 ], [ 17.317592864779158, 52.939824686744046 ], [ 17.317271425866767, 52.939610951010501 ], [ 17.31691418042185, 52.939337981033326 ] ], [ [ 17.316394648969752, 52.940695350502061 ], [ 17.316379358758379, 52.940966461062814 ], [ 17.316361061602962, 52.940966111854323 ], [ 17.316112354711425, 52.940960968539429 ], [ 17.316120374599222, 52.940819617919018 ], [ 17.316127795373529, 52.940689860134903 ], [ 17.316394648969752, 52.940695350502061 ] ] ], [ [ [ 17.313168237601879, 52.943213932339454 ], [ 17.313327585571933, 52.942741888905893 ], [ 17.312951926290374, 52.942716410637324 ], [ 17.312850724458478, 52.943189998721401 ], [ 17.313168237601879, 52.943213932339454 ] ] ], [ [ [ 17.3153568440489, 52.942900001524627 ], [ 17.315181681294284, 52.94288690577693 ], [ 17.31482340311846, 52.942854665148367 ], [ 17.314820669332935, 52.942902020950363 ], [ 17.314794991636717, 52.943367328680651 ], [ 17.315214988597941, 52.943401343861623 ], [ 17.3153568440489, 52.942900001524627 ] ] ], [ [ [ 17.316997292305793, 52.943026492140071 ], [ 17.316965170495532, 52.943025587476129 ], [ 17.316891440305433, 52.943417729048903 ], [ 17.317225266862554, 52.943439544632895 ], [ 17.317250192961311, 52.942992931907817 ], [ 17.317186578066327, 52.943005610785114 ], [ 17.31709957701738, 52.943022455030579 ], [ 17.317042801985856, 52.943027676358817 ], [ 17.316997292305793, 52.943026492140071 ] ] ], [ [ [ 17.319593367820644, 52.943982978228419 ], [ 17.320316042891214, 52.944055430032833 ], [ 17.320465626816546, 52.943310833354069 ], [ 17.320154589274924, 52.943288719546743 ], [ 17.319738313457847, 52.943250817432208 ], [ 17.319071062542545, 52.943192995766154 ], [ 17.318995582206092, 52.943600042592593 ], [ 17.318960626977393, 52.943683725071999 ], [ 17.31891449876634, 52.943752230697314 ], [ 17.318886329675252, 52.943833670917058 ], [ 17.31884129471479, 52.944127383498156 ], [ 17.319558011578195, 52.944161534204532 ], [ 17.319593367820644, 52.943982978228419 ] ] ], [ [ [ 17.313791805244566, 52.945091496589122 ], [ 17.313788078713305, 52.945099267854729 ], [ 17.313717828856745, 52.945087209158046 ], [ 17.313483145330117, 52.945046286395275 ], [ 17.313164460223845, 52.94499472770967 ], [ 17.313087670544675, 52.944982395928371 ], [ 17.313039194136788, 52.945080363934302 ], [ 17.313104319731451, 52.945090191897066 ], [ 17.313438238990241, 52.94514052805534 ], [ 17.313672334772921, 52.945181262696394 ], [ 17.314052499827543, 52.945244574235751 ], [ 17.314337819606351, 52.945292779329399 ], [ 17.314381211699907, 52.945199145389964 ], [ 17.314096044779586, 52.945150852632501 ], [ 17.313957551057051, 52.945128742549628 ], [ 17.313915699378878, 52.945121493642681 ], [ 17.31384885786078, 52.945109843120477 ], [ 17.313852584382136, 52.945102071852936 ], [ 17.313791805244566, 52.945091496589122 ] ] ], [ [ [ 17.31127275065548, 52.945729137687096 ], [ 17.312021083749951, 52.945820631232017 ], [ 17.311888810110883, 52.946220929844678 ], [ 17.311802500077881, 52.946421866870757 ], [ 17.311445490395926, 52.946379315578433 ], [ 17.31149649177906, 52.946218565874105 ], [ 17.311080457098068, 52.946144052409906 ], [ 17.311004471287809, 52.946133979038699 ], [ 17.310840068652837, 52.946108079596961 ], [ 17.310718802395954, 52.946088953547942 ], [ 17.310611813940813, 52.946249297481408 ], [ 17.310450610575376, 52.946607874711262 ], [ 17.310891367696861, 52.946679162558006 ], [ 17.310933829571216, 52.946686061465712 ], [ 17.311213910226801, 52.946731321691686 ], [ 17.31165056287422, 52.946801019511149 ], [ 17.312077946901969, 52.946852597498399 ], [ 17.312172641750884, 52.946864015124973 ], [ 17.31223588082587, 52.946872647622584 ], [ 17.312500249949345, 52.946908508486139 ], [ 17.312753656856053, 52.946942954038306 ], [ 17.313111776949814, 52.946991566208609 ], [ 17.313152208674502, 52.946997086506038 ], [ 17.313174802749906, 52.946879415499708 ], [ 17.313221815112769, 52.946769375683786 ], [ 17.313233350596722, 52.946740760961561 ], [ 17.313292479159362, 52.946636918610736 ], [ 17.313512817390748, 52.946105306069761 ], [ 17.313553461779772, 52.946009654908224 ], [ 17.313576787517665, 52.945953508205584 ], [ 17.313630137561283, 52.94582593135592 ], [ 17.313638966527616, 52.945805641926782 ], [ 17.313739203078185, 52.945563526599265 ], [ 17.313760709721652, 52.945512030546766 ], [ 17.313383739848689, 52.945458386248376 ], [ 17.312884246310972, 52.945393108492681 ], [ 17.312500290129844, 52.945335405135602 ], [ 17.312267756336595, 52.945300446068657 ], [ 17.312126843822018, 52.945279288752488 ], [ 17.312149976696972, 52.945224308701341 ], [ 17.312286663351927, 52.944898894957724 ], [ 17.312309141135376, 52.944845434427165 ], [ 17.312330125726668, 52.94479590972589 ], [ 17.312096359083593, 52.944762101917171 ], [ 17.311865652775438, 52.944726178739231 ], [ 17.311708936423475, 52.94470182859375 ], [ 17.311611946679065, 52.944936793810193 ], [ 17.310994419214676, 52.944840422727175 ], [ 17.311040307407389, 52.94472874894916 ], [ 17.310421081043103, 52.944626415141592 ], [ 17.310038444380083, 52.944573309095276 ], [ 17.309913156496854, 52.944873251650279 ], [ 17.309887543736199, 52.944934491307322 ], [ 17.309750799997097, 52.94491339045463 ], [ 17.309646765684509, 52.944897251424301 ], [ 17.309672676357945, 52.944836016055071 ], [ 17.309914321237624, 52.944266671353127 ], [ 17.31000404096218, 52.944054177186167 ], [ 17.309694981232695, 52.944008052056851 ], [ 17.309648734887706, 52.944025740442157 ], [ 17.309455420245879, 52.944004643807432 ], [ 17.309413600384453, 52.943992807179882 ], [ 17.309363917002603, 52.943984096230906 ], [ 17.30915552601056, 52.944467937312218 ], [ 17.30905234857185, 52.944718600504451 ], [ 17.308730647539758, 52.944683139700949 ], [ 17.308843743448929, 52.944420961454568 ], [ 17.308531960887297, 52.944373985545916 ], [ 17.308233113404899, 52.94432557381176 ], [ 17.308243119417803, 52.944301884076552 ], [ 17.308278488073022, 52.944215782329792 ], [ 17.307976390644182, 52.944151495485983 ], [ 17.307847931293157, 52.944530657914662 ], [ 17.307608617110748, 52.944495196957114 ], [ 17.307812622643294, 52.944107488591676 ], [ 17.307732764688442, 52.944099642004097 ], [ 17.307363863941806, 52.94404573366149 ], [ 17.307030492527307, 52.943997006920775 ], [ 17.30683857221393, 52.944416776780933 ], [ 17.306816606679323, 52.944464577849068 ], [ 17.307162170153973, 52.94451761578209 ], [ 17.307528007461919, 52.944573819342025 ], [ 17.307668603696353, 52.944595337370629 ], [ 17.307784027269513, 52.944613349074416 ], [ 17.308092427320375, 52.944661178488346 ], [ 17.308332161074699, 52.944698406671598 ], [ 17.308229708571002, 52.944962249835278 ], [ 17.308176449653104, 52.944953577419611 ], [ 17.307689134373412, 52.944874151808818 ], [ 17.307649049475586, 52.944962794260114 ], [ 17.307608971427399, 52.945051256929595 ], [ 17.307577961523506, 52.945136251436146 ], [ 17.307545111187913, 52.945226435823884 ], [ 17.307509123958621, 52.945313068138638 ], [ 17.307472499273178, 52.945400770555999 ], [ 17.307395836877905, 52.945583501229457 ], [ 17.307804471530712, 52.945642022243838 ], [ 17.30788486710464, 52.945653509464989 ], [ 17.307714283995161, 52.945770780655877 ], [ 17.307610093390007, 52.945850146292379 ], [ 17.307542579570992, 52.945970144307331 ], [ 17.307510983389093, 52.946043439170481 ], [ 17.307475132988284, 52.946137987506468 ], [ 17.307523372511021, 52.946145599469531 ], [ 17.30779964372898, 52.946189104807708 ], [ 17.307999557549042, 52.946220640322494 ], [ 17.308095091842212, 52.946231567710669 ], [ 17.308271635091529, 52.945879334758381 ], [ 17.308663953423352, 52.945945526404486 ], [ 17.308484764460271, 52.946297181192868 ], [ 17.308790034708672, 52.946345315844937 ], [ 17.308918960339032, 52.945999898038018 ], [ 17.309408800679179, 52.94609409095662 ], [ 17.309513322611714, 52.945757589144804 ], [ 17.309874255476988, 52.945769409122306 ], [ 17.310118594076098, 52.945671750052647 ], [ 17.310609536045511, 52.945628158297048 ], [ 17.310640768503237, 52.945632829201195 ], [ 17.310853305547695, 52.945665168922709 ], [ 17.31107028245313, 52.945698200900608 ], [ 17.31127275065548, 52.945729137687096 ] ] ], [ [ [ 17.320687735075694, 52.945502124915265 ], [ 17.321413154836748, 52.946046575236856 ], [ 17.321953745107773, 52.945781445248237 ], [ 17.321281424690518, 52.945234420927243 ], [ 17.321090645598801, 52.945320578864042 ], [ 17.320687735075694, 52.945502124915265 ] ] ], [ [ [ 17.314961034616516, 52.947326994138777 ], [ 17.315361191946458, 52.947351464126463 ], [ 17.315510668842492, 52.947359338988633 ], [ 17.31552472148601, 52.947323385257292 ], [ 17.315712242856304, 52.946842565250599 ], [ 17.315657298385993, 52.946823530060037 ], [ 17.315744655299703, 52.946613786200444 ], [ 17.315583022783823, 52.946589281610152 ], [ 17.31529533309844, 52.94652135070934 ], [ 17.314961034616516, 52.947326994138777 ] ] ], [ [ [ 17.310532435842099, 52.947220760942891 ], [ 17.310558167837787, 52.947179398004323 ], [ 17.310473276613731, 52.947160923869347 ], [ 17.310359305304619, 52.947136010661517 ], [ 17.310015769323861, 52.947060887575063 ], [ 17.30995974186186, 52.947153710715213 ], [ 17.30983963248465, 52.947305337688753 ], [ 17.309776349163275, 52.947408579668405 ], [ 17.309763631537503, 52.947429263166299 ], [ 17.30975106621139, 52.947449858896476 ], [ 17.309934504479781, 52.947487901695403 ], [ 17.309941594683654, 52.947489351534642 ], [ 17.310250131040402, 52.947553365023531 ], [ 17.310330371339404, 52.94741232236894 ], [ 17.310394152476491, 52.947300093903465 ], [ 17.310454808051837, 52.947203109532751 ], [ 17.310532435842099, 52.947220760942891 ] ] ], [ [ [ 17.315309536548856, 52.947577272250129 ], [ 17.315122634224245, 52.947486488094519 ], [ 17.315043407730538, 52.947452449274842 ], [ 17.314565223746939, 52.947359242067691 ], [ 17.313904743060348, 52.94727136032629 ], [ 17.312970065445107, 52.947147656033145 ], [ 17.312902074496364, 52.947138686662008 ], [ 17.312749938143433, 52.947394273690385 ], [ 17.312550174222903, 52.947706741107012 ], [ 17.312500234535566, 52.947784812961061 ], [ 17.312423657194561, 52.947904594998192 ], [ 17.312295416085377, 52.948093161195253 ], [ 17.311984745240885, 52.948550282978132 ], [ 17.311853881343282, 52.948752571151999 ], [ 17.311947256994006, 52.948782676196721 ], [ 17.312500202635867, 52.948902496524376 ], [ 17.312974743773715, 52.949005462892153 ], [ 17.31309848379053, 52.948821598523359 ], [ 17.313148859585535, 52.948743802418861 ], [ 17.313470770236382, 52.948227121877792 ], [ 17.313397423440978, 52.948210342569183 ], [ 17.3134530471388, 52.948108608788488 ], [ 17.313548278867124, 52.948048896132754 ], [ 17.313650253888468, 52.948018687104693 ], [ 17.313973751546584, 52.948096393099945 ], [ 17.313920622042239, 52.948168484712411 ], [ 17.313840930946512, 52.948276532199237 ], [ 17.313885519274354, 52.948355136588368 ], [ 17.315356124016951, 52.948715581431998 ], [ 17.315517772771631, 52.948755195197663 ], [ 17.315156266797722, 52.949356396013201 ], [ 17.316043520923191, 52.949556213168563 ], [ 17.31637751153373, 52.949053635747916 ], [ 17.316878120292536, 52.949497890536101 ], [ 17.317028856395027, 52.949251091975277 ], [ 17.3169592402771, 52.949149651156084 ], [ 17.316881225157363, 52.949026777279926 ], [ 17.316610204551441, 52.948709342774862 ], [ 17.316259182542147, 52.948811029433287 ], [ 17.315973430669853, 52.948497341722081 ], [ 17.316184170470216, 52.948219918135678 ], [ 17.316044046109766, 52.948067025320512 ], [ 17.316011150097484, 52.948032294757063 ], [ 17.315882273109899, 52.947942514028007 ], [ 17.31583008446367, 52.947906160978242 ], [ 17.315679750212531, 52.947801506791613 ], [ 17.315442316509376, 52.94764318685268 ], [ 17.315309536548856, 52.947577272250129 ] ] ], [ [ [ 17.311163129007941, 52.948745723268885 ], [ 17.31093191651496, 52.949020329003076 ], [ 17.31127696113936, 52.949210045061889 ], [ 17.31144124990783, 52.949300334032841 ], [ 17.311455329500728, 52.949313484425012 ], [ 17.31148194608167, 52.949283825123274 ], [ 17.311548159039329, 52.94919708159258 ], [ 17.311627600164091, 52.949084175694708 ], [ 17.311642729925627, 52.94906271688432 ], [ 17.311765789548048, 52.94888882673601 ], [ 17.311163129007941, 52.948745723268885 ] ] ], [ [ [ 17.313785786085571, 52.950038700492861 ], [ 17.31371380120774, 52.950235620810545 ], [ 17.313602487828305, 52.950540171956042 ], [ 17.314112998260178, 52.950633841440968 ], [ 17.314185529375976, 52.950480276203436 ], [ 17.314267889286413, 52.950487470130646 ], [ 17.314364287185693, 52.950294493126634 ], [ 17.314294398848169, 52.950292062758528 ], [ 17.314200121917775, 52.950288836681999 ], [ 17.314122784749028, 52.950271191843058 ], [ 17.314059848521836, 52.950235494944998 ], [ 17.313968774645044, 52.950157580065174 ], [ 17.313828138750562, 52.950059986020655 ], [ 17.313785786085571, 52.950038700492861 ] ] ], [ [ [ 17.314821519667795, 52.951130427501248 ], [ 17.315240508719025, 52.951192306923836 ], [ 17.315365089684885, 52.951048022570397 ], [ 17.3157384954593, 52.951087400346083 ], [ 17.315963643126207, 52.950431834701384 ], [ 17.315613894968269, 52.95038155136929 ], [ 17.315518348411484, 52.950414821006355 ], [ 17.315354574456624, 52.950406743526251 ], [ 17.315110350919525, 52.950372973489522 ], [ 17.315091816202056, 52.950424601826285 ], [ 17.315006704791113, 52.950633747461445 ], [ 17.314970937192367, 52.950734144713749 ], [ 17.314821519667795, 52.951130427501248 ] ] ], [ [ [ 17.318429720600676, 52.950627738608652 ], [ 17.318301658238539, 52.950892756362137 ], [ 17.318208076100671, 52.95108649575856 ], [ 17.31815788221116, 52.951190466909694 ], [ 17.318540278577004, 52.951259191205089 ], [ 17.318586374554606, 52.951164874635246 ], [ 17.318745946232781, 52.950832223423298 ], [ 17.318729287575984, 52.950824073650438 ], [ 17.318624750070931, 52.950762879241296 ], [ 17.318520801010084, 52.950690361553953 ], [ 17.318429720600676, 52.950627738608652 ] ] ], [ [ [ 17.317553406782348, 52.950766690798837 ], [ 17.317486936457581, 52.950910181446197 ], [ 17.317437379281227, 52.951020726402795 ], [ 17.317416379381232, 52.951017011605231 ], [ 17.317394577760609, 52.951064636985748 ], [ 17.317355178047539, 52.951197359234214 ], [ 17.317811710512721, 52.951266506136015 ], [ 17.317848198653678, 52.951178079313557 ], [ 17.317863030805832, 52.951148881313124 ], [ 17.317868803423252, 52.951149772425275 ], [ 17.317943204531392, 52.950986069066282 ], [ 17.317999266554448, 52.950842161045237 ], [ 17.317848958668705, 52.950817010565579 ], [ 17.317553406782348, 52.950766690798837 ] ] ], [ [ [ 17.319880322902915, 52.951338131031896 ], [ 17.319643740319357, 52.951233791385164 ], [ 17.319259005825728, 52.951064043258356 ], [ 17.319153222525721, 52.951238455144903 ], [ 17.318897436073662, 52.95166003805317 ], [ 17.318856269415051, 52.951727084962386 ], [ 17.319063027370234, 52.951774976256075 ], [ 17.319380810734167, 52.951839726054722 ], [ 17.319732517853581, 52.951486498328343 ], [ 17.319880322902915, 52.951338131031896 ] ] ], [ [ [ 17.320312100223639, 52.95152365077189 ], [ 17.320717859972078, 52.951700527435982 ], [ 17.321081408484723, 52.951394947529401 ], [ 17.320600563391189, 52.951265214787462 ], [ 17.320312100223639, 52.95152365077189 ] ] ], [ [ [ 17.325205110997175, 52.953981412936663 ], [ 17.325440195874407, 52.953735972718512 ], [ 17.324701875373911, 52.953428249079316 ], [ 17.324134071409993, 52.953182011384826 ], [ 17.323764570740927, 52.953021756008269 ], [ 17.323232025781259, 52.952792019283599 ], [ 17.323193882264878, 52.95284265265493 ], [ 17.323120274558722, 52.952940090072182 ], [ 17.322586807758814, 52.953646175421184 ], [ 17.323154607662673, 52.953765435730141 ], [ 17.323822847344491, 52.953905985203491 ], [ 17.323712063048379, 52.954163787832542 ], [ 17.324681853347208, 52.954319917368508 ], [ 17.325205110997175, 52.953981412936663 ] ] ] ] } }
]
}
